_id,name,category_code,offices,address1,address2,city,latitude,longitude,country_code
613517e27c85e5f861db8b05,Crocus Technology,cleantech,"{'description': 'Headquarters', 'address1': '710 Lakeway Drive, Suite 100', 'address2': '', 'zip_code': '94085', 'city': 'Sunnyvale', 'state_code': 'CA', 'country_code': 'USA', 'latitude': 37.386774, 'longitude': -121.987661}","710 Lakeway Drive, Suite 100",,Sunnyvale,37.386774,-121.987661,USA
613517e17c85e5f861db806a,Selatra,games_video,"{'description': 'Irish Office', 'address1': '4500 Airport Business Park', 'address2': 'Kinsale Road', 'zip_code': '', 'city': 'Cork', 'state_code': None, 'country_code': 'IRL', 'latitude': 51.8717115, 'longitude': -8.5010032}",4500 Airport Business Park,Kinsale Road,Cork,51.8717115,-8.5010032,IRL
613517e27c85e5f861db88f2,Bigpoint,games_video,"{'description': 'Bigpoint Headquarters', 'address1': 'Drehbahn 47-48', 'address2': '', 'zip_code': '20354', 'city': 'Hamburg', 'state_code': None, 'country_code': 'DEU', 'latitude': 53.5973055, 'longitude': 9.9762519}",Drehbahn 47-48,,Hamburg,53.5973055,9.9762519,DEU
613517e27c85e5f861db87cc,Prosensa,biotech,"{'description': None, 'address1': None, 'address2': None, 'zip_code': None, 'city': 'Leiden', 'state_code': '', 'country_code': 'NLD', 'latitude': 52.158494, 'longitude': 4.496199}",,,Leiden,52.158494,4.496199,NLD
613517e27c85e5f861db82eb,Owlient,games_video,"{'description': 'Main Office', 'address1': '26-28 rue de ChambÃ©ry', 'address2': '', 'zip_code': '75015', 'city': 'Paris', 'state_code': None, 'country_code': 'FRA', 'latitude': 48.8308091, 'longitude': 2.3032201}",26-28 rue de ChambÃ©ry,,Paris,48.8308091,2.3032201,FRA
613517e27c85e5f861db8434,Symphogen,biotech,"{'description': 'Symphogen A/S', 'address1': 'Elektrovej Building 375', 'address2': '', 'zip_code': 'DK-2800', 'city': 'Lyngby', 'state_code': None, 'country_code': 'DNK', 'latitude': 55.783256, 'longitude': 12.515066}",Elektrovej Building 375,,Lyngby,55.783256,12.515066,DNK
613517e27c85e5f861db849a,Novaled,cleantech,"{'description': None, 'address1': None, 'address2': None, 'zip_code': None, 'city': 'Dresden', 'state_code': '', 'country_code': 'DEU', 'latitude': 51.0504088, 'longitude': 13.7372621}",,,Dresden,51.0504088,13.7372621,DEU
613517e17c85e5f861db6b43,sevenload,games_video,"{'description': None, 'address1': 'Vogelsanger Str. 78', 'address2': '', 'zip_code': '50823', 'city': 'Cologne', 'state_code': None, 'country_code': 'DEU', 'latitude': 50.945289, 'longitude': 6.921546}",Vogelsanger Str. 78,,Cologne,50.945289,6.921546,DEU
613517e17c85e5f861db6909,eRepublik,games_video,"{'description': 'Office', 'address1': 'Almagro 22', 'address2': '', 'zip_code': '28010', 'city': 'Madrid', 'state_code': None, 'country_code': 'ESP', 'latitude': 40.43094, 'longitude': -3.6952896}",Almagro 22,,Madrid,40.43094,-3.6952896,ESP
613517e27c85e5f861db8782,P21,cleantech,"{'description': '', 'address1': 'Eugen-SÃ¤nger-Ring 1', 'address2': 'D-85649 Brunnthal', 'zip_code': '', 'city': 'Munich', 'state_code': None, 'country_code': 'DEU', 'latitude': 48.0418471, 'longitude': 11.6644864}",Eugen-SÃ¤nger-Ring 1,D-85649 Brunnthal,Munich,48.0418471,11.6644864,DEU
613517e17c85e5f861db66ad,iOpener,games_video,"{'description': None, 'address1': 'RoermonderstraÃŸe 199', 'address2': '', 'zip_code': '52072', 'city': 'Aachen', 'state_code': None, 'country_code': 'DEU', 'latitude': 50.791481, 'longitude': 6.066681}",RoermonderstraÃŸe 199,,Aachen,50.791481,6.066681,DEU
613517e17c85e5f861db777a,Apaja,games_video,"{'description': 'Apaja HQ', 'address1': 'Mikonkatu 19', 'address2': '', 'zip_code': '00100', 'city': 'Helsinki', 'state_code': None, 'country_code': 'FIN', 'latitude': 60.171821, 'longitude': 24.945167}",Mikonkatu 19,,Helsinki,60.171821,24.945167,FIN
613517e17c85e5f861db78a7,Awdio,games_video,"{'description': 'HQ', 'address1': '33 rue Stephenson', 'address2': '', 'zip_code': '75018', 'city': 'Paris', 'state_code': None, 'country_code': 'FRA', 'latitude': 48.887534, 'longitude': 2.356288}",33 rue Stephenson,,Paris,48.887534,2.356288,FRA
613517e17c85e5f861db812e,Geewa,games_video,"{'description': 'World Headquarters', 'address1': 'Sokolovska 84', 'address2': '', 'zip_code': '18600', 'city': 'Prague 8', 'state_code': None, 'country_code': 'CZE', 'latitude': 50.0938491, 'longitude': 14.4505336}",Sokolovska 84,,Prague 8,50.0938491,14.4505336,CZE
613517e17c85e5f861db78f8,Citizenside,games_video,"{'description': 'Paris Bureau', 'address1': 'Level 5', 'address2': '52 boulevard Sébastopol', 'zip_code': '75003', 'city': 'Paris', 'state_code': None, 'country_code': 'FRA', 'latitude': 48.8926988, 'longitude': 2.3179601}",Level 5,52 boulevard Sébastopol,Paris,48.8926988,2.3179601,FRA
613517e27c85e5f861db8263,Heartscape,biotech,"{'description': 'Heartscape', 'address1': '9160 Rumsey Road,', 'address2': 'Suite B-8', 'zip_code': 'Maryland 21045', 'city': 'Columbia', 'state_code': 'MD', 'country_code': 'USA', 'latitude': 39.2328783, 'longitude': -76.8204666}","9160 Rumsey Road,",Suite B-8,Columbia,39.2328783,-76.8204666,USA
613517e27c85e5f861db8482,Serious Parody,games_video,"{'description': None, 'address1': None, 'address2': None, 'zip_code': None, 'city': 'Dundee', 'state_code': '', 'country_code': 'GBR', 'latitude': 56.462018, 'longitude': -2.970721}",,,Dundee,56.462018,-2.970721,GBR
613517e27c85e5f861db825b,Atraverda,cleantech,"{'description': 'Head Office', 'address1': 'Units A&B', 'address2': 'Roseheyworth Business Park', 'zip_code': 'NP13 1SX', 'city': 'Abertillery, Gwent,', 'state_code': None, 'country_code': 'GBR', 'latitude': 23.066066, 'longitude': -82.2927796}",Units A&B,Roseheyworth Business Park,"Abertillery, Gwent,",23.066066,-82.2927796,GBR
613517e27c85e5f861db8715,Renewable Energy Group,cleantech,"{'description': 'HQ', 'address1': '416 S. Bell Ave., PO Box 888', 'address2': '', 'zip_code': '50010', 'city': 'Ames', 'state_code': 'IN', 'country_code': 'USA', 'latitude': 42.0231313, 'longitude': -93.57495}","416 S. Bell Ave., PO Box 888",,Ames,42.0231313,-93.57495,USA
613517e17c85e5f861db6b4d,amazingtunes,games_video,"{'description': None, 'address1': '19 Grey St', 'address2': '', 'zip_code': 'NE1 6EE', 'city': 'Newcastle Upon Tyne', 'state_code': None, 'country_code': 'GBR', 'latitude': 54.971346, 'longitude': -1.611141}",19 Grey St,,Newcastle Upon Tyne,54.971346,-1.611141,GBR
613517e17c85e5f861db64be,RedLasso,games_video,"{'description': None, 'address1': '620 Allendale Road', 'address2': 'Suite 100-A', 'zip_code': '19406', 'city': 'King of Prussia', 'state_code': 'PA', 'country_code': 'USA', 'latitude': 40.099703, 'longitude': -75.39599}",620 Allendale Road,Suite 100-A,King of Prussia,40.099703,-75.39599,USA
613517e27c85e5f861db8426,Tribal Nova,games_video,"{'description': ""Montreal's Office"", 'address1': '4398, Boul. St-Laurent', 'address2': 'Suite 304', 'zip_code': 'H2W 1Z5', 'city': 'Montreal', 'state_code': None, 'country_code': 'CAN', 'latitude': 45.5194549, 'longitude': -73.5849023}","4398, Boul. St-Laurent",Suite 304,Montreal,45.5194549,-73.5849023,CAN
613517e27c85e5f861db89c4,Woodland Biofuels,cleantech,"{'description': 'Head Office', 'address1': '220 Superior Boulevard', 'address2': 'Mississauga', 'zip_code': 'L5T 2L2', 'city': 'Ontario', 'state_code': None, 'country_code': 'CAN', 'latitude': 43.6455935, 'longitude': -79.6944325}",220 Superior Boulevard,Mississauga,Ontario,43.6455935,-79.6944325,CAN
613517e07c85e5f861db6192,Revision3,games_video,"{'description': 'HQ', 'address1': '2415 3rd St', 'address2': '', 'zip_code': '94107', 'city': 'San Francisco', 'state_code': 'CA', 'country_code': 'USA', 'latitude': 37.757758, 'longitude': -122.388243}",2415 3rd St,,San Francisco,37.757758,-122.388243,USA
613517e17c85e5f861db627e,PermissionTV,games_video,"{'description': None, 'address1': '1601 Trapelo Road, Suite 168', 'address2': None, 'zip_code': '02451', 'city': 'Waltham', 'state_code': 'MA', 'country_code': 'USA', 'latitude': 42.417268, 'longitude': -71.258466}","1601 Trapelo Road, Suite 168",,Waltham,42.417268,-71.258466,USA
613517e27c85e5f861db87b8,Tragara,biotech,"{'description': 'HQ', 'address1': '10955 Vista Sorrento Parkway, Suite 120', 'address2': '', 'zip_code': '92130', 'city': 'San Diego', 'state_code': 'CA', 'country_code': 'USA', 'latitude': 32.915856, 'longitude': -117.228663}","10955 Vista Sorrento Parkway, Suite 120",,San Diego,32.915856,-117.228663,USA
613517e27c85e5f861db89af,EcoSMART Technologies,cleantech,"{'description': 'HQ', 'address1': '3600 Mansell Road,SIUTe 150', 'address2': '', 'zip_code': '30022', 'city': 'Alpharetta', 'state_code': 'GA', 'country_code': 'USA', 'latitude': 34.0374308, 'longitude': -84.2952754}","3600 Mansell Road,SIUTe 150",,Alpharetta,34.0374308,-84.2952754,USA
613517e27c85e5f861db864c,Concert Pharmaceuticals,biotech,"{'description': 'Corporate Headquarters', 'address1': '99 Hayden Avenue', 'address2': 'Suite 500', 'zip_code': '02421', 'city': 'Lexington', 'state_code': 'MA', 'country_code': 'USA', 'latitude': 42.4236783, 'longitude': -71.2459523}",99 Hayden Avenue,Suite 500,Lexington,42.4236783,-71.2459523,USA
613517e27c85e5f861db87fc,Aileron Therapeutics,biotech,"{'description': None, 'address1': None, 'address2': None, 'zip_code': None, 'city': 'Cambridge', 'state_code': 'MA', 'country_code': 'USA', 'latitude': 42.3736158, 'longitude': -71.1097335}",,,Cambridge,42.3736158,-71.1097335,USA
613517e27c85e5f861db88e3,Luca Technologies,biotech,"{'description': 'Corporate Office', 'address1': '500 Corporate Circle', 'address2': 'Suite C', 'zip_code': '80401', 'city': 'Golden', 'state_code': 'CO', 'country_code': 'USA', 'latitude': 39.720088, 'longitude': -105.192312}",500 Corporate Circle,Suite C,Golden,39.720088,-105.192312,USA
613517e27c85e5f861db88e4,Luca Technologies,biotech,"{'description': 'Gillette Office', 'address1': 'PO Box 7070', 'address2': '', 'zip_code': '82717', 'city': 'Gillette', 'state_code': 'WY', 'country_code': 'USA', 'latitude': 44.2264, 'longitude': -105.604}",PO Box 7070,,Gillette,44.2264,-105.604,USA
613517e27c85e5f861db86de,Kythera Biopharmaceuticals,biotech,"{'description': '', 'address1': '27200 West Agoura Road', 'address2': 'Suite 200', 'zip_code': '91301', 'city': 'Calabasas', 'state_code': 'CA', 'country_code': 'USA', 'latitude': 34.143507, 'longitude': -118.763605}",27200 West Agoura Road,Suite 200,Calabasas,34.143507,-118.763605,USA
613517e27c85e5f861db8a53,GreenVolts,cleantech,"{'description': 'Headquarters', 'address1': '46400 Fremont Boulevard', 'address2': '', 'zip_code': '94538', 'city': 'Fremont', 'state_code': 'CA', 'country_code': 'USA', 'latitude': 37.790153, 'longitude': -122.398669}",46400 Fremont Boulevard,,Fremont,37.790153,-122.398669,USA
613517e17c85e5f861db7cb6,Histogenics,biotech,"{'description': '', 'address1': '830 Winter Street,', 'address2': '3rd Floor', 'zip_code': '02451', 'city': 'Waltham', 'state_code': 'MA', 'country_code': 'USA', 'latitude': 42.4001965, 'longitude': -71.2751097}","830 Winter Street,",3rd Floor,Waltham,42.4001965,-71.2751097,USA
613517e27c85e5f861db88ff,Catalyst Biosciences,biotech,"{'description': 'Headquarters', 'address1': '260 Littlefield Avenue', 'address2': '', 'zip_code': '94080', 'city': 'South San Francisco', 'state_code': 'CA', 'country_code': 'USA', 'latitude': 37.645401, 'longitude': -122.394464}",260 Littlefield Avenue,,South San Francisco,37.645401,-122.394464,USA
613517e27c85e5f861db8450,Pelikan Technologies,biotech,"{'description': 'Pelikan Technologies', 'address1': '1072 East Meadow Circle', 'address2': '', 'zip_code': '94303', 'city': 'Palo Alto', 'state_code': 'CA', 'country_code': 'USA', 'latitude': 37.4298665, 'longitude': -122.108852}",1072 East Meadow Circle,,Palo Alto,37.4298665,-122.108852,USA
613517e27c85e5f861db8802,VaxInnate,biotech,"{'description': '', 'address1': '3 Cedar Brook Drive', 'address2': 'Suite #1', 'zip_code': '', 'city': 'Cranbury', 'state_code': 'NJ', 'country_code': 'USA', 'latitude': 40.3321605, 'longitude': -74.5014238}",3 Cedar Brook Drive,Suite #1,Cranbury,40.3321605,-74.5014238,USA
613517e27c85e5f861db8510,Synosia Therapeutics,biotech,"{'description': 'Headquarters', 'address1': 'Aeschenvorstadt 36', 'address2': 'CH-4051', 'zip_code': '', 'city': 'Basel', 'state_code': None, 'country_code': 'CHE', 'latitude': 47.5525264, 'longitude': 7.5930992}",Aeschenvorstadt 36,CH-4051,Basel,47.5525264,7.5930992,CHE
613517e17c85e5f861db6dc0,Arcadian Networks,cleantech,"{'description': '', 'address1': '12580 192nd Court, NW', 'address2': 'Building One - Suite C', 'zip_code': '55330-5086', 'city': 'Elk River', 'state_code': 'MN', 'country_code': 'USA', 'latitude': 45.3200381, 'longitude': -93.5874441}","12580 192nd Court, NW",Building One - Suite C,Elk River,45.3200381,-93.5874441,USA
613517e17c85e5f861db6696,FameCast,games_video,"{'description': 'HQ', 'address1': '3000 East Cesar Chavez', 'address2': '', 'zip_code': '78702', 'city': 'Austin', 'state_code': 'TX', 'country_code': 'USA', 'latitude': 30.268735, 'longitude': -97.745209}",3000 East Cesar Chavez,,Austin,30.268735,-97.745209,USA
613517e27c85e5f861db87fa,Diagnoplex,biotech,"{'description': 'HQ', 'address1': 'Chemin de Vulliette 4, CH-1000 Lausanne 25', 'address2': '', 'zip_code': 'CH-1000', 'city': 'Lausanne', 'state_code': None, 'country_code': 'CHE', 'latitude': 46.5567716, 'longitude': 6.6833176}","Chemin de Vulliette 4, CH-1000 Lausanne 25",,Lausanne,46.5567716,6.6833176,CHE
613517e17c85e5f861db653d,Delve Networks,games_video,"{'description': None, 'address1': '206 1st Ave South', 'address2': None, 'zip_code': '98104', 'city': 'Seattle', 'state_code': 'WA', 'country_code': 'USA', 'latitude': 47.600818, 'longitude': -122.334117}",206 1st Ave South,,Seattle,47.600818,-122.334117,USA
613517e17c85e5f861db63ba,Metaplace,games_video,"{'description': 'hi', 'address1': '415 S Cedros Ave', 'address2': 'Suite 240', 'zip_code': '90275', 'city': 'Solana Beach', 'state_code': 'CA', 'country_code': 'USA', 'latitude': 33.020832, 'longitude': -117.077311}",415 S Cedros Ave,Suite 240,Solana Beach,33.020832,-117.077311,USA
613517e17c85e5f861db638e,RotoHog,games_video,"{'description': '', 'address1': '', 'address2': '', 'zip_code': '', 'city': 'Los Angeles', 'state_code': 'CA', 'country_code': 'USA', 'latitude': 33.959799, 'longitude': -118.343938}",,,Los Angeles,33.959799,-118.343938,USA
613517e17c85e5f861db6739,Generate,games_video,"{'description': 'Santa Monica', 'address1': '1545 26th Street', 'address2': 'Suite 200', 'zip_code': '90404', 'city': 'Santa Monica', 'state_code': 'CA', 'country_code': 'USA', 'latitude': 34.031328, 'longitude': -118.471463}",1545 26th Street,Suite 200,Santa Monica,34.031328,-118.471463,USA
613517e17c85e5f861db673a,Generate,games_video,"{'description': 'New York', 'address1': '845 3rd Avenue', 'address2': '6th Floor, Suite 652', 'zip_code': '10022', 'city': 'New York', 'state_code': 'NY', 'country_code': 'USA', 'latitude': 40.7570972, 'longitude': -73.969821}",845 3rd Avenue,"6th Floor, Suite 652",New York,40.7570972,-73.969821,USA
613517e17c85e5f861db7046,Riot Games,games_video,"{'description': '', 'address1': '10736 Jefferson Blvd.', 'address2': '#622', 'zip_code': '90230', 'city': 'Culver City', 'state_code': 'CA', 'country_code': 'USA', 'latitude': 34.0025911, 'longitude': -118.3942383}",10736 Jefferson Blvd.,#622,Culver City,34.0025911,-118.3942383,USA
613517e27c85e5f861db8451,Crux Biomedical,biotech,"{'description': 'Menlo park', 'address1': '1455 Adams Drive, #1170', 'address2': '', 'zip_code': '94025', 'city': 'Menlo Park', 'state_code': 'CA', 'country_code': 'USA', 'latitude': 37.478519, 'longitude': -122.140715}","1455 Adams Drive, #1170",,Menlo Park,37.478519,-122.140715,USA
613517e27c85e5f861db85f1,Asteres,biotech,"{'description': 'HQ', 'address1': '4110 Sorrento Valley Blvd', 'address2': '', 'zip_code': '92121', 'city': 'San Diego', 'state_code': 'CA', 'country_code': 'USA', 'latitude': 32.88791, 'longitude': -117.176096}",4110 Sorrento Valley Blvd,,San Diego,32.88791,-117.176096,USA
613517e27c85e5f861db86d1,MedServe,cleantech,"{'description': '', 'address1': '6565 West Loop South, Suite 400', 'address2': '', 'zip_code': '77401', 'city': 'Bellaire', 'state_code': 'TX', 'country_code': 'USA', 'latitude': 29.709928, 'longitude': -95.45866}","6565 West Loop South, Suite 400",,Bellaire,29.709928,-95.45866,USA
613517e27c85e5f861db883a,ElectraTherm,cleantech,"{'description': 'HQ', 'address1': '3208 Goni Road Carson City, Nevada 89706', 'address2': '', 'zip_code': '89706', 'city': 'Carson City', 'state_code': 'NV', 'country_code': 'USA', 'latitude': 39.1880124, 'longitude': -119.7480697}","3208 Goni Road Carson City, Nevada 89706",,Carson City,39.1880124,-119.7480697,USA
613517e27c85e5f861db86ba,Fulcrum Bioenergy,cleantech,"{'description': '', 'address1': '4900 Hopyard Road', 'address2': 'Suite 220', 'zip_code': '94588', 'city': 'Pleasanton', 'state_code': 'CA', 'country_code': 'USA', 'latitude': 37.692934, 'longitude': -121.904945}",4900 Hopyard Road,Suite 220,Pleasanton,37.692934,-121.904945,USA
613517e27c85e5f861db884e,Versartis,biotech,"{'description': 'Corporate Headquarters', 'address1': '303 Twin Dolphin Drive', 'address2': 'Suite 600', 'zip_code': '94065', 'city': 'Redwood City', 'state_code': 'CA', 'country_code': 'USA', 'latitude': 37.523194, 'longitude': -122.259179}",303 Twin Dolphin Drive,Suite 600,Redwood City,37.523194,-122.259179,USA
613517e27c85e5f861db886a,Solexant,cleantech,"{'description': '', 'address1': '2385 Bering Dr.', 'address2': '', 'zip_code': '95131', 'city': 'San Jose', 'state_code': 'CA', 'country_code': 'USA', 'latitude': 37.3825306, 'longitude': -121.9198306}",2385 Bering Dr.,,San Jose,37.3825306,-121.9198306,USA
613517e17c85e5f861db6592,Zynga,games_video,"{'description': 'SF HQ', 'address1': '365 Vermont St.', 'address2': '', 'zip_code': '94103', 'city': 'San Francisco', 'state_code': 'CA', 'country_code': 'USA', 'latitude': 37.765158, 'longitude': -122.404234}",365 Vermont St.,,San Francisco,37.765158,-122.404234,USA
613517e27c85e5f861db89e6,Coskata,cleantech,"{'description': 'Headquarters', 'address1': '4575 Weaver Parkway, Suite 100', 'address2': '', 'zip_code': '60555', 'city': 'Warrenville', 'state_code': 'IL', 'country_code': 'USA', 'latitude': 41.8035954, 'longitude': -88.159371}","4575 Weaver Parkway, Suite 100",,Warrenville,41.8035954,-88.159371,USA
613517e27c85e5f861db8a73,MBA Polymers,cleantech,"{'description': 'Headquarters', 'address1': '500 West Ohio Avenue', 'address2': '', 'zip_code': '94804', 'city': 'Richmond', 'state_code': 'CA', 'country_code': 'USA', 'latitude': 37.93039, 'longitude': -122.374927}",500 West Ohio Avenue,,Richmond,37.93039,-122.374927,USA
613517e27c85e5f861db83fc,SolarEdge,cleantech,"{'description': 'Local US Office', 'address1': '3347 Gateway Boulevard', 'address2': '', 'zip_code': '94538', 'city': 'Fremont', 'state_code': 'CA', 'country_code': 'USA', 'latitude': 37.4757796, 'longitude': -121.9382415}",3347 Gateway Boulevard,,Fremont,37.4757796,-121.9382415,USA
613517e27c85e5f861db8787,Recurrent Energy,cleantech,"{'description': '', 'address1': '300 California St.', 'address2': '7th Floor', 'zip_code': '94104', 'city': 'San Francisco', 'state_code': 'CA', 'country_code': 'USA', 'latitude': 37.805289, 'longitude': -122.404448}",300 California St.,7th Floor,San Francisco,37.805289,-122.404448,USA
613517e27c85e5f861db8518,Recyclebank,cleantech,"{'description': 'Headquarters', 'address1': '95 Morton Street', 'address2': '7th Floor', 'zip_code': '10014', 'city': 'New York', 'state_code': 'NY', 'country_code': 'USA', 'latitude': 40.7310476, 'longitude': -74.0078134}",95 Morton Street,7th Floor,New York,40.7310476,-74.0078134,USA
613517e17c85e5f861db64fb,WildTangent,games_video,"{'description': 'Global Headquarters', 'address1': '18578 NE 67th Ct', 'address2': 'Building 5', 'zip_code': '98052', 'city': 'Redmond', 'state_code': 'WA', 'country_code': 'USA', 'latitude': 37.09024, 'longitude': -95.712891}",18578 NE 67th Ct,Building 5,Redmond,37.09024,-95.712891,USA
613517e17c85e5f861db7d00,Better Place,cleantech,"{'description': 'Better Place Palo Alto', 'address1': '1070 Arastradero Road,', 'address2': 'Suite 220', 'zip_code': '94304', 'city': 'Palo Alto', 'state_code': 'CA', 'country_code': 'USA', 'latitude': 37.3949615, 'longitude': -122.1425097}","1070 Arastradero Road,",Suite 220,Palo Alto,37.3949615,-122.1425097,USA
613517e17c85e5f861db6c46,Sirtris Pharmaceuticals,biotech,"{'description': None, 'address1': '200 Technology Square', 'address2': 'Suite 300', 'zip_code': '02139', 'city': 'Cambridge', 'state_code': 'MA', 'country_code': 'USA', 'latitude': 42.363567, 'longitude': -71.091189}",200 Technology Square,Suite 300,Cambridge,42.363567,-71.091189,USA
613517e17c85e5f861db68e9,Realtime Worlds,games_video,"{'description': None, 'address1': '', 'address2': '', 'zip_code': '', 'city': 'Dundee', 'state_code': None, 'country_code': 'GBR', 'latitude': 56.461428, 'longitude': -2.968111}",,,Dundee,56.461428,-2.968111,GBR
613517e17c85e5f861db68ea,Realtime Worlds,games_video,"{'description': '', 'address1': '', 'address2': '', 'zip_code': '', 'city': 'Boulder', 'state_code': 'CO', 'country_code': 'USA', 'latitude': 40.010492, 'longitude': -105.276843}",,,Boulder,40.010492,-105.276843,USA
613517e27c85e5f861db88fc,PhotoThera,biotech,"{'description': 'PhotoThera', 'address1': '6190 Corte Del Cedro', 'address2': '', 'zip_code': '92011', 'city': 'Carlsbad', 'state_code': 'CA', 'country_code': 'USA', 'latitude': 33.13324, 'longitude': -117.275027}",6190 Corte Del Cedro,,Carlsbad,33.13324,-117.275027,USA
613517e27c85e5f861db88ad,CT Atlantic,biotech,"{'description': 'HQ', 'address1': 'Wagistrasse 27', 'address2': '', 'zip_code': 'CH-8952', 'city': 'Schlieren', 'state_code': None, 'country_code': 'CHE', 'latitude': 47.3993054, 'longitude': 8.4600149}",Wagistrasse 27,,Schlieren,47.3993054,8.4600149,CHE
613517e17c85e5f861db6f08,My Damn Channel,games_video,"{'description': 'My Damn Channel, Inc.', 'address1': '202 W. 40th St.', 'address2': '16th Floor', 'zip_code': '10018', 'city': 'New York', 'state_code': 'NY', 'country_code': 'USA', 'latitude': 40.754762, 'longitude': -73.988543}",202 W. 40th St.,16th Floor,New York,40.754762,-73.988543,USA
613517e17c85e5f861db6f09,My Damn Channel,games_video,"{'description': 'Los Angeles office', 'address1': '2121 Rosecrans Ave.', 'address2': 'Suite 4310', 'zip_code': '90245', 'city': 'El Segundo', 'state_code': 'CA', 'country_code': 'USA', 'latitude': 33.9019543, 'longitude': -118.3872018}",2121 Rosecrans Ave.,Suite 4310,El Segundo,33.9019543,-118.3872018,USA
613517e17c85e5f861db6418,Veodia,games_video,"{'description': 'HQ', 'address1': '1825 S Grant Street', 'address2': 'Suite 500', 'zip_code': '94402', 'city': 'San Mateo', 'state_code': 'CA', 'country_code': 'USA', 'latitude': 37.553743, 'longitude': -122.300246}",1825 S Grant Street,Suite 500,San Mateo,37.553743,-122.300246,USA
613517e27c85e5f861db890c,Chronix Biomedical,biotech,"{'description': 'Chronix HQ', 'address1': '', 'address2': '', 'zip_code': '', 'city': 'San Jose', 'state_code': 'CA', 'country_code': 'USA', 'latitude': 37.320052, 'longitude': -121.877636}",,,San Jose,37.320052,-121.877636,USA
613517e17c85e5f861db6a4b,MUBI,games_video,"{'description': '', 'address1': '668 High Street', 'address2': '', 'zip_code': '94301', 'city': 'Palo Alto', 'state_code': 'CA', 'country_code': 'USA', 'latitude': 37.44236, 'longitude': -122.161025}",668 High Street,,Palo Alto,37.44236,-122.161025,USA
613517e27c85e5f861db81aa,Crispy Gamer,games_video,"{'description': '', 'address1': '35 West 36th Street', 'address2': 'Suite 4W', 'zip_code': '10018', 'city': 'New York', 'state_code': 'NY', 'country_code': 'USA', 'latitude': 40.750597, 'longitude': -73.985273}",35 West 36th Street,Suite 4W,New York,40.750597,-73.985273,USA
613517e17c85e5f861db6b00,Jinni,games_video,"{'description': '', 'address1': '', 'address2': '', 'zip_code': '', 'city': 'Tel Aviv', 'state_code': None, 'country_code': 'ISR', 'latitude': 32.0554, 'longitude': 34.7595}",,,Tel Aviv,32.0554,34.7595,ISR
613517e27c85e5f861db8b74,Aqwise,cleantech,"{'description': None, 'address1': None, 'address2': None, 'zip_code': None, 'city': 'Herzliya', 'state_code': '', 'country_code': 'ISR', 'latitude': 32.162413, 'longitude': 34.844675}",,,Herzliya,32.162413,34.844675,ISR
613517e17c85e5f861db669c,Redux,games_video,"{'description': '', 'address1': '2054 University Avenue', 'address2': 'Floor #2', 'zip_code': '94704', 'city': 'Berkeley', 'state_code': 'CA', 'country_code': 'USA', 'latitude': 37.87168, 'longitude': -122.269494}",2054 University Avenue,Floor #2,Berkeley,37.87168,-122.269494,USA
613517e17c85e5f861db6346,Xfire,games_video,"{'description': 'Xfire Headquarters', 'address1': '310 Wilshire Blvd.', 'address2': '', 'zip_code': '90401', 'city': 'Santa Monica', 'state_code': 'CA', 'country_code': 'USA', 'latitude': 34.0184659, 'longitude': -118.49863}",310 Wilshire Blvd.,,Santa Monica,34.0184659,-118.49863,USA
613517e17c85e5f861db6d2b,TuneCore,games_video,"{'description': '', 'address1': '45 Main Street', 'address2': 'Suite 705', 'zip_code': '11201', 'city': 'Brooklyn', 'state_code': 'NY', 'country_code': 'USA', 'latitude': 40.704382, 'longitude': -73.986572}",45 Main Street,Suite 705,Brooklyn,40.704382,-73.986572,USA
613517e27c85e5f861db83e6,Traversa Therapeutics,biotech,"{'description': 'Traversa Therapeutics', 'address1': '505 Coast Blvd South', 'address2': '', 'zip_code': '92037', 'city': 'La Jolla', 'state_code': 'CA', 'country_code': 'USA', 'latitude': 32.843245, 'longitude': -117.279345}",505 Coast Blvd South,,La Jolla,32.843245,-117.279345,USA
613517e27c85e5f861db85d1,Tigo Energy,cleantech,"{'description': 'Tigo Energy Americas', 'address1': '170 Knowles Drive', 'address2': '', 'zip_code': '95032', 'city': 'Los Gatos', 'state_code': 'CA', 'country_code': 'USA', 'latitude': 37.2612396, 'longitude': -121.9594672}",170 Knowles Drive,,Los Gatos,37.2612396,-121.9594672,USA
613517e27c85e5f861db85aa,QD Vision,nanotech,"{'description': 'Corporate Office', 'address1': '313 Pleasant St', 'address2': '', 'zip_code': '02472', 'city': 'Watertown', 'state_code': 'MA', 'country_code': 'USA', 'latitude': 42.3678629, 'longitude': -71.1998364}",313 Pleasant St,,Watertown,42.3678629,-71.1998364,USA
613517e17c85e5f861db77ec,SolarCity,cleantech,"{'description': 'HQ', 'address1': '3055 Clearview Way', 'address2': '', 'zip_code': '94402', 'city': 'San Mateo', 'state_code': 'CA', 'country_code': 'USA', 'latitude': 37.563039, 'longitude': -122.277639}",3055 Clearview Way,,San Mateo,37.563039,-122.277639,USA
613517e27c85e5f861db88ce,Taligen Therapeutics,biotech,"{'description': 'Headquarters', 'address1': '245 First Street', 'address2': 'Suite 1830, 18th Floor', 'zip_code': '02142', 'city': 'Cambridge', 'state_code': 'MA', 'country_code': 'USA', 'latitude': 42.3634664, 'longitude': -71.0786638}",245 First Street,"Suite 1830, 18th Floor",Cambridge,42.3634664,-71.0786638,USA
613517e17c85e5f861db62f6,sezmi,games_video,"{'description': '', 'address1': '1301 Shoreway Road', 'address2': 'Suite 310', 'zip_code': '94002', 'city': 'Belmont', 'state_code': 'CA', 'country_code': 'USA', 'latitude': 37.524422, 'longitude': -122.265869}",1301 Shoreway Road,Suite 310,Belmont,37.524422,-122.265869,USA
613517e17c85e5f861db62f7,sezmi,games_video,"{'description': '', 'address1': '2951 28th Street', 'address2': 'Suite 2040', 'zip_code': '90405', 'city': 'Santa Monica', 'state_code': 'CA', 'country_code': 'USA', 'latitude': 34.017373, 'longitude': -118.453218}",2951 28th Street,Suite 2040,Santa Monica,34.017373,-118.453218,USA
613517e17c85e5f861db62f8,sezmi,games_video,"{'description': '', 'address1': '1000 NW 65th Street', 'address2': 'Suite 300', 'zip_code': '33309', 'city': 'Fort Lauderdale', 'state_code': 'FL', 'country_code': 'USA', 'latitude': 26.207024, 'longitude': -80.157296}",1000 NW 65th Street,Suite 300,Fort Lauderdale,26.207024,-80.157296,USA
613517e27c85e5f861db882e,Applied Genetics Technologies Corporation,biotech,"{'description': 'Headquarters', 'address1': '11801 Research Drive', 'address2': 'Suite D', 'zip_code': '32615', 'city': 'Alachua', 'state_code': 'FL', 'country_code': 'USA', 'latitude': 29.7847641, 'longitude': -82.4768036}",11801 Research Drive,Suite D,Alachua,29.7847641,-82.4768036,USA
613517e27c85e5f861db8857,Proteon Therapeutics,biotech,"{'description': 'Proteon Therapeutics', 'address1': '200 West Street', 'address2': '', 'zip_code': '02451', 'city': 'Waltham', 'state_code': 'MA', 'country_code': 'USA', 'latitude': 42.3913892, 'longitude': -71.2709869}",200 West Street,,Waltham,42.3913892,-71.2709869,USA
613517e27c85e5f861db85b7,Playdom,games_video,"{'description': 'Palo Alto - Headquarters', 'address1': '395 Page Mill Road', 'address2': '2nd Floor', 'zip_code': '94306', 'city': 'Palo Alto', 'state_code': 'CA', 'country_code': 'USA', 'latitude': 37.393536, 'longitude': -122.076747}",395 Page Mill Road,2nd Floor,Palo Alto,37.393536,-122.076747,USA
613517e17c85e5f861db6acf,Turbine,games_video,"{'description': None, 'address1': '60 Glacier Drive, Suite 4000', 'address2': '', 'zip_code': '', 'city': 'Westwood', 'state_code': 'MA', 'country_code': 'USA', 'latitude': 42.214483, 'longitude': -71.185964}","60 Glacier Drive, Suite 4000",,Westwood,42.214483,-71.185964,USA
613517e17c85e5f861db6ad0,Turbine,games_video,"{'description': '', 'address1': '', 'address2': '', 'zip_code': '', 'city': 'Redwood City', 'state_code': 'CA', 'country_code': 'USA', 'latitude': 37.477652, 'longitude': -122.223384}",,,Redwood City,37.477652,-122.223384,USA
613517e27c85e5f861db89cf,Bioscale,biotech,"{'description': '', 'address1': '', 'address2': '4 MAGUIRE ROAD', 'zip_code': '02421', 'city': 'LEXINGTON', 'state_code': 'MA', 'country_code': 'USA', 'latitude': 42.3609606, 'longitude': -71.1017618}",,4 MAGUIRE ROAD,LEXINGTON,42.3609606,-71.1017618,USA
613517e27c85e5f861db8477,BiPar Sciences,biotech,"{'description': 'Headquarters', 'address1': '1000 Marina Blvd.', 'address2': 'Suite 550', 'zip_code': '94005', 'city': 'Brisbane', 'state_code': 'CA', 'country_code': 'USA', 'latitude': 37.674378, 'longitude': -122.387699}",1000 Marina Blvd.,Suite 550,Brisbane,37.674378,-122.387699,USA
613517e17c85e5f861db7fec,RealD,games_video,"{'description': 'HQ', 'address1': '100 North Crescent Dr.,', 'address2': 'Suite 120', 'zip_code': '90210', 'city': 'Beverly Hills', 'state_code': 'CA', 'country_code': 'USA', 'latitude': 34.067554, 'longitude': -118.395658}","100 North Crescent Dr.,",Suite 120,Beverly Hills,34.067554,-118.395658,USA
613517e17c85e5f861db69c5,Comcast,games_video,"{'description': 'One Comcast Center', 'address1': '1701 JFK Blvd', 'address2': '', 'zip_code': '19103', 'city': 'Philadelphia', 'state_code': 'PA', 'country_code': 'USA', 'latitude': 39.9525762, 'longitude': -75.1652518}",1701 JFK Blvd,,Philadelphia,39.9525762,-75.1652518,USA
613517e27c85e5f861db87d1,Sagent Pharmaceuticals,biotech,"{'description': 'Corporate', 'address1': '1901 N. Roselle Road', 'address2': 'Suite 700', 'zip_code': '60195-3176', 'city': 'Schaumburg', 'state_code': 'IL', 'country_code': 'USA', 'latitude': 42.061187, 'longitude': -88.0794478}",1901 N. Roselle Road,Suite 700,Schaumburg,42.061187,-88.0794478,USA
613517e17c85e5f861db6b1d,OVGuide,games_video,"{'description': None, 'address1': '', 'address2': '', 'zip_code': '', 'city': 'Los Angeles', 'state_code': 'CA', 'country_code': 'USA', 'latitude': 34.052187, 'longitude': -118.243425}",,,Los Angeles,34.052187,-118.243425,USA
613517e17c85e5f861db7e28,Heyzap,games_video,"{'description': 'Head Quaters', 'address1': '3rd Floor, 251 Kearny Street', 'address2': 'Kearny Street', 'zip_code': '94108', 'city': 'San Francisco', 'state_code': 'CA', 'country_code': 'USA', 'latitude': 37.7905538, 'longitude': -122.4041485}","3rd Floor, 251 Kearny Street",Kearny Street,San Francisco,37.7905538,-122.4041485,USA
613517e27c85e5f861db86d2,Rapid Action Packaging,cleantech,"{'description': '', 'address1': '107 Mortlake High Street', 'address2': 'London SW14 8HQ', 'zip_code': '', 'city': 'London', 'state_code': None, 'country_code': 'GBR', 'latitude': 51.4698433, 'longitude': -0.2611303}",107 Mortlake High Street,London SW14 8HQ,London,51.4698433,-0.2611303,GBR
613517e27c85e5f861db8b81,Chestnut Medical,biotech,"{'description': '', 'address1': '173 Jefferson Dr.', 'address2': '', 'zip_code': '94025', 'city': 'Menlo Park', 'state_code': 'CA', 'country_code': 'USA', 'latitude': 37.4819462, 'longitude': -122.1717587}",173 Jefferson Dr.,,Menlo Park,37.4819462,-122.1717587,USA
613517e27c85e5f861db8867,EnerNOC,cleantech,"{'description': 'Headquarters', 'address1': '75 Federal Street', 'address2': 'Suite 300', 'zip_code': '02110', 'city': 'Boston', 'state_code': 'MA', 'country_code': 'USA', 'latitude': 42.355246, 'longitude': -71.056915}",75 Federal Street,Suite 300,Boston,42.355246,-71.056915,USA
613517e17c85e5f861db6259,PodTech,games_video,"{'description': None, 'address1': '1801 Page Mill Rd - Suite 400', 'address2': None, 'zip_code': '94304', 'city': 'Palo Alto', 'state_code': 'CA', 'country_code': 'USA', 'latitude': 37.408256, 'longitude': -122.154176}",1801 Page Mill Rd - Suite 400,,Palo Alto,37.408256,-122.154176,USA
613517e27c85e5f861db8964,Waste Remedies,cleantech,"{'description': '', 'address1': '7935 Clayton Road', 'address2': '', 'zip_code': '63117', 'city': 'St. Louis', 'state_code': 'MO', 'country_code': 'USA', 'latitude': 38.65539, 'longitude': -90.296192}",7935 Clayton Road,,St. Louis,38.65539,-90.296192,USA
613517e27c85e5f861db874a,Stellaris,cleantech,"{'description': '', 'address1': '16 Esquire Road', 'address2': '', 'zip_code': '01862', 'city': 'North Billerica', 'state_code': 'MA', 'country_code': 'USA', 'latitude': 42.56282, 'longitude': -71.304385}",16 Esquire Road,,North Billerica,42.56282,-71.304385,USA
613517e27c85e5f861db879a,Biofisica,biotech,"{'description': '', 'address1': '6455 East Johns Crossing', 'address2': 'Suite 285', 'zip_code': '30097', 'city': 'Duluth', 'state_code': 'GA', 'country_code': 'USA', 'latitude': 34.062588, 'longitude': -84.16923}",6455 East Johns Crossing,Suite 285,Duluth,34.062588,-84.16923,USA
613517e27c85e5f861db8701,Arisdyne Systems,cleantech,"{'description': 'Corporate Office', 'address1': '17909 Cleveland Parkway Dr.', 'address2': '', 'zip_code': '44135', 'city': 'Cleveland', 'state_code': 'OH', 'country_code': 'USA', 'latitude': 41.424425, 'longitude': -81.822531}",17909 Cleveland Parkway Dr.,,Cleveland,41.424425,-81.822531,USA
613517e17c85e5f861db7653,Brightstorm,games_video,"{'description': 'Headquarters', 'address1': '685 Market St. Street, Suite 270', 'address2': '', 'zip_code': '94105', 'city': 'San Francisco', 'state_code': 'CA', 'country_code': 'USA', 'latitude': 37.804619, 'longitude': -122.371203}","685 Market St. Street, Suite 270",,San Francisco,37.804619,-122.371203,USA
613517e27c85e5f861db8610,Saavn,games_video,"{'description': 'Corporate Headquarters', 'address1': '', 'address2': '', 'zip_code': '10016', 'city': 'New York', 'state_code': 'NY', 'country_code': 'USA', 'latitude': 40.743877, 'longitude': -73.98618}",,,New York,40.743877,-73.98618,USA
613517e27c85e5f861db86e6,DynaPump,cleantech,"{'description': '', 'address1': '2441 High Timbers', 'address2': 'Suite 200', 'zip_code': '77380', 'city': 'The Woodlands', 'state_code': 'TX', 'country_code': 'USA', 'latitude': 30.161661, 'longitude': -95.471256}",2441 High Timbers,Suite 200,The Woodlands,30.161661,-95.471256,USA
613517e27c85e5f861db88bd,Axikin Pharmaceuticals,biotech,"{'description': 'HQ', 'address1': '10835 Road To The Cure, Suite 250', 'address2': '', 'zip_code': '92121', 'city': 'San Diego', 'state_code': 'CA', 'country_code': 'USA', 'latitude': 32.902232, 'longitude': -117.236374}","10835 Road To The Cure, Suite 250",,San Diego,32.902232,-117.236374,USA
613517e17c85e5f861db8139,Major League Gaming,games_video,"{'description': 'Corporate Headquarters', 'address1': '3 Park Avenue', 'address2': '32nd Floor', 'zip_code': '10016', 'city': 'New York', 'state_code': 'NY', 'country_code': 'USA', 'latitude': 40.752672, 'longitude': -73.97593}",3 Park Avenue,32nd Floor,New York,40.752672,-73.97593,USA
613517e27c85e5f861db8a6c,Quench,cleantech,"{'description': 'USA', 'address1': '780 5th avenue', 'address2': 'Suite 200', 'zip_code': '19406', 'city': 'King of Prussia', 'state_code': 'PA', 'country_code': 'USA', 'latitude': 39.767016, 'longitude': -86.156255}",780 5th avenue,Suite 200,King of Prussia,39.767016,-86.156255,USA
613517e17c85e5f861db7724,AOptix Technologies,biotech,"{'description': 'HQ', 'address1': '695 Campbell Technology Parkway', 'address2': '', 'zip_code': '95008', 'city': 'Campbell', 'state_code': 'CA', 'country_code': 'USA', 'latitude': 37.279485, 'longitude': -121.94356}",695 Campbell Technology Parkway,,Campbell,37.279485,-121.94356,USA
613517e07c85e5f861db6173,Veoh,games_video,"{'description': '', 'address1': '10180 Telesis Court Suite', 'address2': 'Suite  400', 'zip_code': '92121', 'city': 'San Diego', 'state_code': 'CA', 'country_code': 'USA', 'latitude': 32.902266, 'longitude': -117.20834}",10180 Telesis Court Suite,Suite  400,San Diego,32.902266,-117.20834,USA
613517e27c85e5f861db8582,eMeter,cleantech,"{'description': 'Corporate Headquarters', 'address1': '2215 Bridgepointe Parkway', 'address2': '', 'zip_code': '94404', 'city': 'San Mateo', 'state_code': 'CA', 'country_code': 'USA', 'latitude': 37.560781, 'longitude': -122.284114}",2215 Bridgepointe Parkway,,San Mateo,37.560781,-122.284114,USA
613517e27c85e5f861db8837,Solix Biofuels,cleantech,"{'description': 'Solix Biofuels', 'address1': '430 B. North College Ave.', 'address2': '', 'zip_code': '80524', 'city': 'Fort Collins', 'state_code': 'CO', 'country_code': 'USA', 'latitude': 40.5932386, 'longitude': -105.0766501}",430 B. North College Ave.,,Fort Collins,40.5932386,-105.0766501,USA
613517e27c85e5f861db86be,SunEdison,cleantech,"{'description': 'Corporate Headquarters', 'address1': '12500 Baltimore Avenue', 'address2': '', 'zip_code': '20705', 'city': 'Beltsville', 'state_code': 'MD', 'country_code': 'USA', 'latitude': 39.0610803, 'longitude': -76.8863954}",12500 Baltimore Avenue,,Beltsville,39.0610803,-76.8863954,USA
613517e27c85e5f861db8716,SLR Consulting,cleantech,"{'description': 'US', 'address1': '22122 20th Avenue SE Building H', 'address2': 'Suite 150', 'zip_code': '98021', 'city': 'Bothell', 'state_code': 'WA', 'country_code': 'USA', 'latitude': 47.7975302, 'longitude': -122.2052314}",22122 20th Avenue SE Building H,Suite 150,Bothell,47.7975302,-122.2052314,USA
613517e27c85e5f861db8861,Turbine Air Systems,cleantech,"{'description': 'Corporate Headquarters', 'address1': '6110 Cullen Blvd.', 'address2': '', 'zip_code': '77021', 'city': 'Houston', 'state_code': 'TX', 'country_code': 'USA', 'latitude': 29.6982817, 'longitude': -95.3500171}",6110 Cullen Blvd.,,Houston,29.6982817,-95.3500171,USA
613517e27c85e5f861db8b92,Purfresh,cleantech,"{'description': 'HQ', 'address1': '1350 Willow Road,', 'address2': 'Suite 102', 'zip_code': '94025', 'city': 'Menlo Park', 'state_code': 'CA', 'country_code': 'USA', 'latitude': 37.477008, 'longitude': -122.151599}","1350 Willow Road,",Suite 102,Menlo Park,37.477008,-122.151599,USA
613517e27c85e5f861db862d,EBR Systems,biotech,"{'description': '', 'address1': '686 W. Maude - Suite 102', 'address2': '', 'zip_code': '94085', 'city': 'Sunnyvale', 'state_code': 'CA', 'country_code': 'USA', 'latitude': 37.390233, 'longitude': -122.033741}",686 W. Maude - Suite 102,,Sunnyvale,37.390233,-122.033741,USA
613517e27c85e5f861db886e,Avantium Technologies,cleantech,"{'description': 'HQ', 'address1': 'Zekeringstraat 29', 'address2': '', 'zip_code': 'NL-1014', 'city': 'Amsterdam', 'state_code': None, 'country_code': 'NLD', 'latitude': 52.3965603, 'longitude': 4.8516964}",Zekeringstraat 29,,Amsterdam,52.3965603,4.8516964,NLD
613517e17c85e5f861db7d2a,Tetraphase Pharmaceuticals,biotech,"{'description': '', 'address1': '480 Arsenal Street,', 'address2': 'Suite 110', 'zip_code': '02472', 'city': 'Watertown', 'state_code': 'MA', 'country_code': 'USA', 'latitude': 42.3630235, 'longitude': -71.158939}","480 Arsenal Street,",Suite 110,Watertown,42.3630235,-71.158939,USA
613517e07c85e5f861db6183,Ustream,games_video,"{'description': 'San Francisco Office', 'address1': '410 Townsend', 'address2': 'Suite 400', 'zip_code': '94107', 'city': 'San Francisco', 'state_code': 'CA', 'country_code': 'USA', 'latitude': 37.392936, 'longitude': -122.07948}",410 Townsend,Suite 400,San Francisco,37.392936,-122.07948,USA
613517e27c85e5f861db86eb,Tang Wind Energy,cleantech,"{'description': '', 'address1': '', 'address2': '4925 Greenville Avenue', 'zip_code': '75206', 'city': 'Dallas', 'state_code': 'TX', 'country_code': 'USA', 'latitude': 32.749238, 'longitude': -96.840091}",,4925 Greenville Avenue,Dallas,32.749238,-96.840091,USA
613517e27c85e5f861db8b1c,Neodyne Biosciences,biotech,"{'description': '', 'address1': '127 Independence Drive', 'address2': '', 'zip_code': '94025', 'city': 'Menlo Park', 'state_code': 'CA', 'country_code': 'USA', 'latitude': 37.483483, 'longitude': -122.17666}",127 Independence Drive,,Menlo Park,37.483483,-122.17666,USA
613517e27c85e5f861db8616,BT Imaging,cleantech,"{'description': '', 'address1': '1 Blackburn ST', 'address2': '', 'zip_code': '2010', 'city': 'Surry Hills', 'state_code': None, 'country_code': 'AUS', 'latitude': -33.947414, 'longitude': 150.967905}",1 Blackburn ST,,Surry Hills,-33.947414,150.967905,AUS
613517e27c85e5f861db831c,Z2Live,games_video,"{'description': 'Z2Live', 'address1': '1601 2nd Ave', 'address2': 'Suite 800', 'zip_code': '98101', 'city': 'Seattle', 'state_code': 'WA', 'country_code': 'USA', 'latitude': 47.6103008, 'longitude': -122.3399782}",1601 2nd Ave,Suite 800,Seattle,47.6103008,-122.3399782,USA
613517e17c85e5f861db7c9b,GlassBox,games_video,"{'description': '', 'address1': '2196 Dunwin Drive', 'address2': '', 'zip_code': 'L5L 1C7', 'city': 'Mississauga, ON', 'state_code': None, 'country_code': 'CAN', 'latitude': 43.5351549, 'longitude': -79.6735074}",2196 Dunwin Drive,,"Mississauga, ON",43.5351549,-79.6735074,CAN
613517e07c85e5f861db619a,SellABand,games_video,"{'description': None, 'address1': 'Harderhook 22', 'address2': None, 'zip_code': None, 'city': '46395 Bocholt', 'state_code': None, 'country_code': 'DEU', 'latitude': 51.808933, 'longitude': 6.553452}",Harderhook 22,,46395 Bocholt,51.808933,6.553452,DEU
613517e17c85e5f861db6247,PeerMe,games_video,"{'description': None, 'address1': '2115 Landings Drive', 'address2': None, 'zip_code': '94043', 'city': 'Mountain View', 'state_code': 'CA', 'country_code': 'USA', 'latitude': 37.419819, 'longitude': -122.090188}",2115 Landings Drive,,Mountain View,37.419819,-122.090188,USA
613517e17c85e5f861db6478,Fix8,games_video,"{'description': None, 'address1': '15250 Ventura Blvd', 'address2': '', 'zip_code': '91403', 'city': 'Sherman Oaks', 'state_code': 'CA', 'country_code': 'USA', 'latitude': 34.152826, 'longitude': -118.465582}",15250 Ventura Blvd,,Sherman Oaks,34.152826,-118.465582,USA
613517e17c85e5f861db650e,WeShow,games_video,"{'description': None, 'address1': None, 'address2': None, 'zip_code': '10017', 'city': 'New York', 'state_code': 'NY', 'country_code': 'USA', 'latitude': 40.752516, 'longitude': -73.973072}",,,New York,40.752516,-73.973072,USA
613517e17c85e5f861db6691,RiffTrax,games_video,"{'description': '', 'address1': '12230 El Camino Real', 'address2': 'Suite 300', 'zip_code': '92130', 'city': 'San Diego', 'state_code': 'CA', 'country_code': 'USA', 'latitude': 32.936973, 'longitude': -117.240431}",12230 El Camino Real,Suite 300,San Diego,32.936973,-117.240431,USA
613517e17c85e5f861db70ff,Carbonetworks,cleantech,"{'description': 'Head Office', 'address1': '1700 Montgomery St', 'address2': '', 'zip_code': '94111', 'city': 'San Francisco', 'state_code': 'CA', 'country_code': 'USA', 'latitude': 37.805289, 'longitude': -122.404448}",1700 Montgomery St,,San Francisco,37.805289,-122.404448,USA
613517e27c85e5f861db83c3,Piedmont Pharmaceuticals,biotech,"{'description': 'Piedmont Pharmaceuticals', 'address1': '204 Muirs Chapel Road, Suite 200', 'address2': '', 'zip_code': '27410', 'city': 'Greensboro', 'state_code': 'NC', 'country_code': 'USA', 'latitude': 36.072863, 'longitude': -79.869229}","204 Muirs Chapel Road, Suite 200",,Greensboro,36.072863,-79.869229,USA
613517e27c85e5f861db84b3,Busca Corp,games_video,"{'description': 'Busca Corp. USA', 'address1': '7590 Fay Ave. Suite 506', 'address2': '', 'zip_code': '92037', 'city': 'La Jolla', 'state_code': 'CA', 'country_code': 'USA', 'latitude': 32.841791, 'longitude': -117.274602}",7590 Fay Ave. Suite 506,,La Jolla,32.841791,-117.274602,USA
613517e27c85e5f861db84b4,Busca Corp,games_video,"{'description': 'Busca Corp. Tijuana', 'address1': 'Calle Brasil No. 8471', 'address2': 'Col. Juarez', 'zip_code': '22040', 'city': 'Tijuana, B.C.', 'state_code': None, 'country_code': 'MEX', 'latitude': 32.5217442, 'longitude': -117.0274947}",Calle Brasil No. 8471,Col. Juarez,"Tijuana, B.C.",32.5217442,-117.0274947,MEX
613517e27c85e5f861db84b5,Busca Corp,games_video,"{'description': 'Busca Corp. Mexico City', 'address1': 'Insurgentes Sur 348 Piso 9', 'address2': 'Col. Roma', 'zip_code': '06700', 'city': 'Mexico City', 'state_code': None, 'country_code': 'MEX', 'latitude': 19.4164309, 'longitude': -99.1651395}",Insurgentes Sur 348 Piso 9,Col. Roma,Mexico City,19.4164309,-99.1651395,MEX
613517e27c85e5f861db86ed,Enerpulse,cleantech,"{'description': '', 'address1': '2451 Alamo SE', 'address2': '', 'zip_code': '87106', 'city': 'Albuquerque', 'state_code': 'NM', 'country_code': 'USA', 'latitude': 35.055164, 'longitude': -106.617561}",2451 Alamo SE,,Albuquerque,35.055164,-106.617561,USA
613517e27c85e5f861db8723,TRIRIGA,cleantech,"{'description': 'Headquarters', 'address1': '6720 Via Austi Parkway', 'address2': 'Suite 500', 'zip_code': '89119', 'city': 'Las Vegas', 'state_code': 'NV', 'country_code': 'USA', 'latitude': 36.0686005, 'longitude': -115.162279}",6720 Via Austi Parkway,Suite 500,Las Vegas,36.0686005,-115.162279,USA
613517e27c85e5f861db8724,TRIRIGA,cleantech,"{'description': 'Pleasanton', 'address1': '5994 W. Las Positas Boulevard', 'address2': 'Suite 217', 'zip_code': '94588', 'city': 'Pleasanton', 'state_code': 'CA', 'country_code': 'USA', 'latitude': 37.6817236, 'longitude': -121.9031911}",5994 W. Las Positas Boulevard,Suite 217,Pleasanton,37.6817236,-121.9031911,USA
613517e27c85e5f861db88cc,Makani Power,cleantech,"{'description': '', 'address1': '2175 Monarch Street', 'address2': '', 'zip_code': '94501', 'city': 'Alameda', 'state_code': 'CA', 'country_code': 'USA', 'latitude': 37.7831775, 'longitude': -122.3086191}",2175 Monarch Street,,Alameda,37.7831775,-122.3086191,USA
613517e27c85e5f861db88d8,Environmental Operating Solutions,cleantech,"{'description': '', 'address1': '4A Colonel Drive', 'address2': '', 'zip_code': '02532', 'city': 'Bourne', 'state_code': 'MA', 'country_code': 'USA', 'latitude': 41.7333505, 'longitude': -70.5893753}",4A Colonel Drive,,Bourne,41.7333505,-70.5893753,USA
613517e17c85e5f861db77cb,Booyah,games_video,"{'description': 'Booyah Inc.', 'address1': '139 Townsend Street, 3rd Floor', 'address2': '', 'zip_code': '94107', 'city': 'San Francisco', 'state_code': 'CA', 'country_code': 'USA', 'latitude': 37.420728, 'longitude': -122.2103414}","139 Townsend Street, 3rd Floor",,San Francisco,37.420728,-122.2103414,USA
613517e27c85e5f861db885f,Elixir Pharmaceuticals,biotech,"{'description': 'Headquarters', 'address1': '300 Putnam Avenue', 'address2': '', 'zip_code': '02139', 'city': 'Cambridge', 'state_code': 'MA', 'country_code': 'USA', 'latitude': 42.362035, 'longitude': -71.113289}",300 Putnam Avenue,,Cambridge,42.362035,-71.113289,USA
613517e17c85e5f861db64a0,ZeniMax,games_video,"{'description': None, 'address1': '1370 Piccard Drive', 'address2': 'Suite 120', 'zip_code': '20850', 'city': 'Rockville', 'state_code': 'MD', 'country_code': 'USA', 'latitude': 39.105555, 'longitude': -77.179772}",1370 Piccard Drive,Suite 120,Rockville,39.105555,-77.179772,USA
613517e17c85e5f861db7137,GreenRoad Technologies,cleantech,"{'description': 'U.S. Headquarters', 'address1': '3 Twin Dolphin Drive', 'address2': 'Suite 300', 'zip_code': '94065', 'city': 'Redwood Shores', 'state_code': 'CA', 'country_code': 'USA', 'latitude': 37.527315, 'longitude': -122.263434}",3 Twin Dolphin Drive,Suite 300,Redwood Shores,37.527315,-122.263434,USA
613517e27c85e5f861db851e,BrainCells,biotech,"{'description': 'Headquarters', 'address1': '3565 General Atomics Court', 'address2': 'Suite 200', 'zip_code': '92121', 'city': 'San Diego', 'state_code': 'CA', 'country_code': 'USA', 'latitude': 32.893712, 'longitude': -117.237211}",3565 General Atomics Court,Suite 200,San Diego,32.893712,-117.237211,USA
613517e27c85e5f861db89c5,Gevo,cleantech,"{'description': '', 'address1': '345 Inverness Drive South, Building C, Suite 310', 'address2': '', 'zip_code': '80112', 'city': 'Englewood', 'state_code': 'CO', 'country_code': 'USA', 'latitude': 39.558982, 'longitude': -104.856898}","345 Inverness Drive South, Building C, Suite 310",,Englewood,39.558982,-104.856898,USA
613517e27c85e5f861db8a69,Semprius,cleantech,"{'description': 'HQ', 'address1': '4915 Prospectus Drive,', 'address2': 'Suite C', 'zip_code': '27713', 'city': 'Durham', 'state_code': 'NC', 'country_code': 'USA', 'latitude': 35.8948471, 'longitude': -78.8923523}","4915 Prospectus Drive,",Suite C,Durham,35.8948471,-78.8923523,USA
613517e27c85e5f861db83e7,OPX Biotechnologies,cleantech,"{'description': 'OPX Bio', 'address1': '2425 55th Street Suite 100', 'address2': '', 'zip_code': '80301', 'city': 'Boulder', 'state_code': 'CO', 'country_code': 'USA', 'latitude': 40.02375, 'longitude': -105.226353}",2425 55th Street Suite 100,,Boulder,40.02375,-105.226353,USA
613517e17c85e5f861db6438,OnLive,games_video,"{'description': 'Headquarters', 'address1': '181 Lytton Ave.', 'address2': '', 'zip_code': '94301', 'city': 'Palo Alto', 'state_code': 'CA', 'country_code': 'USA', 'latitude': 37.09024, 'longitude': -95.712891}",181 Lytton Ave.,,Palo Alto,37.09024,-95.712891,USA
613517e27c85e5f861db893f,Alnara Pharmaceuticals,biotech,"{'description': 'Headquarters', 'address1': '840 Memorial Drive', 'address2': '', 'zip_code': '02139', 'city': 'Cambridge', 'state_code': 'MA', 'country_code': 'USA', 'latitude': 42.3624253, 'longitude': -71.116031}",840 Memorial Drive,,Cambridge,42.3624253,-71.116031,USA
613517e17c85e5f861db67bd,FriendFinder Networks,games_video,"{'description': '', 'address1': '6800 Broken Sound Parkway', 'address2': 'Suite 100', 'zip_code': '56100', 'city': 'Boca Raton', 'state_code': 'FL', 'country_code': 'MYS', 'latitude': 26.4074809, 'longitude': -80.1169895}",6800 Broken Sound Parkway,Suite 100,Boca Raton,26.4074809,-80.1169895,MYS
613517e27c85e5f861db86ef,Esperion Therapeutics,biotech,"{'description': '', 'address1': '46701 Commerce Center Drive', 'address2': '', 'zip_code': '48170', 'city': 'Plymouth', 'state_code': 'MI', 'country_code': 'USA', 'latitude': 42.3853985, 'longitude': -83.5069834}",46701 Commerce Center Drive,,Plymouth,42.3853985,-83.5069834,USA
613517e17c85e5f861db6f43,Lehigh Technologies,cleantech,"{'description': 'Corporate Headquarters', 'address1': '120 Royal Woods Ct SW', 'address2': '', 'zip_code': '30084', 'city': 'Tucker', 'state_code': 'GA', 'country_code': 'USA', 'latitude': 26.215648, 'longitude': -81.80187}",120 Royal Woods Ct SW,,Tucker,26.215648,-81.80187,USA
613517e27c85e5f861db8ac9,Nordic Windpower,cleantech,"{'description': '', 'address1': '125 University Ave', 'address2': '', 'zip_code': '94710', 'city': 'Berkeley', 'state_code': 'CA', 'country_code': 'USA', 'latitude': 37.863464, 'longitude': -122.3153453}",125 University Ave,,Berkeley,37.863464,-122.3153453,USA
613517e27c85e5f861db8717,Allied Resource Corporation,cleantech,"{'description': 'Corporate Headquarters', 'address1': '435 Devon Park Drive', 'address2': 'The 400 Building', 'zip_code': '19087', 'city': 'Wayne', 'state_code': 'PA', 'country_code': 'USA', 'latitude': 40.0716406, 'longitude': -75.4198731}",435 Devon Park Drive,The 400 Building,Wayne,40.0716406,-75.4198731,USA
613517e27c85e5f861db88de,Living Proof,biotech,"{'description': '', 'address1': '301 Binney St', 'address2': '1st Floor', 'zip_code': '02142', 'city': 'Cambridge', 'state_code': 'MA', 'country_code': 'USA', 'latitude': 42.3661884, 'longitude': -71.0802975}",301 Binney St,1st Floor,Cambridge,42.3661884,-71.0802975,USA
613517e27c85e5f861db88b0,diaDexus,biotech,"{'description': 'HQ', 'address1': '343 Oyster Point Boulevard', 'address2': '', 'zip_code': '94080-1913', 'city': 'South San Francisco', 'state_code': 'CA', 'country_code': 'USA', 'latitude': 37.6625446, 'longitude': -122.3888507}",343 Oyster Point Boulevard,,South San Francisco,37.6625446,-122.3888507,USA
613517e17c85e5f861db6235,hi5,games_video,"{'description': '', 'address1': '55 Second Street', 'address2': 'Suite 400', 'zip_code': '94105', 'city': 'San Francisco', 'state_code': 'CA', 'country_code': 'USA', 'latitude': 37.788668, 'longitude': -122.400558}",55 Second Street,Suite 400,San Francisco,37.788668,-122.400558,USA
613517e17c85e5f861db7c79,RGB Networks,games_video,"{'description': 'HQ', 'address1': '390 West Java Drive', 'address2': '', 'zip_code': '94089', 'city': 'Sunnyvale', 'state_code': 'CA', 'country_code': 'USA', 'latitude': 37.4123706, 'longitude': -122.0216271}",390 West Java Drive,,Sunnyvale,37.4123706,-122.0216271,USA
613517e17c85e5f861db6536,Nanosolar,nanotech,"{'description': None, 'address1': '5521 Hellyer Ave.', 'address2': None, 'zip_code': '95138', 'city': 'San Jose', 'state_code': 'CA', 'country_code': 'USA', 'latitude': 37.264749, 'longitude': -121.789862}",5521 Hellyer Ave.,,San Jose,37.264749,-121.789862,USA
613517e27c85e5f861db88aa,Genizon BioSciences,biotech,"{'description': '', 'address1': '880 McCaffrey Street', 'address2': 'St. Laurent', 'zip_code': 'H4T 2C7', 'city': 'Quebec', 'state_code': None, 'country_code': 'CAN', 'latitude': 45.4858119, 'longitude': -73.7152901}",880 McCaffrey Street,St. Laurent,Quebec,45.4858119,-73.7152901,CAN
613517e27c85e5f861db8924,Marinus Pharmaceuticals,biotech,"{'description': 'Marinus Pharma.', 'address1': '21 Business Park Drive', 'address2': '', 'zip_code': '06405', 'city': 'Branford', 'state_code': 'CT', 'country_code': 'USA', 'latitude': 41.29606, 'longitude': -72.770691}",21 Business Park Drive,,Branford,41.29606,-72.770691,USA
613517e27c85e5f861db884c,Anulex,biotech,"{'description': 'Corporate Headquarters', 'address1': '5600 Rowland Road', 'address2': 'Suite 280', 'zip_code': '55343', 'city': 'Minnetonka', 'state_code': 'MN', 'country_code': 'USA', 'latitude': 44.9025336, 'longitude': -93.4432438}",5600 Rowland Road,Suite 280,Minnetonka,44.9025336,-93.4432438,USA
613517e27c85e5f861db8b78,OptiMedica,biotech,"{'description': 'Corporate Headquarters', 'address1': '3100 Coronado Drive', 'address2': '', 'zip_code': '95054', 'city': 'Santa Clara', 'state_code': 'CA', 'country_code': 'USA', 'latitude': 37.3777985, 'longitude': -121.9744545}",3100 Coronado Drive,,Santa Clara,37.3777985,-121.9744545,USA
613517e27c85e5f861db875e,GenKyoTex,biotech,"{'description': '', 'address1': '14, Chemin des Aulx', 'address2': 'Plan-Les-Ouates', 'zip_code': 'CH-1228', 'city': 'Geneva', 'state_code': None, 'country_code': 'CHE', 'latitude': 46.1685443, 'longitude': 6.1036257}","14, Chemin des Aulx",Plan-Les-Ouates,Geneva,46.1685443,6.1036257,CHE
613517e17c85e5f861db62a3,Metacafe,games_video,"{'description': '', 'address1': '128 King Street', 'address2': '3rd Floor', 'zip_code': '94107', 'city': 'San Francisco', 'state_code': 'CA', 'country_code': 'USA', 'latitude': 37.437328, 'longitude': -122.159928}",128 King Street,3rd Floor,San Francisco,37.437328,-122.159928,USA
613517e17c85e5f861db64a3,Blowtorch,games_video,"{'description': None, 'address1': '10 Liberty Ship Way #330', 'address2': '', 'zip_code': '94965', 'city': 'Sausalito', 'state_code': 'CA', 'country_code': 'USA', 'latitude': 37.862592, 'longitude': -122.493561}",10 Liberty Ship Way #330,,Sausalito,37.862592,-122.493561,USA
613517e27c85e5f861db87b0,Nautilus Solar Energy,cleantech,"{'description': 'HQ', 'address1': '396 Springfield Avenue, 2nd Floor', 'address2': '', 'zip_code': '07901', 'city': 'Summit', 'state_code': 'NJ', 'country_code': 'USA', 'latitude': 40.702334, 'longitude': -74.400246}","396 Springfield Avenue, 2nd Floor",,Summit,40.702334,-74.400246,USA
613517e27c85e5f861db8835,Infinite Power Solutions,cleantech,"{'description': 'HQ', 'address1': '11149 Bradford Road', 'address2': '', 'zip_code': '80127', 'city': 'Littleton', 'state_code': 'CO', 'country_code': 'USA', 'latitude': 39.5688576, 'longitude': -105.1236849}",11149 Bradford Road,,Littleton,39.5688576,-105.1236849,USA
613517e17c85e5f861db689a,Pikum,games_video,"{'description': None, 'address1': '7 Chalcot Road', 'address2': '', 'zip_code': 'Nw1 8lh', 'city': 'London', 'state_code': None, 'country_code': 'GBR', 'latitude': 51.539778, 'longitude': -0.152998}",7 Chalcot Road,,London,51.539778,-0.152998,GBR
613517e27c85e5f861db8415,Environmental Operations,cleantech,"{'description': 'Environmental Operations', 'address1': '1530 South Second Street     Suite 200', 'address2': '', 'zip_code': '63104-4500', 'city': 'St. Louis', 'state_code': 'MO', 'country_code': 'USA', 'latitude': 38.6093764, 'longitude': -90.1959689}",1530 South Second Street     Suite 200,,St. Louis,38.6093764,-90.1959689,USA
613517e27c85e5f861db87f4,BioStable,biotech,"{'description': 'Office', 'address1': '2621 Ridgepoint Drive,Suite 100', 'address2': '', 'zip_code': '78754', 'city': 'Austin,', 'state_code': 'TX', 'country_code': 'USA', 'latitude': 30.327779, 'longitude': -97.669955}","2621 Ridgepoint Drive,Suite 100",,"Austin,",30.327779,-97.669955,USA
613517e27c85e5f861db890f,Lumavita,biotech,"{'description': '', 'address1': 'Engelgase 77', 'address2': 'Basel', 'zip_code': '4052', 'city': 'Switzerland', 'state_code': None, 'country_code': 'CHE', 'latitude': 47.548934, 'longitude': 7.6025604}",Engelgase 77,Basel,Switzerland,47.548934,7.6025604,CHE
613517e17c85e5f861db6bd5,Sometrics,games_video,"{'description': '', 'address1': '', 'address2': '', 'zip_code': '90245', 'city': 'El Segundo', 'state_code': 'CA', 'country_code': 'USA', 'latitude': 34.048857, 'longitude': -118.251343}",,,El Segundo,34.048857,-118.251343,USA
613517e17c85e5f861db7157,Transposagen Biopharmaceuticals,biotech,"{'description': '', 'address1': '', 'address2': '', 'zip_code': '40507', 'city': 'Lexington', 'state_code': 'KY', 'country_code': 'USA', 'latitude': 38.048906, 'longitude': -84.499838}",,,Lexington,38.048906,-84.499838,USA
613517e17c85e5f861db7d02,Juneau Biosciences,biotech,"{'description': '', 'address1': '2749 E. Parleys Way', 'address2': 'Suite 210', 'zip_code': '84109', 'city': 'Salt Lake City', 'state_code': 'UT', 'country_code': 'USA', 'latitude': 40.718033, 'longitude': -111.81104}",2749 E. Parleys Way,Suite 210,Salt Lake City,40.718033,-111.81104,USA
613517e17c85e5f861db6904,Cellufun,games_video,"{'description': 'Worldwide HQ', 'address1': '33 West 19th Street', 'address2': 'Suite 329', 'zip_code': '10011', 'city': 'New York', 'state_code': 'NY', 'country_code': 'USA', 'latitude': 40.73993, 'longitude': -73.9930489}",33 West 19th Street,Suite 329,New York,40.73993,-73.9930489,USA
613517e17c85e5f861db6a87,Serious Business,games_video,"{'description': '', 'address1': '580 Market Street', 'address2': '#600', 'zip_code': '94104', 'city': 'San Francisco', 'state_code': 'CA', 'country_code': 'USA', 'latitude': 37.7893215, 'longitude': -122.4013624}",580 Market Street,#600,San Francisco,37.7893215,-122.4013624,USA
613517e17c85e5f861db7a08,Clear Standards,cleantech,"{'description': 'Clear Standards', 'address1': '21335 Signal Ave', 'address2': 'Suite 200', 'zip_code': '20164', 'city': 'Sterling', 'state_code': 'VA', 'country_code': 'USA', 'latitude': 39.024958, 'longitude': -77.389687}",21335 Signal Ave,Suite 200,Sterling,39.024958,-77.389687,USA
613517e27c85e5f861db8339,Preview Networks,games_video,"{'description': 'European Headquarters', 'address1': 'Njalsgade 21F', 'address2': '', 'zip_code': '2300', 'city': 'Copenhagen', 'state_code': None, 'country_code': 'DNK', 'latitude': 55.6659813, 'longitude': 12.5800751}",Njalsgade 21F,,Copenhagen,55.6659813,12.5800751,DNK
613517e27c85e5f861db85ef,Lightning Gaming,games_video,"{'description': '', 'address1': '106 Chelsea Parkway', 'address2': '', 'zip_code': '19061', 'city': 'Boothwyn', 'state_code': 'PA', 'country_code': 'USA', 'latitude': 39.8728373, 'longitude': -75.4784988}",106 Chelsea Parkway,,Boothwyn,39.8728373,-75.4784988,USA
613517e27c85e5f861db87bc,Limerick BioPharma,biotech,"{'description': '', 'address1': '601 Gateway Blvd., Suite 700', 'address2': '', 'zip_code': '94080', 'city': 'South San Francisco', 'state_code': 'CA', 'country_code': 'USA', 'latitude': 37.658713, 'longitude': -122.399382}","601 Gateway Blvd., Suite 700",,South San Francisco,37.658713,-122.399382,USA
613517e17c85e5f861db796f,Machinima,games_video,"{'description': '', 'address1': '8441 Santa Monica Blvd', 'address2': '', 'zip_code': '90069', 'city': 'West Hollywood', 'state_code': 'CA', 'country_code': 'USA', 'latitude': 34.0906409, 'longitude': -118.3740745}",8441 Santa Monica Blvd,,West Hollywood,34.0906409,-118.3740745,USA
613517e27c85e5f861db8b1f,NovaSys,biotech,"{'description': '', 'address1': 'P.O. Box 25230', 'address2': '', 'zip_code': '72221', 'city': 'Little Rock', 'state_code': 'AR', 'country_code': 'USA', 'latitude': 34.7465, 'longitude': -92.2894}",P.O. Box 25230,,Little Rock,34.7465,-92.2894,USA
613517e17c85e5f861db62ea,Mevio,games_video,"{'description': '', 'address1': '577 2nd St Suite 203', 'address2': '', 'zip_code': '94107', 'city': 'San Francisco', 'state_code': 'CA', 'country_code': 'USA', 'latitude': 37.782263, 'longitude': -122.392142}",577 2nd St Suite 203,,San Francisco,37.782263,-122.392142,USA
613517e27c85e5f861db89c6,Nuon Therapeutics,biotech,"{'description': '', 'address1': '2755 Campus Drive, Suite 175', 'address2': '', 'zip_code': '94403', 'city': 'San Mateo', 'state_code': 'CA', 'country_code': 'USA', 'latitude': 37.536402, 'longitude': -122.325129}","2755 Campus Drive, Suite 175",,San Mateo,37.536402,-122.325129,USA
613517e27c85e5f861db89e4,Qteros,cleantech,"{'description': 'Headquarters', 'address1': '100 Campus Drive', 'address2': '', 'zip_code': '01752', 'city': 'Marlborough', 'state_code': 'MA', 'country_code': 'USA', 'latitude': 42.3253727, 'longitude': -71.5854884}",100 Campus Drive,,Marlborough,42.3253727,-71.5854884,USA
613517e27c85e5f861db89a3,TARIS Biomedical,biotech,"{'description': '', 'address1': '99 Hayden Avenue, Suite 100', 'address2': '', 'zip_code': '02421', 'city': 'Lexington', 'state_code': 'MA', 'country_code': 'USA', 'latitude': 42.4236783, 'longitude': -71.2459523}","99 Hayden Avenue, Suite 100",,Lexington,42.4236783,-71.2459523,USA
613517e17c85e5f861db63e1,PlaySpan,games_video,"{'description': 'HQ', 'address1': '', 'address2': '', 'zip_code': '95054', 'city': 'Santa Clara', 'state_code': 'CA', 'country_code': 'USA', 'latitude': 37.396312, 'longitude': -121.961396}",,,Santa Clara,37.396312,-121.961396,USA
613517e07c85e5f861db615d,Joost,games_video,"{'description': '', 'address1': '100 5th Ave Fl 6', 'address2': '', 'zip_code': '10011-6903', 'city': 'New York', 'state_code': 'NY', 'country_code': 'USA', 'latitude': 40.7464969, 'longitude': -74.0094471}",100 5th Ave Fl 6,,New York,40.7464969,-74.0094471,USA
613517e17c85e5f861db6312,SpiralFrog,games_video,"{'description': None, 'address1': '95 Morton Street', 'address2': 'Ground Floor', 'zip_code': '10014', 'city': 'New York', 'state_code': 'NY', 'country_code': 'USA', 'latitude': 37.09024, 'longitude': -95.712891}",95 Morton Street,Ground Floor,New York,37.09024,-95.712891,USA
613517e27c85e5f861db850d,Invenergy,cleantech,"{'description': 'Headquarters', 'address1': '1 South Wacker Drive', 'address2': 'Suite 1900', 'zip_code': '60606', 'city': 'Chicago', 'state_code': 'IL', 'country_code': 'USA', 'latitude': 41.8819098, 'longitude': -87.6367792}",1 South Wacker Drive,Suite 1900,Chicago,41.8819098,-87.6367792,USA
613517e27c85e5f861db89e5,SoloPower,cleantech,"{'description': 'Headquarters', 'address1': '5981 Optical Court', 'address2': '', 'zip_code': '95138', 'city': 'San Jose', 'state_code': 'CA', 'country_code': 'USA', 'latitude': 37.253463, 'longitude': -121.782906}",5981 Optical Court,,San Jose,37.253463,-121.782906,USA
613517e27c85e5f861db888f,Ostara,cleantech,"{'description': '', 'address1': '690 â€“ 1199 West Pender Street', 'address2': 'BC V6E 2R1', 'zip_code': '', 'city': 'Vancouver', 'state_code': None, 'country_code': 'CAN', 'latitude': 49.2883553, 'longitude': -123.1233545}",690 â€“ 1199 West Pender Street,BC V6E 2R1,Vancouver,49.2883553,-123.1233545,CAN
613517e27c85e5f861db8437,Borrego Solar Systems,cleantech,"{'description': 'San Diego Location', 'address1': '1810 Gillespie Way, Suite 108', 'address2': '', 'zip_code': '92020', 'city': 'El Cajon', 'state_code': 'CA', 'country_code': 'USA', 'latitude': 32.8193566, 'longitude': -116.981232}","1810 Gillespie Way, Suite 108",,El Cajon,32.8193566,-116.981232,USA
613517e17c85e5f861db71c8,ngmoco,games_video,"{'description': 'Secret Factory', 'address1': '185 Berry Street', 'address2': 'Suite 3000', 'zip_code': '94107', 'city': 'San Francisco', 'state_code': 'CA', 'country_code': 'USA', 'latitude': 37.7705096, 'longitude': -122.4015807}",185 Berry Street,Suite 3000,San Francisco,37.7705096,-122.4015807,USA
613517e07c85e5f861db6159,Lala,games_video,"{'description': 'Lala Headquarters', 'address1': '209 Hamilton Ave', 'address2': 'Suite #200', 'zip_code': '94301', 'city': 'Palo Alto', 'state_code': 'CA', 'country_code': 'USA', 'latitude': 37.451151, 'longitude': -122.154369}",209 Hamilton Ave,Suite #200,Palo Alto,37.451151,-122.154369,USA
613517e27c85e5f861db8801,MediQuest Therapeutics,biotech,"{'description': '', 'address1': '22322 20th Avenue SE', 'address2': 'Suite 100', 'zip_code': '98021', 'city': 'Bothell', 'state_code': 'WA', 'country_code': 'USA', 'latitude': 47.795302, 'longitude': -122.205813}",22322 20th Avenue SE,Suite 100,Bothell,47.795302,-122.205813,USA
613517e27c85e5f861db871e,Apieron,biotech,"{'description': 'Headquarters', 'address1': '155 Jefferson Drive', 'address2': '', 'zip_code': '94025', 'city': 'Menlo Park', 'state_code': 'CA', 'country_code': 'USA', 'latitude': 37.482654, 'longitude': -122.172713}",155 Jefferson Drive,,Menlo Park,37.482654,-122.172713,USA
613517e27c85e5f861db896b,Athenix,biotech,"{'description': '', 'address1': '108 T.W. Alexander Drive', 'address2': '', 'zip_code': '27709', 'city': 'Research Triangle Park', 'state_code': 'NC', 'country_code': 'USA', 'latitude': 35.8893657, 'longitude': -78.880602}",108 T.W. Alexander Drive,,Research Triangle Park,35.8893657,-78.880602,USA
613517e27c85e5f861db8841,EnerTech Environmental,cleantech,"{'description': '', 'address1': '675 Seminole Ave', 'address2': 'Suite 207', 'zip_code': '30307', 'city': 'Atlanta', 'state_code': 'GA', 'country_code': 'USA', 'latitude': 33.7726102, 'longitude': -84.3507414}",675 Seminole Ave,Suite 207,Atlanta,33.7726102,-84.3507414,USA
613517e27c85e5f861db887f,MaxWest Environmental Systems,cleantech,"{'description': None, 'address1': None, 'address2': None, 'zip_code': None, 'city': 'Sanford', 'state_code': 'FL', 'country_code': 'USA', 'latitude': 28.8028612, 'longitude': -81.269453}",,,Sanford,28.8028612,-81.269453,USA
613517e27c85e5f861db8897,FORMA Therapeutics,biotech,"{'description': 'FORMA Therapeutics', 'address1': '790 Memorial Drive', 'address2': '', 'zip_code': '02139', 'city': 'Cambridge', 'state_code': 'ME', 'country_code': 'USA', 'latitude': 42.3595196, 'longitude': -71.1156913}",790 Memorial Drive,,Cambridge,42.3595196,-71.1156913,USA
613517e27c85e5f861db83e9,Cerapedics,biotech,"{'description': 'Cerapedics', 'address1': '11025 Dover Street', 'address2': '', 'zip_code': '80021', 'city': 'Westminster', 'state_code': 'CO', 'country_code': 'USA', 'latitude': 39.8957185, 'longitude': -105.0932779}",11025 Dover Street,,Westminster,39.8957185,-105.0932779,USA
613517e27c85e5f861db888e,LigoCyte Pharmaceuticals,biotech,"{'description': '', 'address1': '2155 Analysis Drive', 'address2': '', 'zip_code': '59718', 'city': 'Bozeman', 'state_code': 'MT', 'country_code': 'USA', 'latitude': 45.6686485, 'longitude': -111.0662396}",2155 Analysis Drive,,Bozeman,45.6686485,-111.0662396,USA
613517e27c85e5f861db891d,Lycera,biotech,"{'description': 'Lycera', 'address1': '2800 Plymouth Rd.', 'address2': 'NCRC, Building 26', 'zip_code': '48109', 'city': 'Ann Arbor', 'state_code': 'MI', 'country_code': 'USA', 'latitude': 42.277416, 'longitude': -83.733276}",2800 Plymouth Rd.,"NCRC, Building 26",Ann Arbor,42.277416,-83.733276,USA
613517e17c85e5f861db79a1,Nantero,nanotech,"{'description': '', 'address1': '25-E Olympia Avenue', 'address2': '', 'zip_code': '01801', 'city': 'Woburn', 'state_code': 'MA', 'country_code': 'USA', 'latitude': 42.500324, 'longitude': -71.130792}",25-E Olympia Avenue,,Woburn,42.500324,-71.130792,USA
613517e17c85e5f861db7cb8,Quanterix,biotech,"{'description': '', 'address1': 'One Kendall Square', 'address2': 'Building 1400', 'zip_code': '02139', 'city': 'Cambridge', 'state_code': 'MA', 'country_code': 'USA', 'latitude': 42.3663257, 'longitude': -71.0917952}",One Kendall Square,Building 1400,Cambridge,42.3663257,-71.0917952,USA
613517e27c85e5f861db8726,ThermaSource,cleantech,"{'description': 'Corporate Headquarters', 'address1': '3883 Airway Dr.', 'address2': 'Suite 340', 'zip_code': 'CA 95403', 'city': 'Santa Rosa', 'state_code': 'CA', 'country_code': 'USA', 'latitude': 38.482853, 'longitude': -122.740198}",3883 Airway Dr.,Suite 340,Santa Rosa,38.482853,-122.740198,USA
613517e27c85e5f861db87c5,VistaGen Therapeutics,biotech,"{'description': '', 'address1': '384 Oyster Point Blvd., Suite #8', 'address2': '', 'zip_code': '94080', 'city': 'South San Francisco', 'state_code': 'CA', 'country_code': 'USA', 'latitude': 37.6656476, 'longitude': -122.3843489}","384 Oyster Point Blvd., Suite #8",,South San Francisco,37.6656476,-122.3843489,USA
613517e17c85e5f861db62e1,Zango,games_video,"{'description': None, 'address1': '3600 136th Place SE', 'address2': None, 'zip_code': '98006', 'city': 'Bellevue', 'state_code': 'WA', 'country_code': 'USA', 'latitude': 47.579208, 'longitude': -122.155668}",3600 136th Place SE,,Bellevue,47.579208,-122.155668,USA
613517e17c85e5f861db7e9f,Eka Systems,cleantech,"{'description': '', 'address1': '20201 Century Boulevard, Suite 250', 'address2': '', 'zip_code': '20874', 'city': 'Germantown', 'state_code': 'MD', 'country_code': 'USA', 'latitude': 39.1878563, 'longitude': -77.2610228}","20201 Century Boulevard, Suite 250",,Germantown,39.1878563,-77.2610228,USA
613517e27c85e5f861db87e2,GT Solar,cleantech,"{'description': 'Worldwide Headquarters', 'address1': '243 Daniel Webster Highway', 'address2': '', 'zip_code': '03054', 'city': 'Merrimack', 'state_code': 'NH', 'country_code': 'USA', 'latitude': 42.830989, 'longitude': -71.489876}",243 Daniel Webster Highway,,Merrimack,42.830989,-71.489876,USA
613517e27c85e5f861db87e3,GT Solar,cleantech,"{'description': 'Missoula, Montana', 'address1': '110 E. Broadway', 'address2': 'Suite 400', 'zip_code': '59802', 'city': 'Missoula', 'state_code': 'MT', 'country_code': 'USA', 'latitude': 46.8719508, 'longitude': -113.9934266}",110 E. Broadway,Suite 400,Missoula,46.8719508,-113.9934266,USA
613517e27c85e5f861db87e4,GT Solar,cleantech,"{'description': 'Shanghai, China', 'address1': '', 'address2': '', 'zip_code': '200040', 'city': 'Shanghai', 'state_code': None, 'country_code': 'CHN', 'latitude': 35.8640194, 'longitude': 120.0113341}",,,Shanghai,35.8640194,120.0113341,CHN
613517e27c85e5f861db88c9,Albireo,biotech,"{'description': '', 'address1': 'Arvid Wallgrens Backe 20', 'address2': '', 'zip_code': '413 46', 'city': 'Gothenburg', 'state_code': None, 'country_code': 'SWE', 'latitude': 57.6857201, 'longitude': 11.955296}",Arvid Wallgrens Backe 20,,Gothenburg,57.6857201,11.955296,SWE
613517e27c85e5f861db8928,Visiogen,biotech,"{'description': 'Visiogen', 'address1': '2 Goodyear, Suite B', 'address2': '', 'zip_code': '92618', 'city': 'Irvine', 'state_code': 'CA', 'country_code': 'USA', 'latitude': 33.646018, 'longitude': -117.711994}","2 Goodyear, Suite B",,Irvine,33.646018,-117.711994,USA
613517e27c85e5f861db89c2,Mainstream energy,cleantech,"{'description': '', 'address1': '775 Fiero Lane, Suite 200', 'address2': '', 'zip_code': '93401', 'city': 'San Luis Obispo', 'state_code': 'CA', 'country_code': 'USA', 'latitude': 35.2441852, 'longitude': -120.6425269}","775 Fiero Lane, Suite 200",,San Luis Obispo,35.2441852,-120.6425269,USA
613517e27c85e5f861db82e8,SCVNGR,games_video,"{'description': 'SCVNGR', 'address1': 'One Congress', 'address2': 'Suite 111', 'zip_code': '021114', 'city': 'Boston', 'state_code': 'MA', 'country_code': 'USA', 'latitude': 42.3406534, 'longitude': -71.0680027}",One Congress,Suite 111,Boston,42.3406534,-71.0680027,USA
613517e27c85e5f861db8804,Opsona,biotech,"{'description': '', 'address1': ""St Jame's Hospital"", 'address2': '', 'zip_code': '', 'city': 'Dublin 8', 'state_code': None, 'country_code': 'IRL', 'latitude': 53.3401356, 'longitude': -6.2962414}",St Jame's Hospital,,Dublin 8,53.3401356,-6.2962414,IRL
613517e17c85e5f861db635f,Crunchyroll,games_video,"{'description': '', 'address1': '', 'address2': '', 'zip_code': '94105', 'city': 'San Francisco', 'state_code': 'CA', 'country_code': 'USA', 'latitude': 37.781265, 'longitude': -122.393229}",,,San Francisco,37.781265,-122.393229,USA
613517e27c85e5f861db876e,Oncodesign,biotech,"{'description': '', 'address1': '20 rue Jean Mazen', 'address2': 'B.P. 27627', 'zip_code': '21076', 'city': 'Dijon Cedex', 'state_code': None, 'country_code': 'FRA', 'latitude': 47.3161718, 'longitude': 5.0754071}",20 rue Jean Mazen,B.P. 27627,Dijon Cedex,47.3161718,5.0754071,FRA
613517e17c85e5f861db62b8,DanceJam,games_video,"{'description': '', 'address1': '965 Mission Street', 'address2': 'Suite 730', 'zip_code': '94103', 'city': 'San Francisco', 'state_code': 'CA', 'country_code': 'USA', 'latitude': 37.781557, 'longitude': -122.407959}",965 Mission Street,Suite 730,San Francisco,37.781557,-122.407959,USA
613517e27c85e5f861db88c8,Hepregen,biotech,"{'description': '', 'address1': '200 Boston Avenue', 'address2': 'Suite 1500', 'zip_code': '02155', 'city': 'Medford', 'state_code': 'MA', 'country_code': 'USA', 'latitude': 42.415719, 'longitude': -71.126711}",200 Boston Avenue,Suite 1500,Medford,42.415719,-71.126711,USA
613517e27c85e5f861db88b4,SynapCell,biotech,"{'description': 'HQ', 'address1': '1000 av des jeux olympiques', 'address2': '', 'zip_code': '38100', 'city': 'Grenoble', 'state_code': None, 'country_code': 'FRA', 'latitude': 45.1734252, 'longitude': 5.7401962}",1000 av des jeux olympiques,,Grenoble,45.1734252,5.7401962,FRA
613517e27c85e5f861db86fe,American Biomass,cleantech,"{'description': '', 'address1': '84 Daniel Plummer Road', 'address2': '', 'zip_code': '03045', 'city': 'Goffstown', 'state_code': 'NH', 'country_code': 'USA', 'latitude': 42.994063, 'longitude': -71.520878}",84 Daniel Plummer Road,,Goffstown,42.994063,-71.520878,USA
613517e07c85e5f861db6181,blogTV,games_video,"{'description': 'Headquarters', 'address1': '30 Ben Gurion St.', 'address2': '', 'zip_code': '52573', 'city': 'Ramat Gan', 'state_code': None, 'country_code': 'ISR', 'latitude': 31.046051, 'longitude': 34.851612}",30 Ben Gurion St.,,Ramat Gan,31.046051,34.851612,ISR
613517e17c85e5f861db63ef,Rupture,games_video,"{'description': 'Headquarters', 'address1': '400 2nd Street', 'address2': 'Suite 350', 'zip_code': '94107', 'city': 'San Francisco', 'state_code': 'CA', 'country_code': 'USA', 'latitude': 37.783898, 'longitude': -122.395234}",400 2nd Street,Suite 350,San Francisco,37.783898,-122.395234,USA
613517e17c85e5f861db6552,DeepRockDrive,games_video,"{'description': None, 'address1': None, 'address2': None, 'zip_code': '89173', 'city': 'Las Vegas', 'state_code': 'NV', 'country_code': 'USA', 'latitude': 36.1062, 'longitude': -115.1374}",,,Las Vegas,36.1062,-115.1374,USA
613517e17c85e5f861db6a58,Modern Feed,games_video,"{'description': None, 'address1': '818 N. La Brea Ave.', 'address2': '', 'zip_code': '90038', 'city': 'Los Angeles', 'state_code': 'CA', 'country_code': 'USA', 'latitude': 34.085749, 'longitude': -118.343791}",818 N. La Brea Ave.,,Los Angeles,34.085749,-118.343791,USA
613517e17c85e5f861db736c,Tweegee,games_video,"{'description': 'Tweegee Develpoment', 'address1': 'B.S.R 1', 'address2': 'Ben Gurion 2', 'zip_code': '', 'city': 'Ramat Gan', 'state_code': None, 'country_code': 'ISR', 'latitude': 32.037363, 'longitude': 34.8003705}",B.S.R 1,Ben Gurion 2,Ramat Gan,32.037363,34.8003705,ISR
613517e17c85e5f861db7546,Tweegee,games_video,"{'description': 'Tweegee Develpoment', 'address1': 'B.S.R 1', 'address2': 'Ben Gurion 2', 'zip_code': '', 'city': 'Ramat Gan', 'state_code': None, 'country_code': 'ISR', 'latitude': 32.037363, 'longitude': 34.8003705}",B.S.R 1,Ben Gurion 2,Ramat Gan,32.037363,34.8003705,ISR
613517e17c85e5f861db7d23,Zenda Technologies,biotech,"{'description': '', 'address1': '1210 Ridgefield Dr', 'address2': '', 'zip_code': '30075', 'city': 'Roswell', 'state_code': 'GA', 'country_code': 'USA', 'latitude': 34.015986, 'longitude': -84.388934}",1210 Ridgefield Dr,,Roswell,34.015986,-84.388934,USA
613517e17c85e5f861db7ee5,C3L3B Digital,games_video,"{'description': '', 'address1': '5016 Parkway Calabasas', 'address2': 'Suite 220', 'zip_code': '91302', 'city': 'Calabasas', 'state_code': 'CA', 'country_code': 'USA', 'latitude': 34.1549426, 'longitude': -118.6545471}",5016 Parkway Calabasas,Suite 220,Calabasas,34.1549426,-118.6545471,USA
613517e27c85e5f861db8737,EyeCyte,biotech,"{'description': '', 'address1': '3366 North Torrey Pines Court', 'address2': 'Suite 130', 'zip_code': '92037', 'city': 'La Jolla', 'state_code': 'CA', 'country_code': 'USA', 'latitude': 32.893589, 'longitude': -117.241633}",3366 North Torrey Pines Court,Suite 130,La Jolla,32.893589,-117.241633,USA
613517e27c85e5f861db885b,Control Medical Technology,biotech,"{'description': 'Corporate Headquarters', 'address1': '', 'address2': '', 'zip_code': '84098', 'city': 'Park City', 'state_code': 'UT', 'country_code': 'USA', 'latitude': 40.743503, 'longitude': -111.5468301}",,,Park City,40.743503,-111.5468301,USA
613517e27c85e5f861db8904,Exent,games_video,"{'description': 'Sales & Marketing', 'address1': '632 W. 28th St.', 'address2': '8th Floor', 'zip_code': '10001', 'city': 'New York', 'state_code': 'NY', 'country_code': 'USA', 'latitude': 40.7523796, 'longitude': -74.005568}",632 W. 28th St.,8th Floor,New York,40.7523796,-74.005568,USA
613517e27c85e5f861db8905,Exent,games_video,"{'description': 'Premium Services', 'address1': '685 Market Street', 'address2': 'Suite 560', 'zip_code': '94105', 'city': 'San Francisco', 'state_code': 'CA', 'country_code': 'USA', 'latitude': 37.787646, 'longitude': -122.402759}",685 Market Street,Suite 560,San Francisco,37.787646,-122.402759,USA
613517e27c85e5f861db8b30,NanoBio,biotech,"{'description': '', 'address1': '2311 Green Road', 'address2': 'Suite A', 'zip_code': '48105', 'city': 'Ann Arbor', 'state_code': 'MI', 'country_code': 'USA', 'latitude': 42.3079711, 'longitude': -83.6927623}",2311 Green Road,Suite A,Ann Arbor,42.3079711,-83.6927623,USA
613517e27c85e5f861db8734,Miragen Therapeutics,biotech,"{'description': '', 'address1': '6200 Lookout Rd.', 'address2': 'Suite 100', 'zip_code': '80301', 'city': 'Boulder', 'state_code': 'CO', 'country_code': 'USA', 'latitude': 40.068752, 'longitude': -105.208027}",6200 Lookout Rd.,Suite 100,Boulder,40.068752,-105.208027,USA
613517e27c85e5f861db86e1,Quark Pharmaceuticals,biotech,"{'description': 'Corporate Headquarters', 'address1': '6501 Dumbarton Circle.', 'address2': '', 'zip_code': '94555', 'city': 'Fremont', 'state_code': 'CA', 'country_code': 'USA', 'latitude': 37.5511524, 'longitude': -122.060501}",6501 Dumbarton Circle.,,Fremont,37.5511524,-122.060501,USA
613517e27c85e5f861db8a52,Northern Power Systems,cleantech,"{'description': '', 'address1': '29 Pitman Road', 'address2': '', 'zip_code': '', 'city': 'Barre', 'state_code': 'VT', 'country_code': 'USA', 'latitude': 44.170982, 'longitude': -72.486152}",29 Pitman Road,,Barre,44.170982,-72.486152,USA
613517e17c85e5f861db6520,PlayFirst,games_video,"{'description': 'HQ', 'address1': '160 Spear St', 'address2': 'Suite 1300', 'zip_code': '94105', 'city': 'San Francisco', 'state_code': 'CA', 'country_code': 'USA', 'latitude': 37.790346, 'longitude': -122.40185}",160 Spear St,Suite 1300,San Francisco,37.790346,-122.40185,USA
613517e27c85e5f861db892f,Intradigm Corporation,biotech,"{'description': 'Headquarters', 'address1': '3350 W Bayshore Rd, Suite 100', 'address2': '', 'zip_code': '94303', 'city': 'Palo Alto', 'state_code': 'CA', 'country_code': 'USA', 'latitude': 37.435768, 'longitude': -122.110835}","3350 W Bayshore Rd, Suite 100",,Palo Alto,37.435768,-122.110835,USA
613517e17c85e5f861db6d2d,CCP Games,games_video,"{'description': 'CCP North America', 'address1': '2075 West Park Place BLVD.', 'address2': 'Suite G', 'zip_code': 'Stone Mountain', 'city': 'Stone Mountain', 'state_code': 'GA', 'country_code': 'USA', 'latitude': 33.817752, 'longitude': -84.120458}",2075 West Park Place BLVD.,Suite G,Stone Mountain,33.817752,-84.120458,USA
613517e27c85e5f861db884d,Clovis Oncology,biotech,"{'description': 'HQ', 'address1': '2525 28th Street', 'address2': 'Suite 100', 'zip_code': '80301', 'city': 'Boulder', 'state_code': 'CO', 'country_code': 'USA', 'latitude': 40.026, 'longitude': -105.259041}",2525 28th Street,Suite 100,Boulder,40.026,-105.259041,USA
613517e27c85e5f861db8834,Stormfisher Biogas,cleantech,"{'description': 'Head office', 'address1': '411 Richmond Street East, Suite 200', 'address2': '', 'zip_code': 'M5A3S5', 'city': 'Toronto', 'state_code': None, 'country_code': 'CAN', 'latitude': 43.6538625, 'longitude': -79.3670135}","411 Richmond Street East, Suite 200",,Toronto,43.6538625,-79.3670135,CAN
613517e17c85e5f861db6456,Akimbo,games_video,"{'description': None, 'address1': '411 Borel Avenue', 'address2': 'Suite 100', 'zip_code': '94402', 'city': 'San Mateo', 'state_code': 'CA', 'country_code': 'USA', 'latitude': 37.548482, 'longitude': -122.320534}",411 Borel Avenue,Suite 100,San Mateo,37.548482,-122.320534,USA
613517e27c85e5f861db891c,iScience Interventional,biotech,"{'description': 'iScience Interventional', 'address1': '4055 Campbell Avenue', 'address2': '', 'zip_code': '94025', 'city': 'Menlo Park', 'state_code': 'CA', 'country_code': 'USA', 'latitude': 37.4805104, 'longitude': -122.1807356}",4055 Campbell Avenue,,Menlo Park,37.4805104,-122.1807356,USA
613517e17c85e5f861db6254,Vuze,games_video,"{'description': 'Headquarters', 'address1': '4 W. 4th Ave', 'address2': '', 'zip_code': '94402', 'city': 'San Mateo', 'state_code': 'CA', 'country_code': 'USA', 'latitude': 37.4858654, 'longitude': -122.2262606}",4 W. 4th Ave,,San Mateo,37.4858654,-122.2262606,USA
613517e27c85e5f861db89db,VytronUS,biotech,"{'description': '', 'address1': '658 N. Pastoria Ave.', 'address2': '', 'zip_code': '94085', 'city': 'Sunnyvale', 'state_code': 'CA', 'country_code': 'USA', 'latitude': 37.394258, 'longitude': -122.032776}",658 N. Pastoria Ave.,,Sunnyvale,37.394258,-122.032776,USA
613517e17c85e5f861db6b20,XunLight,cleantech,"{'description': None, 'address1': '3145 Nebraska Avenue', 'address2': '', 'zip_code': '43607', 'city': 'Toledo', 'state_code': 'OH', 'country_code': 'USA', 'latitude': 41.645278, 'longitude': -83.618593}",3145 Nebraska Avenue,,Toledo,41.645278,-83.618593,USA
613517e27c85e5f861db86d6,Sunrun,cleantech,"{'description': 'San Francisco HQ', 'address1': '45 Fremont Street, 32nd Floor', 'address2': '', 'zip_code': '94105', 'city': 'San Francisco', 'state_code': 'CA', 'country_code': 'USA', 'latitude': 37.7871306, 'longitude': -122.4041075}","45 Fremont Street, 32nd Floor",,San Francisco,37.7871306,-122.4041075,USA
613517e27c85e5f861db879d,CoalTek,cleantech,"{'description': '', 'address1': '2189 Flintstone Dr', 'address2': 'Suite A', 'zip_code': '30084', 'city': 'Tucker', 'state_code': 'GA', 'country_code': 'USA', 'latitude': 33.84819, 'longitude': -84.193858}",2189 Flintstone Dr,Suite A,Tucker,33.84819,-84.193858,USA
613517e27c85e5f861db8970,Nuventix,cleantech,"{'description': '', 'address1': '4635 Boston Lane', 'address2': '', 'zip_code': '78735', 'city': 'Austin', 'state_code': 'TX', 'country_code': 'USA', 'latitude': 30.239229, 'longitude': -97.834211}",4635 Boston Lane,,Austin,30.239229,-97.834211,USA
613517e27c85e5f861db8433,Alios BioPharma,biotech,"{'description': 'HQ', 'address1': '260 East Grand Ave,', 'address2': '2nd Floor', 'zip_code': '94080', 'city': 'South San Francisco', 'state_code': 'CA', 'country_code': 'USA', 'latitude': 37.6664003, 'longitude': -122.451448}","260 East Grand Ave,",2nd Floor,South San Francisco,37.6664003,-122.451448,USA
613517e27c85e5f861db89ae,CoMentis,biotech,"{'description': 'Corporate Headquarters', 'address1': '280 Utah Avenue, Suite 275', 'address2': '', 'zip_code': '94080', 'city': 'South San Francisco', 'state_code': 'CA', 'country_code': 'USA', 'latitude': 37.646457, 'longitude': -122.394008}","280 Utah Avenue, Suite 275",,South San Francisco,37.646457,-122.394008,USA
613517e27c85e5f861db823a,Relypsa,biotech,"{'description': '', 'address1': '700 Saginaw Drive', 'address2': '', 'zip_code': '94063', 'city': 'Redwood City', 'state_code': 'CA', 'country_code': 'USA', 'latitude': 37.5024749, 'longitude': -122.220408}",700 Saginaw Drive,,Redwood City,37.5024749,-122.220408,USA
613517e17c85e5f861db6afb,GodTube,games_video,"{'description': None, 'address1': '7160 Dallas Parkway', 'address2': '', 'zip_code': '75024', 'city': 'Plano', 'state_code': 'TX', 'country_code': 'USA', 'latitude': 33.075067, 'longitude': -96.823962}",7160 Dallas Parkway,,Plano,33.075067,-96.823962,USA
613517e27c85e5f861db89e1,Metallkraft AS,cleantech,"{'description': 'Headquarters', 'address1': 'Setesdalsveien 110', 'address2': '', 'zip_code': '4617', 'city': 'Kristiansand', 'state_code': None, 'country_code': 'NOR', 'latitude': 58.155769, 'longitude': 7.9543206}",Setesdalsveien 110,,Kristiansand,58.155769,7.9543206,NOR
613517e17c85e5f861db63b4,mig33,games_video,"{'description': 'mig33 Headquarters', 'address1': '111 North Bridge Road', 'address2': 'Peninsula Plaza #26-01', 'zip_code': '179098', 'city': 'Singapore', 'state_code': None, 'country_code': 'SGP', 'latitude': 37.580304, 'longitude': -122.343679}",111 North Bridge Road,Peninsula Plaza #26-01,Singapore,37.580304,-122.343679,SGP
613517e17c85e5f861db6dcf,Firefly Energy,cleantech,"{'description': 'Firefly Energy, Inc.', 'address1': '6533 N. Galena Rd.', 'address2': '', 'zip_code': '61614', 'city': 'Peoria', 'state_code': 'IL', 'country_code': 'USA', 'latitude': 40.76652, 'longitude': -89.571813}",6533 N. Galena Rd.,,Peoria,40.76652,-89.571813,USA
613517e27c85e5f861db8709,GenVault,biotech,"{'description': 'Corporate Headquarters', 'address1': '6190 Corte Del Cedro', 'address2': '', 'zip_code': '92011-1515', 'city': 'Carlsbad', 'state_code': 'CA', 'country_code': 'USA', 'latitude': 33.123303, 'longitude': -117.271875}",6190 Corte Del Cedro,,Carlsbad,33.123303,-117.271875,USA
613517e27c85e5f861db88bc,Seahorse Bioscience,biotech,"{'description': 'HQ', 'address1': '16 Esquire Road', 'address2': '', 'zip_code': '01862', 'city': 'North Billerica', 'state_code': 'ME', 'country_code': 'USA', 'latitude': 42.56282, 'longitude': -71.304385}",16 Esquire Road,,North Billerica,42.56282,-71.304385,USA
613517e27c85e5f861db8264,Sangart,biotech,"{'description': '', 'address1': '6175 Lusk Blvd', 'address2': '', 'zip_code': '92121-2729', 'city': 'San Diego', 'state_code': 'CA', 'country_code': 'USA', 'latitude': 32.89929, 'longitude': -117.1948}",6175 Lusk Blvd,,San Diego,32.89929,-117.1948,USA
613517e27c85e5f861db889f,Vivendy Therapeutics,biotech,"{'description': '', 'address1': 'Peter Merian-Str. 45', 'address2': '', 'zip_code': 'CH-4052', 'city': 'Basel', 'state_code': None, 'country_code': 'CHE', 'latitude': 47.5474514, 'longitude': 7.5950107}",Peter Merian-Str. 45,,Basel,47.5474514,7.5950107,CHE
613517e17c85e5f861db638b,FlowPlay,games_video,"{'description': '', 'address1': '114 Alaskan Way South', 'address2': 'Ste. 100', 'zip_code': '98104', 'city': 'Seattle', 'state_code': 'WA', 'country_code': 'USA', 'latitude': 47.6015315, 'longitude': -122.335943}",114 Alaskan Way South,Ste. 100,Seattle,47.6015315,-122.335943,USA
613517e27c85e5f861db8686,Ultracell,cleantech,"{'description': '', 'address1': '399 Lindbergh Avenue', 'address2': '', 'zip_code': '94551', 'city': 'Livermore', 'state_code': 'CA', 'country_code': 'USA', 'latitude': 37.6974864, 'longitude': -121.8138788}",399 Lindbergh Avenue,,Livermore,37.6974864,-121.8138788,USA
613517e27c85e5f861db8687,Ultracell,cleantech,"{'description': '', 'address1': '3250 Old Springfield Road', 'address2': '', 'zip_code': '45377', 'city': 'Vandalia', 'state_code': 'OH', 'country_code': 'USA', 'latitude': 39.912944, 'longitude': -84.220287}",3250 Old Springfield Road,,Vandalia,39.912944,-84.220287,USA
613517e27c85e5f861db8770,Externautics,biotech,"{'description': '', 'address1': 'via Fiorentina 1', 'address2': '', 'zip_code': '53100', 'city': 'Siena', 'state_code': None, 'country_code': 'ITA', 'latitude': 43.3368952, 'longitude': 11.3075198}",via Fiorentina 1,,Siena,43.3368952,11.3075198,ITA
613517e27c85e5f861db85f0,Virgin Play,games_video,"{'description': 'Corporate Headquarters', 'address1': 'Paseo de la Castellana, 9-11', 'address2': '', 'zip_code': '28046', 'city': 'Madrid', 'state_code': None, 'country_code': 'ESP', 'latitude': 40.4273082, 'longitude': -3.6895115}","Paseo de la Castellana, 9-11",,Madrid,40.4273082,-3.6895115,ESP
613517e27c85e5f861db88b5,Anagnostics,biotech,"{'description': 'Anagnostics Bioanalysis', 'address1': 'WestbahnstraÃŸe 55', 'address2': '', 'zip_code': 'A-4300', 'city': 'St. Valentin', 'state_code': None, 'country_code': 'AUT', 'latitude': 48.3188574, 'longitude': 14.3080734}",WestbahnstraÃŸe 55,,St. Valentin,48.3188574,14.3080734,AUT
613517e17c85e5f861db7738,One Season,games_video,"{'description': '', 'address1': '', 'address2': '', 'zip_code': '', 'city': 'San Francisco', 'state_code': 'CA', 'country_code': 'USA', 'latitude': 37.775196, 'longitude': -122.419204}",,,San Francisco,37.775196,-122.419204,USA
613517e27c85e5f861db8714,Adaptive Ozone Solutions,cleantech,"{'description': '', 'address1': '7943 Flint Street', 'address2': '', 'zip_code': '66214', 'city': 'Lenexa', 'state_code': 'KS', 'country_code': 'USA', 'latitude': 38.984079, 'longitude': -94.715428}",7943 Flint Street,,Lenexa,38.984079,-94.715428,USA
613517e17c85e5f861db688a,Mytopia,games_video,"{'description': '', 'address1': '', 'address2': '', 'zip_code': '94301', 'city': 'Palo Alto', 'state_code': 'CA', 'country_code': 'USA', 'latitude': 34.007967, 'longitude': -118.489681}",,,Palo Alto,34.007967,-118.489681,USA
613517e27c85e5f861db8968,Deerpath Energy,cleantech,"{'description': '', 'address1': '30 Doaks Lane', 'address2': '', 'zip_code': '01945', 'city': 'Marblehead', 'state_code': 'MA', 'country_code': 'USA', 'latitude': 42.508619, 'longitude': -70.84422}",30 Doaks Lane,,Marblehead,42.508619,-70.84422,USA
613517e17c85e5f861db7f39,Comixology,games_video,"{'description': 'Main Office', 'address1': '159 West 25th Street 9th floor', 'address2': '', 'zip_code': '10010-4436', 'city': 'New York', 'state_code': 'NY', 'country_code': 'USA', 'latitude': 40.740512, 'longitude': -73.987794}",159 West 25th Street 9th floor,,New York,40.740512,-73.987794,USA
613517e27c85e5f861db843a,Arcxis Biotechnologies,biotech,"{'description': '', 'address1': '6920 Koll Center Parkway, Suite 215', 'address2': '', 'zip_code': '94566', 'city': 'Pleasanton', 'state_code': 'CA', 'country_code': 'USA', 'latitude': 37.6589038, 'longitude': -121.9011968}","6920 Koll Center Parkway, Suite 215",,Pleasanton,37.6589038,-121.9011968,USA
613517e17c85e5f861db7009,Fluid Entertainment,games_video,"{'description': 'Corporate Headquarters', 'address1': '16 Buena Vista Avenue', 'address2': '', 'zip_code': '94941', 'city': 'Mill Valley', 'state_code': 'CA', 'country_code': 'USA', 'latitude': 37.906966, 'longitude': -122.545763}",16 Buena Vista Avenue,,Mill Valley,37.906966,-122.545763,USA
613517e27c85e5f861db82af,AnySource Media,games_video,"{'description': 'Anysource Media, LLC', 'address1': '70 E. Swedesford Road Suite 120', 'address2': '', 'zip_code': '19355', 'city': 'Malvern', 'state_code': 'PA', 'country_code': 'USA', 'latitude': 40.054547, 'longitude': -75.515376}",70 E. Swedesford Road Suite 120,,Malvern,40.054547,-75.515376,USA
613517e27c85e5f861db843c,Fisher Coachworks,cleantech,"{'description': 'New Address:', 'address1': '14925 W. Eleven Mile Road', 'address2': '', 'zip_code': '48237', 'city': 'Oak Park', 'state_code': 'MI', 'country_code': 'USA', 'latitude': 42.487472, 'longitude': -83.197087}",14925 W. Eleven Mile Road,,Oak Park,42.487472,-83.197087,USA
613517e07c85e5f861db6194,CastTV,games_video,"{'description': None, 'address1': '374 Brannan St.', 'address2': None, 'zip_code': '94107', 'city': 'San Francisco', 'state_code': 'CA', 'country_code': 'USA', 'latitude': 37.780716, 'longitude': -122.393913}",374 Brannan St.,,San Francisco,37.780716,-122.393913,USA
613517e27c85e5f861db8718,Wakonda Technologies,cleantech,"{'description': '', 'address1': '2A Gill Street Woburn', 'address2': '', 'zip_code': '', 'city': 'Woburn', 'state_code': 'MA', 'country_code': 'USA', 'latitude': 42.5102913, 'longitude': -71.1474063}",2A Gill Street Woburn,,Woburn,42.5102913,-71.1474063,USA
613517e17c85e5f861db6a17,PluggedIn,games_video,"{'description': 'Corporate Headquarters', 'address1': '', 'address2': '', 'zip_code': '', 'city': 'Santa Monica', 'state_code': 'CA', 'country_code': 'USA', 'latitude': 34.007967, 'longitude': -118.489681}",,,Santa Monica,34.007967,-118.489681,USA
613517e17c85e5f861db7dbe,Wazoo Sports,games_video,"{'description': '', 'address1': 'P.O. Box 3289', 'address2': '', 'zip_code': '40743', 'city': 'London', 'state_code': 'KY', 'country_code': 'USA', 'latitude': 37.1286, 'longitude': -84.0834}",P.O. Box 3289,,London,37.1286,-84.0834,USA
613517e27c85e5f861db88ae,Eco Products,cleantech,"{'description': '', 'address1': '4755 Walnut St', 'address2': '', 'zip_code': '80301', 'city': 'Boulder', 'state_code': 'CO', 'country_code': 'USA', 'latitude': 40.019624, 'longitude': -105.240649}",4755 Walnut St,,Boulder,40.019624,-105.240649,USA
613517e27c85e5f861db88c0,Kylin Therapeutics,biotech,"{'description': 'HQ', 'address1': '3000 Kent Avenue', 'address2': '', 'zip_code': '47906', 'city': 'West Lafayette', 'state_code': 'IN', 'country_code': 'USA', 'latitude': 40.4653401, 'longitude': -86.9316959}",3000 Kent Avenue,,West Lafayette,40.4653401,-86.9316959,USA
613517e27c85e5f861db89bd,ERTH Technologies,cleantech,"{'description': '', 'address1': '7101 LaVista Place, Suite 100', 'address2': '', 'zip_code': '80503', 'city': 'Longmont', 'state_code': 'CO', 'country_code': 'USA', 'latitude': 40.093828, 'longitude': -105.187208}","7101 LaVista Place, Suite 100",,Longmont,40.093828,-105.187208,USA
613517e27c85e5f861db8a87,Roc2Loc,cleantech,"{'description': '', 'address1': '66 Mint Street, 3rd Floor', 'address2': '', 'zip_code': '94103', 'city': 'San Francisco', 'state_code': 'CA', 'country_code': 'USA', 'latitude': 37.782475, 'longitude': -122.407764}","66 Mint Street, 3rd Floor",,San Francisco,37.782475,-122.407764,USA
613517e27c85e5f861db86e8,ReliOn,cleantech,"{'description': 'Corporate Headquarters', 'address1': '15913 E. Euclid Ave.', 'address2': '', 'zip_code': '99216', 'city': 'Spokane', 'state_code': 'WA', 'country_code': 'USA', 'latitude': 47.6858186, 'longitude': -117.1920026}",15913 E. Euclid Ave.,,Spokane,47.6858186,-117.1920026,USA
613517e27c85e5f861db8703,WiTricity,cleantech,"{'description': 'HQ', 'address1': '149 Grove St.', 'address2': '', 'zip_code': '02472', 'city': 'Watertown', 'state_code': 'MA', 'country_code': 'USA', 'latitude': 42.36867, 'longitude': -71.150248}",149 Grove St.,,Watertown,42.36867,-71.150248,USA
613517e27c85e5f861db8712,ECORE International,cleantech,"{'description': '', 'address1': '715 Fountain Avenue', 'address2': 'PO Box 989', 'zip_code': '17601', 'city': 'Lancaster', 'state_code': 'PA', 'country_code': 'USA', 'latitude': 40.054099, 'longitude': -76.289191}",715 Fountain Avenue,PO Box 989,Lancaster,40.054099,-76.289191,USA
613517e27c85e5f861db87c7,KaloBios Pharmaceuticals,biotech,"{'description': '', 'address1': '260 East Grand Avenue', 'address2': '', 'zip_code': '94080', 'city': 'South San Francisco', 'state_code': 'CA', 'country_code': 'USA', 'latitude': 37.6534817, 'longitude': -122.3956474}",260 East Grand Avenue,,South San Francisco,37.6534817,-122.3956474,USA
613517e27c85e5f861db8b1d,Nexterra,cleantech,"{'description': 'Corporate Headquarters', 'address1': '650 West Georgia Street, Suite 1300', 'address2': '650 West Georgia Street, PO Box 11582', 'zip_code': 'V6B 4N8', 'city': 'Vancouver', 'state_code': None, 'country_code': 'CAN', 'latitude': 49.282159, 'longitude': -123.1176496}","650 West Georgia Street, Suite 1300","650 West Georgia Street, PO Box 11582",Vancouver,49.282159,-123.1176496,CAN
613517e17c85e5f861db652d,Kior,cleantech,"{'description': 'KiOR, Inc.', 'address1': '13001 Bay Park Road', 'address2': '', 'zip_code': '77507', 'city': 'Pasadena', 'state_code': 'TX', 'country_code': 'USA', 'latitude': 37.09024, 'longitude': -95.712891}",13001 Bay Park Road,,Pasadena,37.09024,-95.712891,USA
613517e27c85e5f861db8513,Elevance Renewable Sciences,cleantech,"{'description': 'Elevance Renewable', 'address1': '2501 Davey Road', 'address2': '', 'zip_code': '60517', 'city': 'Woodridge', 'state_code': 'IL', 'country_code': 'USA', 'latitude': 41.6750038, 'longitude': -88.0642145}",2501 Davey Road,,Woodridge,41.6750038,-88.0642145,USA
613517e27c85e5f861db8864,POINT Biomedical,biotech,"{'description': '', 'address1': '887L Industrial Road', 'address2': '', 'zip_code': '94070', 'city': 'San Carlos', 'state_code': 'CA', 'country_code': 'USA', 'latitude': 37.5062006, 'longitude': -122.2506373}",887L Industrial Road,,San Carlos,37.5062006,-122.2506373,USA
613517e27c85e5f861db8708,Aldagen,biotech,"{'description': '', 'address1': '2810 Meridian Parkway', 'address2': 'Suite 148', 'zip_code': '27713', 'city': 'Durham', 'state_code': 'NC', 'country_code': 'USA', 'latitude': 35.9134904, 'longitude': -78.8979393}",2810 Meridian Parkway,Suite 148,Durham,35.9134904,-78.8979393,USA
613517e27c85e5f861db86e9,Stromedix,biotech,"{'description': '', 'address1': 'One Canal Park', 'address2': 'Suite 1120', 'zip_code': '02141', 'city': 'Cambridge', 'state_code': 'MA', 'country_code': 'USA', 'latitude': 42.369496, 'longitude': -71.07676}",One Canal Park,Suite 1120,Cambridge,42.369496,-71.07676,USA
613517e27c85e5f861db881e,LifeBond,biotech,"{'description': None, 'address1': None, 'address2': None, 'zip_code': None, 'city': 'Caesarea', 'state_code': '', 'country_code': 'ISR', 'latitude': 32.519016, 'longitude': 34.904544}",,,Caesarea,32.519016,34.904544,ISR
613517e17c85e5f861db652c,GridPoint,cleantech,"{'description': 'HQ', 'address1': '2801 Clarendon Blvd. Suite 100', 'address2': '', 'zip_code': '22201', 'city': 'Arlington', 'state_code': 'VA', 'country_code': 'USA', 'latitude': 38.888107, 'longitude': -77.091562}",2801 Clarendon Blvd. Suite 100,,Arlington,38.888107,-77.091562,USA
613517e27c85e5f861db8881,OwnEnergy,cleantech,"{'description': 'HQ', 'address1': '45 Main Street, Suite 538', 'address2': '', 'zip_code': '11201', 'city': 'Brooklyn', 'state_code': 'NY', 'country_code': 'USA', 'latitude': 40.7028474, 'longitude': -73.9906813}","45 Main Street, Suite 538",,Brooklyn,40.7028474,-73.9906813,USA
613517e17c85e5f861db66a9,Raptr,games_video,"{'description': '', 'address1': '701 N Shoreline Blvd', 'address2': '', 'zip_code': '94043', 'city': 'Mountain View', 'state_code': 'CA', 'country_code': 'USA', 'latitude': 37.40384, 'longitude': -122.07808}",701 N Shoreline Blvd,,Mountain View,37.40384,-122.07808,USA
613517e27c85e5f861db871b,ACT Biotech,biotech,"{'description': '', 'address1': '717 Market Street', 'address2': 'Suite 650', 'zip_code': '94103-2103', 'city': 'San Francisco', 'state_code': 'CA', 'country_code': 'USA', 'latitude': 37.7871306, 'longitude': -122.4041075}",717 Market Street,Suite 650,San Francisco,37.7871306,-122.4041075,USA
613517e27c85e5f861db8abe,CPower,cleantech,"{'description': 'HQ', 'address1': '17 State Street', 'address2': '19th floor, Suite 1910', 'zip_code': '10004', 'city': 'New York', 'state_code': 'NY', 'country_code': 'USA', 'latitude': 40.756054, 'longitude': -73.986951}",17 State Street,"19th floor, Suite 1910",New York,40.756054,-73.986951,USA
613517e27c85e5f861db86ea,Blip,games_video,"{'description': 'Blip Studios', 'address1': '2501 Michigan Ave', 'address2': '', 'zip_code': '90404', 'city': 'Santa Monica', 'state_code': 'CA', 'country_code': 'USA', 'latitude': 34.0272246, 'longitude': -118.4682333}",2501 Michigan Ave,,Santa Monica,34.0272246,-118.4682333,USA
613517e17c85e5f861db6d58,Knowledge Adventure,games_video,"{'description': None, 'address1': '2377 Crenshaw Blvd.', 'address2': 'Suite 302', 'zip_code': '90501', 'city': 'Torrance', 'state_code': 'CA', 'country_code': 'USA', 'latitude': 33.8231, 'longitude': -118.328584}",2377 Crenshaw Blvd.,Suite 302,Torrance,33.8231,-118.328584,USA
613517e27c85e5f861db89e2,Solairedirect,cleantech,"{'description': 'Headquarters', 'address1': '85 boulevard Haussmann', 'address2': '', 'zip_code': '75008', 'city': 'Paris', 'state_code': None, 'country_code': 'FRA', 'latitude': 48.8745951, 'longitude': 2.3210737}",85 boulevard Haussmann,,Paris,48.8745951,2.3210737,FRA
613517e27c85e5f861db86ee,Inimex Pharmaceuticals,biotech,"{'description': '', 'address1': '8540 Baxter Place', 'address2': '', 'zip_code': 'V5A 4T8', 'city': 'Burnaby, B.C.', 'state_code': None, 'country_code': 'CAN', 'latitude': 49.2589767, 'longitude': -122.9150026}",8540 Baxter Place,,"Burnaby, B.C.",49.2589767,-122.9150026,CAN
613517e17c85e5f861db76c0,Lumenergi,cleantech,"{'description': '', 'address1': '8371 Central Avenue', 'address2': '', 'zip_code': '94560', 'city': 'Newark', 'state_code': 'CA', 'country_code': 'USA', 'latitude': 37.51821, 'longitude': -122.044025}",8371 Central Avenue,,Newark,37.51821,-122.044025,USA
613517e27c85e5f861db8a54,AltaRock Energy,cleantech,"{'description': 'Corporate Headquarters', 'address1': '7900 E Green Lake Drive N', 'address2': 'Suite 302', 'zip_code': '98103', 'city': 'Seattle', 'state_code': 'WA', 'country_code': 'USA', 'latitude': 47.6859295, 'longitude': -122.3373282}",7900 E Green Lake Drive N,Suite 302,Seattle,47.6859295,-122.3373282,USA
613517e27c85e5f861db8a55,AltaRock Energy,cleantech,"{'description': '', 'address1': '', 'address2': '', 'zip_code': '', 'city': 'Seattle', 'state_code': 'WA', 'country_code': 'USA', 'latitude': 47.620973, 'longitude': -122.347276}",,,Seattle,47.620973,-122.347276,USA
613517e07c85e5f861db619d,MeeVee,games_video,"{'description': None, 'address1': '500 Airport Blvd., Suite 400', 'address2': None, 'zip_code': '94010', 'city': 'Burlingame', 'state_code': 'CA', 'country_code': 'USA', 'latitude': 37.590339, 'longitude': -122.341715}","500 Airport Blvd., Suite 400",,Burlingame,37.590339,-122.341715,USA
613517e17c85e5f861db6985,Velocix,games_video,"{'description': 'New York Office', 'address1': '1230 Avenue of the Americas', 'address2': '', 'zip_code': '10020', 'city': 'New York', 'state_code': 'NY', 'country_code': 'USA', 'latitude': 40.758504, 'longitude': -73.980068}",1230 Avenue of the Americas,,New York,40.758504,-73.980068,USA
613517e27c85e5f861db83c5,Orthocon,biotech,"{'description': '', 'address1': '675 US Highway One', 'address2': '', 'zip_code': '08902', 'city': 'New Brunswick', 'state_code': 'NJ', 'country_code': 'USA', 'latitude': 40.456124, 'longitude': -74.462469}",675 US Highway One,,New Brunswick,40.456124,-74.462469,USA
613517e27c85e5f861db8975,Nektar Therapeutics,biotech,"{'description': 'Corporate Headquarters', 'address1': '201 Industrial Road', 'address2': '', 'zip_code': '94070', 'city': 'San Carlos', 'state_code': 'CA', 'country_code': 'USA', 'latitude': 37.519102, 'longitude': -122.264348}",201 Industrial Road,,San Carlos,37.519102,-122.264348,USA
613517e17c85e5f861db652a,HelioVolt,cleantech,"{'description': None, 'address1': '8201 E. Riverside Dr. Suite 600', 'address2': None, 'zip_code': '78744-1604', 'city': 'Austin', 'state_code': 'TX', 'country_code': 'USA', 'latitude': 30.216908, 'longitude': -97.685078}",8201 E. Riverside Dr. Suite 600,,Austin,30.216908,-97.685078,USA
613517e27c85e5f861db874c,Solar Power Partners,cleantech,"{'description': '', 'address1': '100 Shoreline Highway', 'address2': 'Suite 210 Bldg B', 'zip_code': '94941', 'city': 'Mill Valley', 'state_code': 'CA', 'country_code': 'USA', 'latitude': 37.8794841, 'longitude': -122.5150765}",100 Shoreline Highway,Suite 210 Bldg B,Mill Valley,37.8794841,-122.5150765,USA
613517e27c85e5f861db85de,Redfern Integrated Optics,cleantech,"{'description': 'RIO, Inc.', 'address1': '3350 Scott Blvd.', 'address2': 'Bldg.62', 'zip_code': '95054', 'city': 'Santa Clara', 'state_code': 'CA', 'country_code': 'USA', 'latitude': 37.380364, 'longitude': -121.9823779}",3350 Scott Blvd.,Bldg.62,Santa Clara,37.380364,-121.9823779,USA
613517e07c85e5f861db6184,AdaptiveBlue,games_video,"{'description': '', 'address1': '131 Varick St', 'address2': '', 'zip_code': '10013', 'city': 'NYC', 'state_code': 'NY', 'country_code': 'USA', 'latitude': 40.801358, 'longitude': -74.3372}",131 Varick St,,NYC,40.801358,-74.3372,USA
613517e27c85e5f861db88ca,MIOX,cleantech,"{'description': '', 'address1': '5601 Balloon Fiesta Parkway NE', 'address2': '', 'zip_code': '87113', 'city': 'Albuquerque', 'state_code': 'NM', 'country_code': 'USA', 'latitude': 35.199874, 'longitude': -106.582494}",5601 Balloon Fiesta Parkway NE,,Albuquerque,35.199874,-106.582494,USA
613517e27c85e5f861db8735,Anaphore,biotech,"{'description': '', 'address1': '10931 North Torrey Pines Road', 'address2': 'Suite 101', 'zip_code': '92037', 'city': 'La Jolla', 'state_code': 'CA', 'country_code': 'USA', 'latitude': 32.89892, 'longitude': -117.242961}",10931 North Torrey Pines Road,Suite 101,La Jolla,32.89892,-117.242961,USA
613517e27c85e5f861db884b,Cervilenz,biotech,"{'description': 'Corporate Headquarters', 'address1': '100 N. Main St.', 'address2': 'Ste. 300', 'zip_code': '44022', 'city': 'Chagrin Falls', 'state_code': 'OH', 'country_code': 'USA', 'latitude': 41.4225841, 'longitude': -81.3857728}",100 N. Main St.,Ste. 300,Chagrin Falls,41.4225841,-81.3857728,USA
613517e27c85e5f861db891f,Molecular Templates,biotech,"{'description': 'MTI', 'address1': '', 'address2': '', 'zip_code': '', 'city': 'Austin', 'state_code': 'TX', 'country_code': 'USA', 'latitude': 30.268735, 'longitude': -97.745209}",,,Austin,30.268735,-97.745209,USA
613517e27c85e5f861db8974,Pearl Therapeutics,biotech,"{'description': 'Corporate Headquarters', 'address1': '200 Saginaw Drive', 'address2': '', 'zip_code': '94063', 'city': 'Redwood City', 'state_code': 'CA', 'country_code': 'USA', 'latitude': 37.502169, 'longitude': -122.217727}",200 Saginaw Drive,,Redwood City,37.502169,-122.217727,USA
613517e17c85e5f861db6659,Netflix,games_video,"{'description': None, 'address1': '100 Winchester Circle', 'address2': '', 'zip_code': '95032', 'city': 'Los Gatos', 'state_code': 'CA', 'country_code': 'USA', 'latitude': 37.25142, 'longitude': -121.968687}",100 Winchester Circle,,Los Gatos,37.25142,-121.968687,USA
613517e27c85e5f861db8969,Zymeworks,biotech,"{'description': 'HQ', 'address1': '540-1385 West 8th Avenue', 'address2': '', 'zip_code': 'V6H 3V9', 'city': 'Vancouver,BC', 'state_code': None, 'country_code': 'CAN', 'latitude': 49.2644563, 'longitude': -123.1356715}",540-1385 West 8th Avenue,,"Vancouver,BC",49.2644563,-123.1356715,CAN
613517e07c85e5f861db616b,Kyte,games_video,"{'description': None, 'address1': '442 Post Street', 'address2': '10th Floor', 'zip_code': '94102', 'city': 'San Francisco', 'state_code': 'CA', 'country_code': 'USA', 'latitude': 37.788482, 'longitude': -122.409173}",442 Post Street,10th Floor,San Francisco,37.788482,-122.409173,USA
613517e17c85e5f861db655e,Outspark,games_video,"{'description': None, 'address1': None, 'address2': None, 'zip_code': None, 'city': 'San Francisco', 'state_code': 'CA', 'country_code': 'USA', 'latitude': 37.775196, 'longitude': -122.419204}",,,San Francisco,37.775196,-122.419204,USA
613517e17c85e5f861db7cbe,IMT (Innovative Micro Technology),biotech,"{'description': '', 'address1': '75 robin hill road', 'address2': '', 'zip_code': '93117', 'city': 'Santa Barbara', 'state_code': 'CA', 'country_code': 'USA', 'latitude': 34.4356217, 'longitude': -119.8462682}",75 robin hill road,,Santa Barbara,34.4356217,-119.8462682,USA
613517e27c85e5f861db839c,Suniva,cleantech,"{'description': 'Headquaters', 'address1': '5775 Peachtree Industrial Blvd.', 'address2': '', 'zip_code': '30092', 'city': 'Norcross', 'state_code': 'GA', 'country_code': 'USA', 'latitude': 33.954713, 'longitude': -84.2213281}",5775 Peachtree Industrial Blvd.,,Norcross,33.954713,-84.2213281,USA
613517e27c85e5f861db8a3f,PopCap Games,games_video,"{'description': '', 'address1': '2401 4th Ave', 'address2': 'Suite 810', 'zip_code': '98121', 'city': 'Seattle', 'state_code': 'WA', 'country_code': 'USA', 'latitude': 47.6161693, 'longitude': -122.3451897}",2401 4th Ave,Suite 810,Seattle,47.6161693,-122.3451897,USA
613517e17c85e5f861db70d7,GenArts,games_video,"{'description': 'Corporate Headquarters', 'address1': '955 Massachusetts Ave', 'address2': '', 'zip_code': '02139', 'city': 'Cambridge', 'state_code': 'MA', 'country_code': 'USA', 'latitude': 42.369007, 'longitude': -71.110276}",955 Massachusetts Ave,,Cambridge,42.369007,-71.110276,USA
613517e27c85e5f861db8707,CAPNIA,biotech,"{'description': '', 'address1': '2445 Faber Place', 'address2': 'Suite 250', 'zip_code': '94303', 'city': 'Palo Alto', 'state_code': 'CA', 'country_code': 'USA', 'latitude': 37.4503251, 'longitude': -122.1164954}",2445 Faber Place,Suite 250,Palo Alto,37.4503251,-122.1164954,USA
613517e17c85e5f861db67f6,Playfish,games_video,"{'description': 'Corporate Headquarters', 'address1': '125 Kensington High St', 'address2': 'W8 5SF', 'zip_code': 'London', 'city': 'London', 'state_code': None, 'country_code': 'GBR', 'latitude': 51.4991094, 'longitude': -0.1984802}",125 Kensington High St,W8 5SF,London,51.4991094,-0.1984802,GBR
613517e17c85e5f861db67f7,Playfish,games_video,"{'description': 'Playfish Arctic', 'address1': 'Strandvn. 106', 'address2': '', 'zip_code': '9291', 'city': 'TromsÃ¸', 'state_code': None, 'country_code': 'NOR', 'latitude': 69.636216, 'longitude': 18.931062}",Strandvn. 106,,TromsÃ¸,69.636216,18.931062,NOR
613517e27c85e5f861db891a,Palyon Medical,biotech,"{'description': 'Palyon Medical', 'address1': '250 w 57th Street suite 2707', 'address2': '', 'zip_code': '10107', 'city': 'New York', 'state_code': 'NY', 'country_code': 'USA', 'latitude': 40.756054, 'longitude': -73.986951}",250 w 57th Street suite 2707,,New York,40.756054,-73.986951,USA
613517e17c85e5f861db7787,SolFocus,cleantech,"{'description': '', 'address1': '1841 Zanker Road', 'address2': '', 'zip_code': '95112', 'city': 'San Jose', 'state_code': 'CA', 'country_code': 'USA', 'latitude': 37.3987372, 'longitude': -122.0497918}",1841 Zanker Road,,San Jose,37.3987372,-122.0497918,USA
613517e17c85e5f861db6f71,Mediastay,games_video,"{'description': 'MEDIASTAY SAS', 'address1': '45 rue Jean Jaures', 'address2': '', 'zip_code': '92300', 'city': 'Levallois Perret', 'state_code': None, 'country_code': 'FRA', 'latitude': 48.891494, 'longitude': 2.292728}",45 rue Jean Jaures,,Levallois Perret,48.891494,2.292728,FRA
613517e27c85e5f861db896a,HaloSource,cleantech,"{'description': '', 'address1': '1631 220th Street SE', 'address2': '', 'zip_code': '98021', 'city': 'Bothell', 'state_code': 'WA', 'country_code': 'USA', 'latitude': 47.799279, 'longitude': -122.210048}",1631 220th Street SE,,Bothell,47.799279,-122.210048,USA
613517e27c85e5f861db8853,Optimum Energy,cleantech,"{'description': 'Seattle Headquarters', 'address1': '411 First Avenue South', 'address2': 'Suite 620', 'zip_code': '98104', 'city': 'Seattle', 'state_code': 'WA', 'country_code': 'USA', 'latitude': 47.598657, 'longitude': -122.334614}",411 First Avenue South,Suite 620,Seattle,47.598657,-122.334614,USA
613517e27c85e5f861db8854,Optimum Energy,cleantech,"{'description': 'San Diego office', 'address1': '6050 Santo Rd', 'address2': 'Suite 140', 'zip_code': '92124', 'city': 'San Diego', 'state_code': 'CA', 'country_code': 'USA', 'latitude': 32.8386414, 'longitude': -117.098216}",6050 Santo Rd,Suite 140,San Diego,32.8386414,-117.098216,USA
613517e27c85e5f861db8855,Optimum Energy,cleantech,"{'description': 'New York office', 'address1': '1370 Broadway', 'address2': 'Suite 503', 'zip_code': '10018', 'city': 'New York', 'state_code': 'NY', 'country_code': 'USA', 'latitude': 40.7518919, 'longitude': -73.9875922}",1370 Broadway,Suite 503,New York,40.7518919,-73.9875922,USA
613517e27c85e5f861db83fd,iZumi Bio,biotech,"{'description': '', 'address1': '951 Gateway Blvd.', 'address2': '', 'zip_code': '94080', 'city': 'South San Francisco', 'state_code': 'CA', 'country_code': 'USA', 'latitude': 37.661523, 'longitude': -122.398667}",951 Gateway Blvd.,,South San Francisco,37.661523,-122.398667,USA
613517e27c85e5f861db8863,Greenline Industries,cleantech,"{'description': 'Headquarters', 'address1': '2425 Larkspur Landing Circle', 'address2': '', 'zip_code': '94939', 'city': 'Larkspur', 'state_code': 'CA', 'country_code': 'USA', 'latitude': 37.9471709, 'longitude': -122.5071031}",2425 Larkspur Landing Circle,,Larkspur,37.9471709,-122.5071031,USA
613517e27c85e5f861db88b8,Natrix Separations,cleantech,"{'description': 'Corporate Headquarters', 'address1': '5295 John Lucas Drive, Unit 6', 'address2': 'Burlington', 'zip_code': 'L7L 6A8', 'city': 'Ontario', 'state_code': None, 'country_code': 'CAN', 'latitude': 43.3934803, 'longitude': -79.7695631}","5295 John Lucas Drive, Unit 6",Burlington,Ontario,43.3934803,-79.7695631,CAN
613517e27c85e5f861db87f8,Healionics,biotech,"{'description': '', 'address1': '14787 NE 95th Street', 'address2': '', 'zip_code': '98052', 'city': 'Redmond', 'state_code': 'WA', 'country_code': 'USA', 'latitude': 47.684556, 'longitude': -122.143748}",14787 NE 95th Street,,Redmond,47.684556,-122.143748,USA
613517e27c85e5f861db88db,Microstim,biotech,"{'description': '', 'address1': 'Maria-Goeppert-StraÃŸe 1', 'address2': '', 'zip_code': '23562', 'city': 'LÃ¼beck', 'state_code': None, 'country_code': 'DEU', 'latitude': 53.8353585, 'longitude': 10.6976787}",Maria-Goeppert-StraÃŸe 1,,LÃ¼beck,53.8353585,10.6976787,DEU
613517e17c85e5f861db63f0,Graspr,games_video,"{'description': '', 'address1': '779 E Evelyn Ave, Suite D', 'address2': '', 'zip_code': '94041', 'city': 'Mountain View', 'state_code': 'CA', 'country_code': 'USA', 'latitude': 37.384919, 'longitude': -122.053175}","779 E Evelyn Ave, Suite D",,Mountain View,37.384919,-122.053175,USA
613517e17c85e5f861db6966,groSolar,cleantech,"{'description': 'Corporate Headquarters', 'address1': '601 Old River Road Suite 3', 'address2': '', 'zip_code': '05001', 'city': 'White River', 'state_code': 'VT', 'country_code': 'USA', 'latitude': 43.662181, 'longitude': -72.352081}",601 Old River Road Suite 3,,White River,43.662181,-72.352081,USA
613517e27c85e5f861db868c,PlexPress,biotech,"{'description': '', 'address1': 'Viikinkaari 6', 'address2': '', 'zip_code': '', 'city': '00790 Helsinki', 'state_code': None, 'country_code': 'FIN', 'latitude': 60.2268115, 'longitude': 25.014409}",Viikinkaari 6,,00790 Helsinki,60.2268115,25.014409,FIN
613517e27c85e5f861db868d,PlexPress,biotech,"{'description': '', 'address1': '1660 Belvoir Dr.', 'address2': '', 'zip_code': '94024', 'city': 'Los Altos', 'state_code': 'CA', 'country_code': 'USA', 'latitude': 37.349392, 'longitude': -122.087208}",1660 Belvoir Dr.,,Los Altos,37.349392,-122.087208,USA
613517e27c85e5f861db874f,Senergen Devices,cleantech,"{'description': '', 'address1': '45500 Northport Loop West', 'address2': '', 'zip_code': '94538', 'city': 'Fremont', 'state_code': 'CA', 'country_code': 'USA', 'latitude': 37.4930499, 'longitude': -121.9557248}",45500 Northport Loop West,,Fremont,37.4930499,-121.9557248,USA
613517e27c85e5f861db88bf,Iconic Therapeutics,biotech,"{'description': 'HQ', 'address1': '127 Peachtree Street, N.E.,', 'address2': 'Suite 1551', 'zip_code': '30303', 'city': 'Atlanta', 'state_code': 'GA', 'country_code': 'USA', 'latitude': 33.756855, 'longitude': -84.387899}","127 Peachtree Street, N.E.,",Suite 1551,Atlanta,33.756855,-84.387899,USA
613517e17c85e5f861db71af,Anvato,games_video,"{'description': 'Corporate Headquarters', 'address1': '465 N. Whisman Road', 'address2': 'Suite 600', 'zip_code': '94043', 'city': 'Mountain View', 'state_code': 'CA', 'country_code': 'USA', 'latitude': 37.400689, 'longitude': -122.0572}",465 N. Whisman Road,Suite 600,Mountain View,37.400689,-122.0572,USA
613517e27c85e5f861db8657,Bubbles and Beyond,biotech,"{'description': '', 'address1': 'Karl-Heine-Strasse 99', 'address2': '', 'zip_code': '04229', 'city': 'Leipzig', 'state_code': None, 'country_code': 'DEU', 'latitude': 51.3296737, 'longitude': 12.3274318}",Karl-Heine-Strasse 99,,Leipzig,51.3296737,12.3274318,DEU
613517e27c85e5f861db88be,Proxeon,biotech,"{'description': 'Proxeon', 'address1': 'Edisonsvej 4', 'address2': '', 'zip_code': 'DK-5000', 'city': 'Odense C', 'state_code': None, 'country_code': 'DNK', 'latitude': 55.4058282, 'longitude': 10.3882064}",Edisonsvej 4,,Odense C,55.4058282,10.3882064,DNK
613517e17c85e5f861db795e,Planet Metrics,cleantech,"{'description': '', 'address1': '1111 Bayhill Drive,', 'address2': '#255', 'zip_code': '94066', 'city': 'San Bruno', 'state_code': 'CA', 'country_code': 'USA', 'latitude': 37.628328, 'longitude': -122.420814}","1111 Bayhill Drive,",#255,San Bruno,37.628328,-122.420814,USA
613517e17c85e5f861db8092,whistleBox,games_video,"{'description': '', 'address1': '80 North 7th Street', 'address2': '', 'zip_code': '11211', 'city': 'Brooklyn', 'state_code': 'NY', 'country_code': 'USA', 'latitude': 40.7197125, 'longitude': -73.9607545}",80 North 7th Street,,Brooklyn,40.7197125,-73.9607545,USA
613517e27c85e5f861db8730,Sprig Toys,cleantech,"{'description': '', 'address1': '321 Maple Street', 'address2': '', 'zip_code': '80521', 'city': 'Fort Collins', 'state_code': 'CO', 'country_code': 'USA', 'latitude': 40.5908212, 'longitude': -105.0809963}",321 Maple Street,,Fort Collins,40.5908212,-105.0809963,USA
613517e27c85e5f861db89be,Principle Power,cleantech,"{'description': '', 'address1': '93 S. Jackson Street #63650', 'address2': '', 'zip_code': '98104', 'city': 'Seattle', 'state_code': 'WA', 'country_code': 'USA', 'latitude': 47.5992095, 'longitude': -122.3343564}",93 S. Jackson Street #63650,,Seattle,47.5992095,-122.3343564,USA
613517e27c85e5f861db88c1,Agrisoma Biosciences,biotech,"{'description': 'HQ', 'address1': '220-980 West 1st Street', 'address2': '', 'zip_code': 'BC V7P 3N4', 'city': 'North Vancouver', 'state_code': None, 'country_code': 'CAN', 'latitude': 49.3181212, 'longitude': -123.1017318}",220-980 West 1st Street,,North Vancouver,49.3181212,-123.1017318,CAN
613517e17c85e5f861db639b,ChessPark,games_video,"{'description': None, 'address1': None, 'address2': None, 'zip_code': None, 'city': 'West Palm Beach', 'state_code': 'CA', 'country_code': 'USA', 'latitude': 43.67084, 'longitude': -83.913153}",,,West Palm Beach,43.67084,-83.913153,USA
613517e17c85e5f861db6597,WorldTV,games_video,"{'description': 'Irish Office', 'address1': '', 'address2': '', 'zip_code': '', 'city': 'Limerick', 'state_code': None, 'country_code': 'IRL', 'latitude': 52.6638571, 'longitude': -8.6267726}",,,Limerick,52.6638571,-8.6267726,IRL
613517e17c85e5f861db6598,WorldTV,games_video,"{'description': 'London Office', 'address1': '', 'address2': '', 'zip_code': '', 'city': 'London', 'state_code': None, 'country_code': 'GBR', 'latitude': 51.5001524, 'longitude': -0.1262362}",,,London,51.5001524,-0.1262362,GBR
613517e17c85e5f861db6858,XIHA,games_video,"{'description': '', 'address1': 'Mannerheimintie 12 B', 'address2': '5th floor', 'zip_code': '00100', 'city': 'Helsinki', 'state_code': None, 'country_code': 'FIN', 'latitude': 60.1681494, 'longitude': 24.9410012}",Mannerheimintie 12 B,5th floor,Helsinki,60.1681494,24.9410012,FIN
613517e17c85e5f861db68a3,ibeatyou,games_video,"{'description': '', 'address1': '', 'address2': '', 'zip_code': '90408', 'city': 'Santa Monica', 'state_code': 'CA', 'country_code': 'USA', 'latitude': 34.0195, 'longitude': -118.4906}",,,Santa Monica,34.0195,-118.4906,USA
613517e17c85e5f861db697c,Vivity Labs,games_video,"{'description': '', 'address1': '21 Water Street', 'address2': '', 'zip_code': 'V6B 1A1', 'city': 'Vancouver', 'state_code': None, 'country_code': 'CAN', 'latitude': 49.282249, 'longitude': -123.108456}",21 Water Street,,Vancouver,49.282249,-123.108456,CAN
613517e17c85e5f861db6df9,Titan Gaming,games_video,"{'description': 'Santa Monica Office', 'address1': '1351 4th Street, 4th floor', 'address2': '', 'zip_code': '90401', 'city': 'Santa Monica', 'state_code': 'CA', 'country_code': 'USA', 'latitude': 53.544711, 'longitude': -113.515769}","1351 4th Street, 4th floor",,Santa Monica,53.544711,-113.515769,USA
613517e17c85e5f861db700a,Numedeon,games_video,"{'description': '', 'address1': '417 Associated Rd', 'address2': '#324', 'zip_code': '92821', 'city': 'Brea', 'state_code': 'CA', 'country_code': 'USA', 'latitude': 33.9133208, 'longitude': -117.8789031}",417 Associated Rd,#324,Brea,33.9133208,-117.8789031,USA
613517e17c85e5f861db76e1,Radio One Llama,games_video,"{'description': '', 'address1': '', 'address2': '', 'zip_code': '', 'city': 'Champaign', 'state_code': 'IL', 'country_code': 'USA', 'latitude': 40.1128, 'longitude': -88.271074}",,,Champaign,40.1128,-88.271074,USA
613517e17c85e5f861db77db,GotGame,games_video,"{'description': 'GotGame HQ', 'address1': '1 Bluxome Place', 'address2': 'Suite 204', 'zip_code': '94107', 'city': 'San Francisco', 'state_code': 'CA', 'country_code': 'USA', 'latitude': 37.77772, 'longitude': -122.395785}",1 Bluxome Place,Suite 204,San Francisco,37.77772,-122.395785,USA
613517e17c85e5f861db7c77,MyOtherDrive,games_video,"{'description': 'HeadQuarters', 'address1': '130 W 2nd Street', 'address2': 'Suite 999', 'zip_code': '45402', 'city': 'Dayton', 'state_code': 'OH', 'country_code': 'USA', 'latitude': 39.7605421, 'longitude': -84.1949463}",130 W 2nd Street,Suite 999,Dayton,39.7605421,-84.1949463,USA
613517e17c85e5f861db812a,BASH Gaming,games_video,"{'description': 'US Office', 'address1': '', 'address2': '', 'zip_code': '94555', 'city': 'Fremont', 'state_code': 'CA', 'country_code': 'USA', 'latitude': 37.5561712, 'longitude': -122.0780632}",,,Fremont,37.5561712,-122.0780632,USA
613517e17c85e5f861db812b,BASH Gaming,games_video,"{'description': 'India Office', 'address1': '', 'address2': '', 'zip_code': '', 'city': 'Bangalore', 'state_code': None, 'country_code': 'IND', 'latitude': 12.971606, 'longitude': 77.594376}",,,Bangalore,12.971606,77.594376,IND
613517e27c85e5f861db883b,Quintiles,biotech,"{'description': '', 'address1': '1701 Directors Boulevard Suite 730', 'address2': '', 'zip_code': '78744', 'city': 'Austin', 'state_code': 'TX', 'country_code': 'USA', 'latitude': 30.213039, 'longitude': -97.751754}",1701 Directors Boulevard Suite 730,,Austin,30.213039,-97.751754,USA
613517e17c85e5f861db62b7,Kongregate,games_video,"{'description': '', 'address1': '2 Shaw Alley', 'address2': '4th Floor', 'zip_code': '94105', 'city': 'San Francisco', 'state_code': 'CA', 'country_code': 'USA', 'latitude': 37.786942, 'longitude': -122.401245}",2 Shaw Alley,4th Floor,San Francisco,37.786942,-122.401245,USA
613517e17c85e5f861db696b,eSolar,cleantech,"{'description': None, 'address1': '130 West Union Street', 'address2': '', 'zip_code': '91103', 'city': 'Pasadena', 'state_code': 'CA', 'country_code': 'USA', 'latitude': 34.146436, 'longitude': -118.153136}",130 West Union Street,,Pasadena,34.146436,-118.153136,USA
613517e27c85e5f861db8894,Anacor Pharmaceutical,biotech,"{'description': 'HQ', 'address1': '1020 East Meadow Circle', 'address2': '', 'zip_code': '94303-4230', 'city': 'Palo Alto', 'state_code': 'CA', 'country_code': 'USA', 'latitude': 37.431409, 'longitude': -122.10649}",1020 East Meadow Circle,,Palo Alto,37.431409,-122.10649,USA
613517e27c85e5f861db86b5,Competitive Power Ventures,cleantech,"{'description': 'Headquarters', 'address1': '8403 Colesville Road', 'address2': 'Suite 915', 'zip_code': '20910', 'city': 'Silver Spring', 'state_code': 'MD', 'country_code': 'USA', 'latitude': 38.9945752, 'longitude': -77.0307225}",8403 Colesville Road,Suite 915,Silver Spring,38.9945752,-77.0307225,USA
613517e17c85e5f861db64d3,Kewego,games_video,"{'description': 'HQ', 'address1': '111, rue Cardinet', 'address2': '', 'zip_code': '75017', 'city': 'Paris', 'state_code': None, 'country_code': 'FRA', 'latitude': 46.227638, 'longitude': 2.213749}","111, rue Cardinet",,Paris,46.227638,2.213749,FRA
613517e17c85e5f861db6c3e,Moblyng,games_video,"{'description': '', 'address1': '901 Marshall St. #125', 'address2': '', 'zip_code': '94063', 'city': 'Redwood City', 'state_code': 'CA', 'country_code': 'USA', 'latitude': 37.453665, 'longitude': -122.229069}",901 Marshall St. #125,,Redwood City,37.453665,-122.229069,USA
613517e07c85e5f861db619c,Funny Or Die,games_video,"{'description': 'Head Quarters', 'address1': '167 2nd Ave', 'address2': '', 'zip_code': '94401', 'city': 'San Mateo', 'state_code': 'CA', 'country_code': 'USA', 'latitude': 37.421621, 'longitude': -122.137444}",167 2nd Ave,,San Mateo,37.421621,-122.137444,USA
613517e27c85e5f861db86b7,Soliant Energy,cleantech,"{'description': '', 'address1': '717 S Myrtle Ave', 'address2': '', 'zip_code': '91016', 'city': 'Monrovia', 'state_code': 'CA', 'country_code': 'USA', 'latitude': 34.144014, 'longitude': -118.001268}",717 S Myrtle Ave,,Monrovia,34.144014,-118.001268,USA
613517e27c85e5f861db87ab,Innovative Spinal Technologies,biotech,"{'description': 'HQ', 'address1': '2745 North Dallas Parkway, Suite 460', 'address2': '', 'zip_code': '75093', 'city': 'Plano', 'state_code': 'TX', 'country_code': 'USA', 'latitude': 33.0382884, 'longitude': -96.8300836}","2745 North Dallas Parkway, Suite 460",,Plano,33.0382884,-96.8300836,USA
613517e27c85e5f861db87ac,Innovative Spinal Technologies,biotech,"{'description': 'MA 02048', 'address1': '111 Forbes Boulevard', 'address2': '', 'zip_code': '02048', 'city': 'Mansfield, MA', 'state_code': 'MD', 'country_code': 'USA', 'latitude': 42.030266, 'longitude': -71.2392}",111 Forbes Boulevard,,"Mansfield, MA",42.030266,-71.2392,USA
613517e27c85e5f861db882f,ViOptix,biotech,"{'description': 'HQ', 'address1': '47224 Mission Falls Ct.', 'address2': '', 'zip_code': '94539', 'city': 'Fremont', 'state_code': 'CA', 'country_code': 'USA', 'latitude': 37.4835082, 'longitude': -121.9279627}",47224 Mission Falls Ct.,,Fremont,37.4835082,-121.9279627,USA
613517e27c85e5f861db8713,Range Fuels,cleantech,"{'description': '', 'address1': '11101 W. 120th Avenue, Suite 200', 'address2': '', 'zip_code': '80021', 'city': 'Broomfield', 'state_code': 'CO', 'country_code': 'USA', 'latitude': 39.915572, 'longitude': -105.122053}","11101 W. 120th Avenue, Suite 200",,Broomfield,39.915572,-105.122053,USA
613517e27c85e5f861db88b2,SolarReserve,cleantech,"{'description': 'Corporate Headquarter', 'address1': '2425 Olympic Blvd.', 'address2': 'Suite 500 East', 'zip_code': '90404', 'city': 'Santa Monica', 'state_code': 'CA', 'country_code': 'USA', 'latitude': 34.028173, 'longitude': -118.471235}",2425 Olympic Blvd.,Suite 500 East,Santa Monica,34.028173,-118.471235,USA
613517e27c85e5f861db859e,Helpful Technologies,cleantech,"{'description': 'Software Group', 'address1': '', 'address2': '', 'zip_code': '33309', 'city': 'Ft. Lauderdale', 'state_code': 'FL', 'country_code': 'USA', 'latitude': 26.2032036, 'longitude': -80.1510951}",,,Ft. Lauderdale,26.2032036,-80.1510951,USA
613517e27c85e5f861db871d,Innovative Biosensors,biotech,"{'description': '', 'address1': '15601 Crabbs Branch Way', 'address2': '', 'zip_code': '20855', 'city': 'Rockville', 'state_code': 'MD', 'country_code': 'USA', 'latitude': 39.110655, 'longitude': -77.154466}",15601 Crabbs Branch Way,,Rockville,39.110655,-77.154466,USA
613517e17c85e5f861db7ee7,NetStreams,games_video,"{'description': '', 'address1': '3600 W. Parmer Lane', 'address2': 'Suite 100', 'zip_code': '78727', 'city': 'Austin', 'state_code': 'TX', 'country_code': 'USA', 'latitude': 30.424305, 'longitude': -97.709981}",3600 W. Parmer Lane,Suite 100,Austin,30.424305,-97.709981,USA
613517e27c85e5f861db831a,ZillionTV,games_video,"{'description': 'Corporate Office', 'address1': '1170 Kifer Road', 'address2': '', 'zip_code': '94086', 'city': 'Sunnyvale', 'state_code': 'CA', 'country_code': 'USA', 'latitude': 37.3738725, 'longitude': -121.9973546}",1170 Kifer Road,,Sunnyvale,37.3738725,-121.9973546,USA
613517e27c85e5f861db831b,ZillionTV,games_video,"{'description': '', 'address1': '100 Wilshire Blvd.', 'address2': 'Suite 750', 'zip_code': '90401', 'city': 'Santa Monica', 'state_code': 'CA', 'country_code': 'USA', 'latitude': 34.016838, 'longitude': -118.500603}",100 Wilshire Blvd.,Suite 750,Santa Monica,34.016838,-118.500603,USA
613517e17c85e5f861db792b,Verismo Networks,games_video,"{'description': '', 'address1': '1451 Grant Road #200', 'address2': '', 'zip_code': '94040', 'city': 'Mountain View', 'state_code': 'CA', 'country_code': 'USA', 'latitude': 37.3874345, 'longitude': -122.051793}",1451 Grant Road #200,,Mountain View,37.3874345,-122.051793,USA
613517e27c85e5f861db8569,SkyFuel,cleantech,"{'description': 'SkyFuel Headquarters', 'address1': '18300 West Highway 72', 'address2': '', 'zip_code': '80007', 'city': 'Arvada', 'state_code': 'CO', 'country_code': 'USA', 'latitude': 39.862942, 'longitude': -105.206509}",18300 West Highway 72,,Arvada,39.862942,-105.206509,USA
613517e27c85e5f861db89cd,Inspire Medical Systems,biotech,"{'description': 'Headquarters', 'address1': '9700 63rd Ave No', 'address2': 'Suite 200', 'zip_code': '55369', 'city': 'Maple Grove', 'state_code': 'MN', 'country_code': 'USA', 'latitude': 45.069344, 'longitude': -93.4034162}",9700 63rd Ave No,Suite 200,Maple Grove,45.069344,-93.4034162,USA
613517e27c85e5f861db88ec,Biolex Therapeutics,biotech,"{'description': 'Headquarters', 'address1': '158 Credle Street', 'address2': '', 'zip_code': '27312', 'city': 'Pittsboro', 'state_code': 'NC', 'country_code': 'USA', 'latitude': 35.7259177, 'longitude': -79.1791771}",158 Credle Street,,Pittsboro,35.7259177,-79.1791771,USA
613517e27c85e5f861db88fe,Core Dynamics,biotech,"{'description': 'Core Dynamics', 'address1': '40 Ramland Road', 'address2': '', 'zip_code': '10962', 'city': 'Orangeburg', 'state_code': 'NY', 'country_code': 'USA', 'latitude': 41.032802, 'longitude': -73.972888}",40 Ramland Road,,Orangeburg,41.032802,-73.972888,USA
613517e17c85e5f861db65ff,GameDuell,games_video,"{'description': 'European Headquarters', 'address1': 'Taubenstr. 24-25', 'address2': '', 'zip_code': '10117', 'city': 'Berlin', 'state_code': None, 'country_code': 'DEU', 'latitude': 52.5131826, 'longitude': 13.3941489}",Taubenstr. 24-25,,Berlin,52.5131826,13.3941489,DEU
613517e27c85e5f861db81fb,Unity Technologies,games_video,"{'description': 'US Office', 'address1': '795 Folsom', 'address2': '', 'zip_code': '94107', 'city': 'San Francisco', 'state_code': 'CA', 'country_code': 'USA', 'latitude': 55.6924605, 'longitude': 12.530107}",795 Folsom,,San Francisco,55.6924605,12.530107,USA
613517e27c85e5f861db867c,Pixelligent,nanotech,"{'description': '', 'address1': '387 Technology Drive', 'address2': '', 'zip_code': '20742', 'city': 'College Park', 'state_code': 'MD', 'country_code': 'USA', 'latitude': 38.992699, 'longitude': -76.93873}",387 Technology Drive,,College Park,38.992699,-76.93873,USA
613517e27c85e5f861db8813,Anadys,biotech,"{'description': 'Corporate Headquarters', 'address1': '3115 Merryfield Row', 'address2': '', 'zip_code': '92121', 'city': 'San Diego', 'state_code': 'CA', 'country_code': 'USA', 'latitude': 32.901186, 'longitude': -117.238544}",3115 Merryfield Row,,San Diego,32.901186,-117.238544,USA
613517e17c85e5f861db64ce,Motionbox,games_video,"{'description': '', 'address1': '80 Broad St', 'address2': '28th Floor', 'zip_code': '10004', 'city': 'New York', 'state_code': 'NY', 'country_code': 'USA', 'latitude': 40.606061, 'longitude': -73.822331}",80 Broad St,28th Floor,New York,40.606061,-73.822331,USA
613517e27c85e5f861db8b7c,Tiny Speck,games_video,"{'description': '', 'address1': '163 Hastings St W', 'address2': '', 'zip_code': 'BC V6B 1H5', 'city': 'Vancouver', 'state_code': None, 'country_code': 'CAN', 'latitude': 49.2824551, 'longitude': -123.109217}",163 Hastings St W,,Vancouver,49.2824551,-123.109217,CAN
613517e17c85e5f861db6663,Social Gaming Network,games_video,"{'description': 'HQ Los Angeles', 'address1': '9570 W. Pico Blvd 3rd Floor', 'address2': '', 'zip_code': '90035', 'city': 'Los Angeles', 'state_code': 'CA', 'country_code': 'USA', 'latitude': 37.446823, 'longitude': -122.161523}",9570 W. Pico Blvd 3rd Floor,,Los Angeles,37.446823,-122.161523,USA
613517e17c85e5f861db6664,Social Gaming Network,games_video,"{'description': '', 'address1': '9606 S. Santa Monica Blvd', 'address2': '2nd Floor', 'zip_code': '90210', 'city': 'Beverly Hills', 'state_code': 'CA', 'country_code': 'USA', 'latitude': 34.0698494, 'longitude': -118.4054182}",9606 S. Santa Monica Blvd,2nd Floor,Beverly Hills,34.0698494,-118.4054182,USA
613517e17c85e5f861db6400,RayV,games_video,"{'description': None, 'address1': '150 West 77, Suite 4', 'address2': None, 'zip_code': None, 'city': 'New York', 'state_code': 'NY', 'country_code': 'USA', 'latitude': 40.781159, 'longitude': -73.978332}","150 West 77, Suite 4",,New York,40.781159,-73.978332,USA
613517e27c85e5f861db8788,Apex Construction,cleantech,"{'description': '', 'address1': '1901 W. Fillmore St', 'address2': '', 'zip_code': '85009', 'city': 'Phoenix', 'state_code': 'AZ', 'country_code': 'USA', 'latitude': 33.453968, 'longitude': -112.100881}",1901 W. Fillmore St,,Phoenix,33.453968,-112.100881,USA
613517e27c85e5f861db8814,Metrolight,cleantech,"{'description': 'Corporate Headquarters', 'address1': 'P.O.Box 8194', 'address2': '', 'zip_code': '42160', 'city': 'Netanya', 'state_code': None, 'country_code': 'ISR', 'latitude': 32.3462, 'longitude': 34.8615}",P.O.Box 8194,,Netanya,32.3462,34.8615,ISR
613517e27c85e5f861db8815,Metrolight,cleantech,"{'description': 'US Headquarters', 'address1': '501 Corporate Centre Drive', 'address2': 'Suite 520', 'zip_code': '37067', 'city': 'Franklin', 'state_code': 'TN', 'country_code': 'USA', 'latitude': 35.947578, 'longitude': -86.809647}",501 Corporate Centre Drive,Suite 520,Franklin,35.947578,-86.809647,USA
613517e27c85e5f861db8908,GoodBelly,biotech,"{'description': '', 'address1': 'P.O. Box 17460', 'address2': '', 'zip_code': '80308', 'city': 'Boulder', 'state_code': 'CO', 'country_code': 'USA', 'latitude': 40.0153, 'longitude': -105.2702}",P.O. Box 17460,,Boulder,40.0153,-105.2702,USA
613517e27c85e5f861db8844,Arena Pharmaceuticals,biotech,"{'description': '', 'address1': '6154 Nancy Ridge Drive', 'address2': '', 'zip_code': '92121', 'city': 'San Diego', 'state_code': 'CA', 'country_code': 'USA', 'latitude': 32.889321, 'longitude': -117.184408}",6154 Nancy Ridge Drive,,San Diego,32.889321,-117.184408,USA
613517e17c85e5f861db640a,23andMe,biotech,"{'description': '', 'address1': '2606 Bayshore Parkway', 'address2': '', 'zip_code': '94042', 'city': 'Mountain View', 'state_code': 'CA', 'country_code': 'USA', 'latitude': 37.09024, 'longitude': -95.712891}",2606 Bayshore Parkway,,Mountain View,37.09024,-95.712891,USA
613517e17c85e5f861db6fe1,Segway,cleantech,"{'description': 'Segway Inc.', 'address1': '14 Technology Drive', 'address2': '', 'zip_code': '03110', 'city': 'Bedford', 'state_code': 'NH', 'country_code': 'USA', 'latitude': 42.928152, 'longitude': -71.45672}",14 Technology Drive,,Bedford,42.928152,-71.45672,USA
613517e27c85e5f861db888b,Osprey Pharmaceuticals USA,biotech,"{'description': '', 'address1': '', 'address2': '', 'zip_code': '', 'city': 'San Francisco', 'state_code': 'CA', 'country_code': 'USA', 'latitude': 37.775196, 'longitude': -122.419204}",,,San Francisco,37.775196,-122.419204,USA
613517e17c85e5f861db635c,OMGPOP,games_video,"{'description': '', 'address1': 'SoHo', 'address2': '', 'zip_code': '', 'city': 'New York', 'state_code': 'NY', 'country_code': 'USA', 'latitude': 40.723384, 'longitude': -74.001704}",SoHo,,New York,40.723384,-74.001704,USA
613517e17c85e5f861db61d3,iLike,games_video,"{'description': None, 'address1': '1605 Boylston Ave, Suite 202', 'address2': '', 'zip_code': '98122', 'city': 'Seattle', 'state_code': 'WA', 'country_code': 'USA', 'latitude': 47.615313, 'longitude': -122.323408}","1605 Boylston Ave, Suite 202",,Seattle,47.615313,-122.323408,USA
613517e27c85e5f861db8870,Chemclin,biotech,"{'description': '', 'address1': 'No. 7, Fengxian M. Rd., Haidian District', 'address2': '', 'zip_code': '100094', 'city': 'Beijing', 'state_code': None, 'country_code': 'CHN', 'latitude': 40.081069, 'longitude': 116.2475611}","No. 7, Fengxian M. Rd., Haidian District",,Beijing,40.081069,116.2475611,CHN
613517e17c85e5f861db6441,PicksPal,games_video,"{'description': None, 'address1': None, 'address2': None, 'zip_code': None, 'city': 'Mountain View', 'state_code': 'CA', 'country_code': 'USA', 'latitude': 37.40047, 'longitude': -122.072981}",,,Mountain View,37.40047,-122.072981,USA
613517e17c85e5f861db6ca9,PurePlay,games_video,"{'description': None, 'address1': '', 'address2': '', 'zip_code': '', 'city': 'San Francisco', 'state_code': 'CA', 'country_code': 'USA', 'latitude': 37.775196, 'longitude': -122.419204}",,,San Francisco,37.775196,-122.419204,USA
613517e17c85e5f861db7177,iStreamPlanet,games_video,"{'description': 'Headquarters', 'address1': '6630 West Arby Ave.', 'address2': 'Suite 112', 'zip_code': '89118', 'city': 'Las Vegas', 'state_code': 'NV', 'country_code': 'USA', 'latitude': 36.059658, 'longitude': -115.23671}",6630 West Arby Ave.,Suite 112,Las Vegas,36.059658,-115.23671,USA
613517e27c85e5f861db896e,Hycrete,cleantech,"{'description': '', 'address1': '462 Barell Avenue', 'address2': '', 'zip_code': '07072', 'city': 'Carlstadt', 'state_code': 'NJ', 'country_code': 'USA', 'latitude': 40.82366, 'longitude': -74.055948}",462 Barell Avenue,,Carlstadt,40.82366,-74.055948,USA
613517e17c85e5f861db7016,SulfurCell,cleantech,"{'description': 'Corporate Headquarters', 'address1': 'Barbara McClintock', 'address2': 'Str.11', 'zip_code': '12489', 'city': 'Berlin', 'state_code': None, 'country_code': 'DEU', 'latitude': 52.432644, 'longitude': 13.522974}",Barbara McClintock,Str.11,Berlin,52.432644,13.522974,DEU
613517e27c85e5f861db885e,NovImmune,biotech,"{'description': '', 'address1': '', 'address2': '', 'zip_code': '', 'city': 'Geneva', 'state_code': None, 'country_code': 'CHE', 'latitude': 46.2038099, 'longitude': 6.1399589}",,,Geneva,46.2038099,6.1399589,CHE
613517e17c85e5f861db6b92,Infinia,cleantech,"{'description': '', 'address1': '', 'address2': '300 WEST 12TH STREET', 'zip_code': '84404', 'city': 'OGDEN', 'state_code': 'UT', 'country_code': 'USA', 'latitude': 46.220919, 'longitude': -119.22322}",,300 WEST 12TH STREET,OGDEN,46.220919,-119.22322,USA
613517e27c85e5f861db87cd,Cornerstone Pharmaceuticals,biotech,"{'description': '', 'address1': '1 Duncan Drive', 'address2': '', 'zip_code': '08512', 'city': 'Cranbury', 'state_code': 'NJ', 'country_code': 'USA', 'latitude': 40.329677, 'longitude': -74.495653}",1 Duncan Drive,,Cranbury,40.329677,-74.495653,USA
613517e27c85e5f861db8732,Prenova,cleantech,"{'description': '', 'address1': '400 Northridge Rd.,', 'address2': 'Suite 1000', 'zip_code': '30350', 'city': 'Atlanta', 'state_code': 'GA', 'country_code': 'USA', 'latitude': 33.982967, 'longitude': -84.346041}","400 Northridge Rd.,",Suite 1000,Atlanta,33.982967,-84.346041,USA
613517e27c85e5f861db871c,Actimis Pharmaceuticals,biotech,"{'description': '', 'address1': '10835 Road To The Cure', 'address2': 'Suite 200', 'zip_code': '92121', 'city': 'San Diego', 'state_code': 'CA', 'country_code': 'USA', 'latitude': 32.902232, 'longitude': -117.236374}",10835 Road To The Cure,Suite 200,San Diego,32.902232,-117.236374,USA
613517e27c85e5f861db89bc,Innovation Fuels,cleantech,"{'description': '', 'address1': '30 Waterfront St .', 'address2': '', 'zip_code': '06512', 'city': 'New Haven', 'state_code': 'CT', 'country_code': 'USA', 'latitude': 41.2887451, 'longitude': -72.903102}",30 Waterfront St .,,New Haven,41.2887451,-72.903102,USA
613517e27c85e5f861db870d,Stemline Therapeutics,biotech,"{'description': '', 'address1': '1675 York Avenue', 'address2': 'Suite 30-E', 'zip_code': '10128', 'city': 'New York', 'state_code': 'NY', 'country_code': 'USA', 'latitude': 40.7775647, 'longitude': -73.9459335}",1675 York Avenue,Suite 30-E,New York,40.7775647,-73.9459335,USA
613517e27c85e5f861db8733,Glycos Biotechnologies,biotech,"{'description': '', 'address1': '711 Leverkuhn', 'address2': '', 'zip_code': '77007', 'city': 'Houston', 'state_code': 'TX', 'country_code': 'USA', 'latitude': 29.768442, 'longitude': -95.401093}",711 Leverkuhn,,Houston,29.768442,-95.401093,USA
613517e17c85e5f861db6315,Vtap,games_video,"{'description': None, 'address1': None, 'address2': None, 'zip_code': None, 'city': 'Andover', 'state_code': 'MA', 'country_code': 'USA', 'latitude': 42.656621, 'longitude': -71.140538}",,,Andover,42.656621,-71.140538,USA
613517e17c85e5f861db723b,Veveo,games_video,"{'description': 'Corporate Headquarters', 'address1': '40 Shattuck Road', 'address2': 'Suite #303', 'zip_code': '01810', 'city': 'Andover', 'state_code': 'MA', 'country_code': 'USA', 'latitude': 42.687142, 'longitude': -71.212156}",40 Shattuck Road,Suite #303,Andover,42.687142,-71.212156,USA
613517e17c85e5f861db796a,One True Media,games_video,"{'description': '', 'address1': '955 - A Charter Street', 'address2': '', 'zip_code': '94063', 'city': 'Redwood City', 'state_code': 'CA', 'country_code': 'USA', 'latitude': 37.485824, 'longitude': -122.212095}",955 - A Charter Street,,Redwood City,37.485824,-122.212095,USA
613517e27c85e5f861db8705,EnzymeRx,biotech,"{'description': '', 'address1': '17 Arcadian Avenue', 'address2': 'Suite 104', 'zip_code': '07652', 'city': 'Paramus', 'state_code': 'NJ', 'country_code': 'USA', 'latitude': 40.9234048, 'longitude': -74.0838388}",17 Arcadian Avenue,Suite 104,Paramus,40.9234048,-74.0838388,USA
613517e27c85e5f861db8809,Solazyme,cleantech,"{'description': 'Corporate Headquarters', 'address1': '561 Eccles Avenue', 'address2': '', 'zip_code': '94080', 'city': 'South San Francisco', 'state_code': 'CA', 'country_code': 'USA', 'latitude': 37.661543, 'longitude': -122.390464}",561 Eccles Avenue,,South San Francisco,37.661543,-122.390464,USA
613517e27c85e5f861db888d,NGM Biopharmaceuticals,biotech,"{'description': '', 'address1': '630 Gateway Blvd', 'address2': '', 'zip_code': '94080-7014', 'city': 'South San Francisco', 'state_code': 'CA', 'country_code': 'USA', 'latitude': 37.656246, 'longitude': -122.399735}",630 Gateway Blvd,,South San Francisco,37.656246,-122.399735,USA
613517e07c85e5f861db618b,Livestream,games_video,"{'description': 'Livestream HQ', 'address1': '111 8th Avenue, #1509', 'address2': '', 'zip_code': '10011', 'city': 'New York', 'state_code': 'NY', 'country_code': 'USA', 'latitude': 40.726155, 'longitude': -73.995625}","111 8th Avenue, #1509",,New York,40.726155,-73.995625,USA
613517e27c85e5f861db88ba,Primaeva Medical,biotech,"{'description': 'HQ', 'address1': '4160 Hacienda Drive, Suite 100', 'address2': '', 'zip_code': '94588', 'city': 'Pleasanton', 'state_code': 'CA', 'country_code': 'USA', 'latitude': 37.686513, 'longitude': -121.895516}","4160 Hacienda Drive, Suite 100",,Pleasanton,37.686513,-121.895516,USA
613517e17c85e5f861db7843,Games2Win,games_video,"{'description': '', 'address1': '42, Film Center,', 'address2': '4th Floor, 68,', 'zip_code': '', 'city': 'Tardeo,Mumbai', 'state_code': None, 'country_code': 'IND', 'latitude': 18.9742904, 'longitude': 72.8127265}","42, Film Center,","4th Floor, 68,","Tardeo,Mumbai",18.9742904,72.8127265,IND
613517e27c85e5f861db87f1,Lightwave Power,cleantech,"{'description': 'HQ', 'address1': '57 Smith Place', 'address2': '', 'zip_code': 'MA 02138', 'city': 'Cambridge', 'state_code': 'ME', 'country_code': 'USA', 'latitude': 42.392628, 'longitude': -71.151216}",57 Smith Place,,Cambridge,42.392628,-71.151216,USA
613517e27c85e5f861db8b7e,Advanced Power Projects,cleantech,"{'description': '', 'address1': '43801 Mission Blvd, Suite 103', 'address2': '', 'zip_code': '94539', 'city': 'Fremont', 'state_code': 'CA', 'country_code': 'USA', 'latitude': 37.5252461, 'longitude': -121.9178417}","43801 Mission Blvd, Suite 103",,Fremont,37.5252461,-121.9178417,USA
613517e17c85e5f861db61c1,RockYou,games_video,"{'description': '', 'address1': '585 Broadway', 'address2': 'Suite A', 'zip_code': '94063', 'city': 'Redwood City', 'state_code': 'CA', 'country_code': 'USA', 'latitude': 37.484619, 'longitude': -122.206893}",585 Broadway,Suite A,Redwood City,37.484619,-122.206893,USA
613517e27c85e5f861db89a4,Aspen Aerogels,cleantech,"{'description': '', 'address1': '30 Forbes Road, Building B', 'address2': '', 'zip_code': '01532', 'city': 'Northborough', 'state_code': 'MA', 'country_code': 'USA', 'latitude': 42.347872, 'longitude': -71.63034}","30 Forbes Road, Building B",,Northborough,42.347872,-71.63034,USA
613517e27c85e5f861db86ff,H2scan,cleantech,"{'description': 'Corporate Headquarters', 'address1': '28486 Westinghouse Place', 'address2': 'Suite 100', 'zip_code': '91355', 'city': 'Valencia', 'state_code': 'CA', 'country_code': 'USA', 'latitude': 34.4421433, 'longitude': -118.5987647}",28486 Westinghouse Place,Suite 100,Valencia,34.4421433,-118.5987647,USA
613517e27c85e5f861db886c,Promosome,biotech,"{'description': '', 'address1': '369 Lexington Avenue, 17th Floor', 'address2': '', 'zip_code': '10017', 'city': 'New York', 'state_code': 'NY', 'country_code': 'USA', 'latitude': 42.2774845, 'longitude': -74.304914}","369 Lexington Avenue, 17th Floor",,New York,42.2774845,-74.304914,USA
613517e27c85e5f861db8833,Azure Power,cleantech,"{'description': '', 'address1': 'A-11, Second Floor', 'address2': 'Kailash Colony', 'zip_code': '110065', 'city': 'New Delhi', 'state_code': None, 'country_code': 'IND', 'latitude': 28.7164018, 'longitude': 77.1765029}","A-11, Second Floor",Kailash Colony,New Delhi,28.7164018,77.1765029,IND
613517e27c85e5f861db8731,CoaLogix,cleantech,"{'description': '', 'address1': '11701 Mt. Holly Road', 'address2': '', 'zip_code': '28214', 'city': 'Charlotte', 'state_code': 'NC', 'country_code': 'USA', 'latitude': 35.295706, 'longitude': -80.995054}",11701 Mt. Holly Road,,Charlotte,35.295706,-80.995054,USA
613517e07c85e5f861db615e,Babelgum,games_video,"{'description': '', 'address1': '', 'address2': '', 'zip_code': '', 'city': 'London', 'state_code': None, 'country_code': 'GBR', 'latitude': 53.344104, 'longitude': -6.267494}",,,London,53.344104,-6.267494,GBR
613517e17c85e5f861db6246,Curse,games_video,"{'description': 'San Francisco', 'address1': '60 Broadway', 'address2': '', 'zip_code': '94111', 'city': 'San Francisco', 'state_code': 'CA', 'country_code': 'USA', 'latitude': 37.787092, 'longitude': -122.399972}",60 Broadway,,San Francisco,37.787092,-122.399972,USA
613517e17c85e5f861db65f1,Maven Networks,games_video,"{'description': None, 'address1': '', 'address2': '', 'zip_code': '', 'city': 'Cambridge', 'state_code': 'MA', 'country_code': 'USA', 'latitude': 42.375392, 'longitude': -71.118487}",,,Cambridge,42.375392,-71.118487,USA
613517e17c85e5f861db7200,Pricelock,cleantech,"{'description': 'Headquarters', 'address1': '101 Redwood Shores Parkway', 'address2': 'Suite 100', 'zip_code': '94065', 'city': 'Redwood City', 'state_code': 'CA', 'country_code': 'USA', 'latitude': 37.518539, 'longitude': -122.254275}",101 Redwood Shores Parkway,Suite 100,Redwood City,37.518539,-122.254275,USA
613517e17c85e5f861db73f1,Hangout Industries,games_video,"{'description': '', 'address1': '110 Chauncy Street', 'address2': '', 'zip_code': '02111', 'city': 'Boston', 'state_code': 'MA', 'country_code': 'USA', 'latitude': 42.352835, 'longitude': -71.0609612}",110 Chauncy Street,,Boston,42.352835,-71.0609612,USA
613517e17c85e5f861db75d0,Hangout Industries,games_video,"{'description': '', 'address1': '110 Chauncy Street', 'address2': '', 'zip_code': '02111', 'city': 'Boston', 'state_code': 'MA', 'country_code': 'USA', 'latitude': 42.352835, 'longitude': -71.0609612}",110 Chauncy Street,,Boston,42.352835,-71.0609612,USA
613517e17c85e5f861db7ca4,Robotgalaxy,games_video,"{'description': '', 'address1': '41 Union Square West,', 'address2': 'Suite 808', 'zip_code': '10003', 'city': 'New York', 'state_code': 'NY', 'country_code': 'USA', 'latitude': 40.737216, 'longitude': -73.990947}","41 Union Square West,",Suite 808,New York,40.737216,-73.990947,USA
613517e27c85e5f861db886b,EnerG2,cleantech,"{'description': '', 'address1': '810 3rd Avenue, Suite 120', 'address2': '', 'zip_code': '98104', 'city': 'Seattle', 'state_code': 'WA', 'country_code': 'USA', 'latitude': 47.6042663, 'longitude': -122.3328401}","810 3rd Avenue, Suite 120",,Seattle,47.6042663,-122.3328401,USA
613517e27c85e5f861db88b1,NKT Therapeutics,biotech,"{'description': 'HQ', 'address1': '233 Needham Street', 'address2': '', 'zip_code': '02464', 'city': 'Newton', 'state_code': 'ME', 'country_code': 'USA', 'latitude': 42.3097378, 'longitude': -71.214605}",233 Needham Street,,Newton,42.3097378,-71.214605,USA
613517e27c85e5f861db8865,Trevena,biotech,"{'description': '', 'address1': '1018 West 8th Avenue', 'address2': 'Suite A', 'zip_code': '19406', 'city': 'King of Prussia', 'state_code': 'PA', 'country_code': 'USA', 'latitude': 40.100058, 'longitude': -75.413354}",1018 West 8th Avenue,Suite A,King of Prussia,40.100058,-75.413354,USA
613517e27c85e5f861db87b5,Singulex,biotech,"{'description': 'HQ', 'address1': '1650 Harbor Bay Parkway, Suite 200', 'address2': '', 'zip_code': '94502-3012', 'city': 'Alameda', 'state_code': 'CA', 'country_code': 'USA', 'latitude': 37.723803, 'longitude': -122.240937}","1650 Harbor Bay Parkway, Suite 200",,Alameda,37.723803,-122.240937,USA
613517e27c85e5f861db89ab,XDx,biotech,"{'description': '', 'address1': '3260 Bayshore Blvd.', 'address2': '', 'zip_code': '94005', 'city': 'Brisbane', 'state_code': 'CA', 'country_code': 'USA', 'latitude': 37.691226, 'longitude': -122.4040269}",3260 Bayshore Blvd.,,Brisbane,37.691226,-122.4040269,USA
613517e17c85e5f861db6ac5,Kabam,games_video,"{'description': 'HQ', 'address1': '795 Folsom Street', 'address2': 'Suite 600', 'zip_code': '94107', 'city': 'San Francisco', 'state_code': 'CA', 'country_code': 'USA', 'latitude': 37.3944561, 'longitude': -122.0785314}",795 Folsom Street,Suite 600,San Francisco,37.3944561,-122.0785314,USA
613517e17c85e5f861db652b,Ausra,cleantech,"{'description': '', 'address1': '303 Ravendale Drive', 'address2': '', 'zip_code': '94043', 'city': 'Mountain View', 'state_code': 'CA', 'country_code': 'USA', 'latitude': 37.446526, 'longitude': -122.117933}",303 Ravendale Drive,,Mountain View,37.446526,-122.117933,USA
613517e17c85e5f861db6d88,ZPower,cleantech,"{'description': None, 'address1': '4765 Calle Quetzal', 'address2': '', 'zip_code': '93012', 'city': 'Camarillo', 'state_code': 'CA', 'country_code': 'USA', 'latitude': 34.197333, 'longitude': -119.009054}",4765 Calle Quetzal,,Camarillo,34.197333,-119.009054,USA
613517e27c85e5f861db8260,BioVex,biotech,"{'description': 'BioVex Ltd', 'address1': '70 Milton Park', 'address2': 'Abingdon', 'zip_code': 'OX14 4RX', 'city': 'Oxon', 'state_code': None, 'country_code': 'GBR', 'latitude': 51.671711, 'longitude': -1.289082}",70 Milton Park,Abingdon,Oxon,51.671711,-1.289082,GBR
613517e27c85e5f861db8261,BioVex,biotech,"{'description': 'BioVex Inc', 'address1': '34 Commerce Way', 'address2': '', 'zip_code': 'MA 01801', 'city': 'Woburn', 'state_code': 'MA', 'country_code': 'USA', 'latitude': 42.508964, 'longitude': -71.13287}",34 Commerce Way,,Woburn,42.508964,-71.13287,USA
613517e27c85e5f861db874d,Hyperion Power Generation,cleantech,"{'description': 'Main office', 'address1': '369 Montezuma Avenue', 'address2': 'Suite 508', 'zip_code': '87501', 'city': 'Santa Fe', 'state_code': 'NM', 'country_code': 'USA', 'latitude': 35.6848786, 'longitude': -105.9451978}",369 Montezuma Avenue,Suite 508,Santa Fe,35.6848786,-105.9451978,USA
613517e27c85e5f861db874e,Hyperion Power Generation,cleantech,"{'description': 'Engineering office', 'address1': '2101 Trinity Drive', 'address2': 'Suite R', 'zip_code': '87544', 'city': 'Los Alamos', 'state_code': 'NM', 'country_code': 'USA', 'latitude': 35.8799641, 'longitude': -106.3026527}",2101 Trinity Drive,Suite R,Los Alamos,35.8799641,-106.3026527,USA
613517e17c85e5f861db62a0,Revver,games_video,"{'description': None, 'address1': '', 'address2': '', 'zip_code': '', 'city': 'Los Angeles', 'state_code': 'CA', 'country_code': 'USA', 'latitude': 34.052187, 'longitude': -118.243425}",,,Los Angeles,34.052187,-118.243425,USA
613517e27c85e5f861db89c1,Sunovia,cleantech,"{'description': '', 'address1': '6408 Parkland Drive', 'address2': 'Suite 104', 'zip_code': '34243', 'city': 'Sarasota', 'state_code': 'FL', 'country_code': 'USA', 'latitude': 27.4281996, 'longitude': -82.5362596}",6408 Parkland Drive,Suite 104,Sarasota,27.4281996,-82.5362596,USA
613517e17c85e5f861db769e,Heatwave Interactive,games_video,"{'description': 'Headquarters', 'address1': 'Tower of the Hills', 'address2': '13809 Research Blvd.', 'zip_code': '78750', 'city': 'Austin', 'state_code': 'TX', 'country_code': 'USA', 'latitude': 30.297775, 'longitude': -97.762921}",Tower of the Hills,13809 Research Blvd.,Austin,30.297775,-97.762921,USA
613517e27c85e5f861db83f7,Eiger BioPharmaceuticals,biotech,"{'description': None, 'address1': None, 'address2': None, 'zip_code': None, 'city': 'San Carlos', 'state_code': 'CA', 'country_code': 'USA', 'latitude': 37.5071591, 'longitude': -122.2605222}",,,San Carlos,37.5071591,-122.2605222,USA
613517e17c85e5f861db6c2d,Fliqz,games_video,"{'description': '', 'address1': '1266 66th St.', 'address2': '#10', 'zip_code': '94608', 'city': 'Emeryville', 'state_code': 'CA', 'country_code': 'USA', 'latitude': 37.848641, 'longitude': -122.289498}",1266 66th St.,#10,Emeryville,37.848641,-122.289498,USA
613517e27c85e5f861db865c,Tolera Therapeutics,biotech,"{'description': '', 'address1': '350 E. Michigan Avenue', 'address2': 'Suite 205', 'zip_code': '49007', 'city': 'Kalamazoo', 'state_code': 'MI', 'country_code': 'USA', 'latitude': 42.2927344, 'longitude': -85.5796432}",350 E. Michigan Avenue,Suite 205,Kalamazoo,42.2927344,-85.5796432,USA
613517e07c85e5f861db6185,Pando Networks,games_video,"{'description': None, 'address1': '520 Broadway', 'address2': '10th Floor', 'zip_code': '10012', 'city': 'New York', 'state_code': 'NY', 'country_code': 'USA', 'latitude': 40.722655, 'longitude': -73.99873}",520 Broadway,10th Floor,New York,40.722655,-73.99873,USA
613517e27c85e5f861db8b8e,InSound Medical,biotech,"{'description': '', 'address1': '39660 Eureka Drive', 'address2': '', 'zip_code': '94560', 'city': 'Newark', 'state_code': 'CA', 'country_code': 'USA', 'latitude': 37.512038, 'longitude': -121.998513}",39660 Eureka Drive,,Newark,37.512038,-121.998513,USA
613517e27c85e5f861db8669,Five Prime Therapeutics,biotech,"{'description': '', 'address1': '1650 Owens Street', 'address2': 'Suite 200', 'zip_code': '94158-2216', 'city': 'San Francisco', 'state_code': 'CA', 'country_code': 'USA', 'latitude': 37.7676285, 'longitude': -122.393799}",1650 Owens Street,Suite 200,San Francisco,37.7676285,-122.393799,USA
613517e27c85e5f861db843d,Melinta,biotech,"{'description': '', 'address1': '300 George Street  Suite 301', 'address2': '', 'zip_code': '06511-6663', 'city': 'New Haven', 'state_code': 'CT', 'country_code': 'USA', 'latitude': 41.305179, 'longitude': -72.93117}",300 George Street  Suite 301,,New Haven,41.305179,-72.93117,USA
613517e27c85e5f861db88a7,Sutro Biopharma,biotech,"{'description': 'HQ', 'address1': '310 Utah Ave', 'address2': 'Suite 150', 'zip_code': '94080', 'city': 'South San Francisco', 'state_code': 'CA', 'country_code': 'USA', 'latitude': 37.647198, 'longitude': -122.394584}",310 Utah Ave,Suite 150,South San Francisco,37.647198,-122.394584,USA
613517e27c85e5f861db8859,Virdia,cleantech,"{'description': '', 'address1': '303 Twin Dolphin Dr', 'address2': '#6062', 'zip_code': '94065-1497', 'city': 'Redwood City', 'state_code': 'CA', 'country_code': 'USA', 'latitude': 37.523311, 'longitude': -122.259154}",303 Twin Dolphin Dr,#6062,Redwood City,37.523311,-122.259154,USA
613517e27c85e5f861db88a5,Divergence,biotech,"{'description': 'Divergence, Inc.', 'address1': '893 North Warson Road', 'address2': '', 'zip_code': '63141', 'city': 'St. Louis', 'state_code': 'MO', 'country_code': 'USA', 'latitude': 38.6721461, 'longitude': -90.3949118}",893 North Warson Road,,St. Louis,38.6721461,-90.3949118,USA
613517e07c85e5f861db6182,YouTube,games_video,"{'description': 'Corporate Headquarters', 'address1': '901 Cherry Ave', 'address2': '', 'zip_code': '94066', 'city': 'San Bruno', 'state_code': 'CA', 'country_code': 'USA', 'latitude': 37.627971, 'longitude': -122.426804}",901 Cherry Ave,,San Bruno,37.627971,-122.426804,USA
613517e27c85e5f861db86db,GameGround,games_video,"{'description': 'HQ', 'address1': '', 'address2': '', 'zip_code': '', 'city': 'New York', 'state_code': 'NY', 'country_code': 'USA', 'latitude': 40.756054, 'longitude': -73.986951}",,,New York,40.756054,-73.986951,USA
613517e17c85e5f861db6443,Zattoo,games_video,"{'description': 'Zattoo USA', 'address1': '1327 Jones Dr. Suite 106', 'address2': '', 'zip_code': '48105', 'city': 'Ann Arbor', 'state_code': 'MI', 'country_code': 'USA', 'latitude': 42.292649, 'longitude': -83.734673}",1327 Jones Dr. Suite 106,,Ann Arbor,42.292649,-83.734673,USA
613517e17c85e5f861db6728,Boonty,games_video,"{'description': None, 'address1': '54 Franklin Street', 'address2': '3F', 'zip_code': '10013', 'city': 'New York', 'state_code': 'NY', 'country_code': 'USA', 'latitude': 40.717248, 'longitude': -74.002662}",54 Franklin Street,3F,New York,40.717248,-74.002662,USA
613517e17c85e5f861db6afe,Citizen Sports,games_video,"{'description': '', 'address1': '525 Brannan St', 'address2': '', 'zip_code': '94107', 'city': 'San Francisco', 'state_code': 'CA', 'country_code': 'USA', 'latitude': 37.777513, 'longitude': -122.397044}",525 Brannan St,,San Francisco,37.777513,-122.397044,USA
613517e17c85e5f861db6dff,Stardoll,games_video,"{'description': '', 'address1': 'Hudiksvallsgatan 8', 'address2': '', 'zip_code': '113 30', 'city': 'Stockholm', 'state_code': None, 'country_code': 'SWE', 'latitude': 59.345553, 'longitude': 18.037611}",Hudiksvallsgatan 8,,Stockholm,59.345553,18.037611,SWE
613517e17c85e5f861db6ec4,VBS TV,games_video,"{'description': 'HeadQuarters', 'address1': '97 North Tenth Street', 'address2': 'Suite 204', 'zip_code': '11211', 'city': 'Brooklyn', 'state_code': 'NY', 'country_code': 'USA', 'latitude': 40.720764, 'longitude': -73.957968}",97 North Tenth Street,Suite 204,Brooklyn,40.720764,-73.957968,USA
613517e17c85e5f861db7f8c,Gamervision,games_video,"{'description': '', 'address1': '4030 Skyron Drive', 'address2': 'Suite F', 'zip_code': '18902', 'city': 'Doylestown', 'state_code': 'PA', 'country_code': 'USA', 'latitude': 40.3321202, 'longitude': -75.1184485}",4030 Skyron Drive,Suite F,Doylestown,40.3321202,-75.1184485,USA
613517e27c85e5f861db83ea,Ambrx,biotech,"{'description': 'Ambrx', 'address1': '10975 North Torrey Pines Road', 'address2': '', 'zip_code': '92037', 'city': 'La Jolla', 'state_code': 'CA', 'country_code': 'USA', 'latitude': 32.903177, 'longitude': -117.241409}",10975 North Torrey Pines Road,,La Jolla,32.903177,-117.241409,USA
613517e17c85e5f861db6410,The Climate Corporation,cleantech,"{'description': '', 'address1': '201 Third Street', 'address2': 'Suite 1100', 'zip_code': '94103', 'city': 'San Francisco', 'state_code': 'CA', 'country_code': 'USA', 'latitude': 37.782809, 'longitude': -122.394354}",201 Third Street,Suite 1100,San Francisco,37.782809,-122.394354,USA
613517e17c85e5f861db6411,The Climate Corporation,cleantech,"{'description': '', 'address1': '419 Occidental Ave S', 'address2': 'Suite 201', 'zip_code': '', 'city': 'Seattle', 'state_code': 'WY', 'country_code': 'USA', 'latitude': 47.5984767, 'longitude': -122.3331466}",419 Occidental Ave S,Suite 201,Seattle,47.5984767,-122.3331466,USA
613517e27c85e5f861db8849,Cempra,biotech,"{'description': 'Corporate Headquarters', 'address1': '6340 Quadrangle Drive', 'address2': 'Suite 100', 'zip_code': '27517', 'city': 'Chapel Hill', 'state_code': 'NC', 'country_code': 'USA', 'latitude': 35.911347, 'longitude': -78.976038}",6340 Quadrangle Drive,Suite 100,Chapel Hill,35.911347,-78.976038,USA
613517e27c85e5f861db88a2,Alimera Sciences,biotech,"{'description': '', 'address1': '6120 Windward Parkway', 'address2': 'Suite 290', 'zip_code': '30005', 'city': 'Alpharetta', 'state_code': 'GA', 'country_code': 'USA', 'latitude': 34.093625, 'longitude': -84.242809}",6120 Windward Parkway,Suite 290,Alpharetta,34.093625,-84.242809,USA
613517e27c85e5f861db880c,NanoString Technologies,biotech,"{'description': 'Corporate Headquarters', 'address1': '520 FairView Avenue N', 'address2': 'Suite 2000', 'zip_code': '98109', 'city': 'Seattle', 'state_code': 'WA', 'country_code': 'USA', 'latitude': 47.6234781, 'longitude': -122.3343544}",520 FairView Avenue N,Suite 2000,Seattle,47.6234781,-122.3343544,USA
613517e17c85e5f861db7d0f,AVA Solar,cleantech,"{'description': '', 'address1': '2695 Rocky Mountain Avenue', 'address2': 'Suite 100', 'zip_code': '80538', 'city': 'Loveland', 'state_code': 'CO', 'country_code': 'USA', 'latitude': 40.4182087, 'longitude': -105.0002597}",2695 Rocky Mountain Avenue,Suite 100,Loveland,40.4182087,-105.0002597,USA
613517e27c85e5f861db88e5,Siluria Technologies,nanotech,"{'description': '', 'address1': '409 Illinois Street', 'address2': '', 'zip_code': '94158', 'city': 'San Francisco', 'state_code': 'CA', 'country_code': 'USA', 'latitude': 37.4484914, 'longitude': -122.1802812}",409 Illinois Street,,San Francisco,37.4484914,-122.1802812,USA
613517e17c85e5f861db6e25,Aurora Biofuels,cleantech,"{'description': None, 'address1': None, 'address2': None, 'zip_code': None, 'city': 'Hayward', 'state_code': 'CA', 'country_code': 'USA', 'latitude': 37.6688205, 'longitude': -122.0807964}",,,Hayward,37.6688205,-122.0807964,USA
613517e17c85e5f861db636c,hulu,games_video,"{'description': None, 'address1': '12312 W. Olympic Blvd.', 'address2': None, 'zip_code': '90064', 'city': 'Los Angeles', 'state_code': 'CA', 'country_code': 'USA', 'latitude': 34.031276, 'longitude': -118.456806}",12312 W. Olympic Blvd.,,Los Angeles,34.031276,-118.456806,USA
613517e27c85e5f861db885a,Tokai Pharmaceuticals,biotech,"{'description': 'Tokai Pharmaceuticals', 'address1': 'One Broadway', 'address2': '14th floor', 'zip_code': '02142', 'city': 'Cambridge', 'state_code': 'MA', 'country_code': 'USA', 'latitude': 42.362856, 'longitude': -71.083762}",One Broadway,14th floor,Cambridge,42.362856,-71.083762,USA
613517e27c85e5f861db8b76,NanoInk,biotech,"{'description': '', 'address1': '8025 Lamon Ave', 'address2': '', 'zip_code': '60077', 'city': 'Skokie', 'state_code': 'IL', 'country_code': 'USA', 'latitude': 42.041574, 'longitude': -87.749253}",8025 Lamon Ave,,Skokie,42.041574,-87.749253,USA
613517e17c85e5f861db6c1b,GameFly,games_video,"{'description': 'GameFly HQ', 'address1': '11405', 'address2': 'Suite 110', 'zip_code': '90066', 'city': 'Los Angeles', 'state_code': 'CA', 'country_code': 'USA', 'latitude': 33.934558, 'longitude': -118.3962622}",11405,Suite 110,Los Angeles,33.934558,-118.3962622,USA
613517e17c85e5f861db6269,BuddyTV,games_video,"{'description': 'Seattle Headquarters', 'address1': '190 Queen Anne Ave Suite 280', 'address2': '', 'zip_code': '98109', 'city': 'Seattle', 'state_code': 'WA', 'country_code': 'USA', 'latitude': 47.61968, 'longitude': -122.356756}",190 Queen Anne Ave Suite 280,,Seattle,47.61968,-122.356756,USA
613517e27c85e5f861db88d3,Linkage Biosciences,biotech,"{'description': 'HQ', 'address1': '890 Dubuque Ave', 'address2': '', 'zip_code': '94080', 'city': 'South San Francisco', 'state_code': 'CA', 'country_code': 'USA', 'latitude': 37.7863728, 'longitude': -122.438545}",890 Dubuque Ave,,South San Francisco,37.7863728,-122.438545,USA
613517e17c85e5f861db6325,MocoSpace,games_video,"{'description': '', 'address1': '', 'address2': '', 'zip_code': '02111', 'city': 'Boston', 'state_code': 'MA', 'country_code': 'USA', 'latitude': 42.350274, 'longitude': -71.058768}",,,Boston,42.350274,-71.058768,USA
613517e27c85e5f861db819e,M3X Media,games_video,"{'description': '', 'address1': '', 'address2': '', 'zip_code': '', 'city': 'West Palm Beach', 'state_code': 'FL', 'country_code': 'USA', 'latitude': 26.72868, 'longitude': -80.099946}",,,West Palm Beach,26.72868,-80.099946,USA
613517e27c85e5f861db88ac,Garnet Biotherapeutics,biotech,"{'description': 'HQ', 'address1': '1 Great Valley Parkway', 'address2': 'Suite 12', 'zip_code': '19355', 'city': 'Malvern', 'state_code': 'PA', 'country_code': 'USA', 'latitude': 40.065531, 'longitude': -75.53122}",1 Great Valley Parkway,Suite 12,Malvern,40.065531,-75.53122,USA
613517e17c85e5f861db6762,Akoha,games_video,"{'description': None, 'address1': '3981 boul. St. Laurent', 'address2': 'Mezz 1', 'zip_code': 'H2W 1Y5', 'city': 'Montreal', 'state_code': None, 'country_code': 'CAN', 'latitude': 45.516545, 'longitude': -73.578477}",3981 boul. St. Laurent,Mezz 1,Montreal,45.516545,-73.578477,CAN
613517e27c85e5f861db876b,Wasatch Wind,cleantech,"{'description': '', 'address1': '357 W 910 S Suite A', 'address2': '', 'zip_code': '84032', 'city': 'Heber City', 'state_code': 'UT', 'country_code': 'USA', 'latitude': 40.4960244, 'longitude': -111.4199963}",357 W 910 S Suite A,,Heber City,40.4960244,-111.4199963,USA
613517e17c85e5f861db6d18,eJamming,games_video,"{'description': None, 'address1': '', 'address2': '', 'zip_code': '', 'city': 'Boca Raton', 'state_code': 'FL', 'country_code': 'USA', 'latitude': 26.367481, 'longitude': -80.114723}",,,Boca Raton,26.367481,-80.114723,USA
613517e17c85e5f861db625a,Crackle,games_video,"{'description': '', 'address1': '10202 W. Washington Blvd', 'address2': 'SPP 1127b', 'zip_code': '90232', 'city': 'Culver City', 'state_code': 'CA', 'country_code': 'USA', 'latitude': 34.017506, 'longitude': -118.401579}",10202 W. Washington Blvd,SPP 1127b,Culver City,34.017506,-118.401579,USA
613517e17c85e5f861db70d8,Lexy,games_video,"{'description': 'Corporate Headquarters', 'address1': '589 Howard Street', 'address2': 'Fifth Floor', 'zip_code': '94105', 'city': 'San Francisco', 'state_code': 'CA', 'country_code': 'USA', 'latitude': 37.786906, 'longitude': -122.397672}",589 Howard Street,Fifth Floor,San Francisco,37.786906,-122.397672,USA
613517e17c85e5f861db780c,SureSpeak,games_video,"{'description': 'Chicago Office', 'address1': '29 S Lasalle St', 'address2': 'Suite 1205', 'zip_code': '60603', 'city': 'Chicago', 'state_code': 'IL', 'country_code': 'USA', 'latitude': 41.889183, 'longitude': -87.632519}",29 S Lasalle St,Suite 1205,Chicago,41.889183,-87.632519,USA
613517e27c85e5f861db8679,2 Minutes,games_video,"{'description': '', 'address1': '9 rue biscornet', 'address2': '', 'zip_code': '75012', 'city': 'Paris', 'state_code': None, 'country_code': 'FRA', 'latitude': 48.8502056, 'longitude': 2.3698033}",9 rue biscornet,,Paris,48.8502056,2.3698033,FRA
613517e17c85e5f861db6d31,Gamook,games_video,"{'description': None, 'address1': '2735 Sand Hill Road', 'address2': '', 'zip_code': '94025', 'city': 'Menlo Park', 'state_code': 'CA', 'country_code': 'USA', 'latitude': 37.41924, 'longitude': -122.208414}",2735 Sand Hill Road,,Menlo Park,37.41924,-122.208414,USA
613517e27c85e5f861db8740,SolarOne Solutions,cleantech,"{'description': '', 'address1': '354 Waverly St.', 'address2': 'Chestnut Place, 1st Floor', 'zip_code': '01702', 'city': 'Framingham', 'state_code': 'MA', 'country_code': 'USA', 'latitude': 42.276902, 'longitude': -71.413567}",354 Waverly St.,"Chestnut Place, 1st Floor",Framingham,42.276902,-71.413567,USA
613517e27c85e5f861db87b4,NellOne Therapeutics,biotech,"{'description': '', 'address1': '10702 Murdock Road', 'address2': '', 'zip_code': '37932', 'city': 'Knoxville', 'state_code': 'TN', 'country_code': 'USA', 'latitude': 35.9155236, 'longitude': -84.1451163}",10702 Murdock Road,,Knoxville,35.9155236,-84.1451163,USA
613517e17c85e5f861db7c27,EcoVadis,cleantech,"{'description': 'Paris', 'address1': '4 rue du Faubourg Montmartre', 'address2': '', 'zip_code': '75009', 'city': 'PARIS', 'state_code': None, 'country_code': 'FRA', 'latitude': 48.8545738, 'longitude': 2.3216223}",4 rue du Faubourg Montmartre,,PARIS,48.8545738,2.3216223,FRA
613517e17c85e5f861db71c7,Network Foundation Technologies,games_video,"{'description': 'Corporate Headquarters', 'address1': '10250 Constellation Blvd.', 'address2': 'Suite 2062', 'zip_code': '90067', 'city': 'Century City', 'state_code': 'CA', 'country_code': 'USA', 'latitude': 34.057646, 'longitude': -118.417382}",10250 Constellation Blvd.,Suite 2062,Century City,34.057646,-118.417382,USA
613517e17c85e5f861db77f6,For Your Imagination,games_video,"{'description': 'HQ', 'address1': '22 West 27th Street', 'address2': '6th Floor', 'zip_code': '10001', 'city': 'New York', 'state_code': 'NY', 'country_code': 'USA', 'latitude': 40.744594, 'longitude': -73.989698}",22 West 27th Street,6th Floor,New York,40.744594,-73.989698,USA
613517e27c85e5f861db8860,Forterra Systems,games_video,"{'description': 'Corporate Headquarters', 'address1': '2207 Bridgepointe Parkway, Suite 200', 'address2': '', 'zip_code': '94404', 'city': 'San Mateo', 'state_code': 'CA', 'country_code': 'USA', 'latitude': 37.561576, 'longitude': -122.284173}","2207 Bridgepointe Parkway, Suite 200",,San Mateo,37.561576,-122.284173,USA
613517e17c85e5f861db6900,AudioMicro,games_video,"{'description': '', 'address1': '13351-D Riverside Dr #219', 'address2': '', 'zip_code': '91423', 'city': 'Sherman Oaks', 'state_code': 'CA', 'country_code': 'USA', 'latitude': 34.153588, 'longitude': -118.422495}",13351-D Riverside Dr #219,,Sherman Oaks,34.153588,-118.422495,USA
613517e27c85e5f861db874b,AJ Tech,cleantech,"{'description': '', 'address1': '44350 GUERANDE', 'address2': '', 'zip_code': '', 'city': 'GUERANDE', 'state_code': None, 'country_code': 'FRA', 'latitude': 47.3253193, 'longitude': -2.381592}",44350 GUERANDE,,GUERANDE,47.3253193,-2.381592,FRA
613517e17c85e5f861db72f4,Shattered Reality Interactive,games_video,"{'description': 'Main Office', 'address1': '490 2nd Street', 'address2': 'Suite 100', 'zip_code': '94107', 'city': 'San Francisco', 'state_code': 'CA', 'country_code': 'USA', 'latitude': 37.783046, 'longitude': -122.394067}",490 2nd Street,Suite 100,San Francisco,37.783046,-122.394067,USA
613517e17c85e5f861db74d1,Shattered Reality Interactive,games_video,"{'description': 'Main Office', 'address1': '490 2nd Street', 'address2': 'Suite 100', 'zip_code': '94107', 'city': 'San Francisco', 'state_code': 'CA', 'country_code': 'USA', 'latitude': 37.783046, 'longitude': -122.394067}",490 2nd Street,Suite 100,San Francisco,37.783046,-122.394067,USA
